(20250618)
(MACHINE)
(  VENDOR: BANTAM TOOLS)
(  MODEL: EXPLORER CNC MILLING MACHINE)
(  DESCRIPTION: BANTAM TOOLS EXPLORER CNC MILLING MACHINE)
(T1 D=6.35 CR=0. - ZMIN=-12.71 - FLAT END MILL)
G0 G90 G94 G17
G21
M5
G53 G0 Z0.

(FACE1)
T1
M3 S15000
G90 G94 G17
G55
G0 X113.602 Y-42.671
Z15.
G0 Z5.
G1 Z0.625 F842.
X113.594 Z0.526 F2526.
X113.57 Z0.429
X113.532 Z0.337
X113.48 Z0.252
X113.416 Z0.176
X113.34 Z0.111
X113.255 Z0.059
X113.163 Z0.021
X113.066 Z-0.002
X112.966 Z-0.01
X112.659
X-3.185
G2 X-5.386 Y-40.471 R2.201
X-3.185 Y-38.27 R2.201
G1 X112.659
G3 X114.86 Y-36.07 R2.201
X112.659 Y-33.869 R2.201
G1 X-3.185
G2 X-5.386 Y-31.668 R2.201
X-3.185 Y-29.468 R2.201
G1 X112.659
G3 X114.86 Y-27.267 R2.201
X112.659 Y-25.067 R2.201
G1 X-3.185
G2 X-5.386 Y-22.866 R2.201
X-3.185 Y-20.665 R2.201
G1 X112.659
G3 X114.86 Y-18.465 R2.201
X112.659 Y-16.264 R2.201
G1 X-3.185
G2 X-5.386 Y-14.064 R2.201
X-3.185 Y-11.863 R2.201
G1 X112.659
G3 X114.86 Y-9.662 R2.201
X112.659 Y-7.462 R2.201
G1 X-3.185
G2 X-5.386 Y-5.261 R2.201
X-3.185 Y-3.061 R2.201
G1 X112.659
X112.758 Z-0.002
X112.855 Z0.021
X112.947 Z0.059
X113.032 Z0.111
X113.108 Z0.176
X113.173 Z0.252
X113.225 Z0.337
X113.263 Z0.429
X113.286 Z0.526
X113.294 Z0.625
G0 Z15.

(ADAPTIVE1)
M3 S12000
G55
G0 X56.707 Y-24.591
Z15.
Z5.
Z2.5
G1 X56.884 Y-24.448 Z2.492 F2526.
X57.051 Y-24.293 Z2.484
X57.206 Y-24.127 Z2.476
X57.35 Y-23.95 Z2.468
X57.481 Y-23.764 Z2.46
X57.599 Y-23.57 Z2.452
X57.703 Y-23.367 Z2.444
X57.792 Y-23.158 Z2.436
X57.867 Y-22.944 Z2.428
X57.927 Y-22.724 Z2.421
X57.972 Y-22.501 Z2.413
X58.001 Y-22.275 Z2.405
X58.014 Y-22.048 Z2.397
X58.012 Y-21.821 Z2.389
X57.993 Y-21.594 Z2.381
X57.959 Y-21.369 Z2.373
X57.91 Y-21.147 Z2.365
X57.845 Y-20.929 Z2.357
X57.765 Y-20.716 Z2.349
X57.671 Y-20.509 Z2.341
X57.562 Y-20.309 Z2.333
X57.44 Y-20.117 Z2.325
X57.305 Y-19.934 Z2.317
X57.157 Y-19.76 Z2.309
X56.998 Y-19.598 Z2.301
X56.828 Y-19.447 Z2.293
X56.648 Y-19.308 Z2.285
X56.459 Y-19.182 Z2.277
X56.261 Y-19.069 Z2.27
X56.056 Y-18.97 Z2.262
X55.845 Y-18.886 Z2.254
X55.629 Y-18.817 Z2.246
X55.408 Y-18.763 Z2.238
X55.184 Y-18.724 Z2.23
X54.958 Y-18.701 Z2.222
X54.731 Y-18.693 Z2.214
X54.504 Y-18.702 Z2.206
X54.278 Y-18.726 Z2.198
X54.054 Y-18.766 Z2.19
X53.834 Y-18.821 Z2.182
X53.618 Y-18.891 Z2.174
X53.407 Y-18.977 Z2.166
X53.203 Y-19.076 Z2.158
X53.006 Y-19.19 Z2.15
X52.818 Y-19.317 Z2.142
X52.638 Y-19.456 Z2.134
X52.469 Y-19.608 Z2.127
X52.311 Y-19.771 Z2.119
X52.164 Y-19.945 Z2.111
X52.03 Y-20.128 Z2.103
X51.909 Y-20.321 Z2.095
X51.802 Y-20.521 Z2.087
X51.709 Y-20.728 Z2.079
X51.63 Y-20.941 Z2.071
X51.566 Y-21.159 Z2.063
X51.518 Y-21.381 Z2.055
X51.485 Y-21.606 Z2.047
X51.468 Y-21.833 Z2.039
X51.466 Y-22.06 Z2.031
X51.48 Y-22.286 Z2.023
X51.51 Y-22.511 Z2.015
X51.556 Y-22.734 Z2.007
X51.617 Y-22.952 Z1.999
X51.693 Y-23.166 Z1.991
X51.783 Y-23.374 Z1.983
X51.888 Y-23.576 Z1.976
X52.006 Y-23.769 Z1.968
X52.138 Y-23.954 Z1.96
X52.282 Y-24.13 Z1.952
X52.438 Y-24.294 Z1.944
X52.605 Y-24.448 Z1.936
X52.782 Y-24.59 Z1.928
X52.969 Y-24.719 Z1.92
X53.164 Y-24.835 Z1.912
X53.366 Y-24.937 Z1.904
X53.576 Y-25.025 Z1.896
X53.791 Y-25.098 Z1.888
X54.01 Y-25.156 Z1.88
X54.233 Y-25.198 Z1.872
X54.458 Y-25.226 Z1.864
X54.685 Y-25.237 Z1.856
X54.912 Y-25.232 Z1.848
X55.138 Y-25.212 Z1.84
X55.362 Y-25.177 Z1.832
X55.583 Y-25.125 Z1.825
X55.8 Y-25.059 Z1.817
X56.012 Y-24.977 Z1.809
X56.218 Y-24.882 Z1.801
X56.416 Y-24.772 Z1.793
X56.606 Y-24.649 Z1.785
X56.787 Y-24.513 Z1.777
X56.959 Y-24.364 Z1.769
X57.119 Y-24.204 Z1.761
X57.269 Y-24.034 Z1.753
X57.406 Y-23.853 Z1.745
X57.53 Y-23.663 Z1.737
X57.64 Y-23.465 Z1.729
X57.737 Y-23.26 Z1.721
X57.819 Y-23.049 Z1.713
X57.887 Y-22.833 Z1.705
X57.939 Y-22.612 Z1.697
X57.976 Y-22.389 Z1.689
X57.997 Y-22.163 Z1.681
X58.002 Y-21.936 Z1.674
X57.992 Y-21.71 Z1.666
X57.966 Y-21.485 Z1.658
X57.924 Y-21.262 Z1.65
X57.868 Y-21.042 Z1.642
X57.796 Y-20.827 Z1.634
X57.709 Y-20.618 Z1.626
X57.608 Y-20.415 Z1.618
X57.493 Y-20.22 Z1.61
X57.365 Y-20.033 Z1.602
X57.224 Y-19.855 Z1.594
X57.071 Y-19.687 Z1.586
X56.907 Y-19.531 Z1.578
X56.733 Y-19.386 Z1.57
X56.549 Y-19.254 Z1.562
X56.357 Y-19.135 Z1.554
X56.156 Y-19.03 Z1.546
X55.949 Y-18.939 Z1.538
X55.736 Y-18.862 Z1.531
X55.518 Y-18.8 Z1.523
X55.296 Y-18.754 Z1.515
X55.072 Y-18.723 Z1.507
X54.846 Y-18.708 Z1.499
X54.62 Z1.491
X54.394 Y-18.724 Z1.483
X54.17 Y-18.756 Z1.475
X53.948 Y-18.803 Z1.467
X53.731 Y-18.866 Z1.459
X53.518 Y-18.943 Z1.451
X53.311 Y-19.035 Z1.443
X53.111 Y-19.141 Z1.435
X52.919 Y-19.261 Z1.427
X52.736 Y-19.394 Z1.419
X52.562 Y-19.539 Z1.411
X52.399 Y-19.696 Z1.403
X52.247 Y-19.864 Z1.395
X52.107 Y-20.042 Z1.387
X51.979 Y-20.229 Z1.38
X51.866 Y-20.424 Z1.372
X51.765 Y-20.627 Z1.364
X51.68 Y-20.837 Z1.356
X51.608 Y-21.052 Z1.348
X51.553 Y-21.271 Z1.34
X51.512 Y-21.493 Z1.332
X51.487 Y-21.718 Z1.324
X51.477 Y-21.944 Z1.316
X51.484 Y-22.17 Z1.308
X51.506 Y-22.395 Z1.3
X51.543 Y-22.618 Z1.292
X51.596 Y-22.838 Z1.284
X51.664 Y-23.054 Z1.276
X51.747 Y-23.264 Z1.268
X51.844 Y-23.468 Z1.26
X51.955 Y-23.665 Z1.252
X52.08 Y-23.854 Z1.244
X52.217 Y-24.034 Z1.236
X52.366 Y-24.203 Z1.229
X52.527 Y-24.362 Z1.221
X52.699 Y-24.51 Z1.213
X52.88 Y-24.645 Z1.205
X53.07 Y-24.767 Z1.197
X53.268 Y-24.876 Z1.189
X53.474 Y-24.971 Z1.181
X53.685 Y-25.051 Z1.173
X53.902 Y-25.116 Z1.165
X54.122 Y-25.167 Z1.157
X54.346 Y-25.201 Z1.149
X54.571 Y-25.221 Z1.141
X54.797 Y-25.224 Z1.133
X55.023 Y-25.212 Z1.125
X55.247 Y-25.184 Z1.117
X55.469 Y-25.141 Z1.109
X55.687 Y-25.083 Z1.101
X55.9 Y-25.009 Z1.093
X56.108 Y-24.921 Z1.085
X56.31 Y-24.819 Z1.078
X56.504 Y-24.703 Z1.07
X56.689 Y-24.573 Z1.062
X56.865 Y-24.432 Z1.054
X57.03 Y-24.278 Z1.046
X57.185 Y-24.113 Z1.038
X57.327 Y-23.938 Z1.03
X57.458 Y-23.754 Z1.022
X57.575 Y-23.561 Z1.014
X57.678 Y-23.36 Z1.006
X57.768 Y-23.153 Z0.998
X57.842 Y-22.939 Z0.99
X57.902 Y-22.722 Z0.982
X57.946 Y-22.5 Z0.974
X57.975 Y-22.276 Z0.966
X57.989 Y-22.051 Z0.958
X57.986 Y-21.825 Z0.95
X57.969 Y-21.6 Z0.942
X57.935 Y-21.377 Z0.934
X57.886 Y-21.156 Z0.927
X57.822 Y-20.939 Z0.919
X57.743 Y-20.728 Z0.911
X57.65 Y-20.522 Z0.903
X57.542 Y-20.324 Z0.895
X57.421 Y-20.133 Z0.887
X57.287 Y-19.951 Z0.879
X57.141 Y-19.78 Z0.871
X56.984 Y-19.618 Z0.863
X56.815 Y-19.468 Z0.855
X56.637 Y-19.33 Z0.847
X56.449 Y-19.205 Z0.839
X56.253 Y-19.093 Z0.831
X56.05 Y-18.995 Z0.823
X55.841 Y-18.911 Z0.815
X55.626 Y-18.842 Z0.807
X55.407 Y-18.788 Z0.799
X55.185 Y-18.749 Z0.791
X54.96 Y-18.726 Z0.784
X54.735 Y-18.719 Z0.776
X54.51 Y-18.727 Z0.768
X54.285 Y-18.751 Z0.76
X54.063 Y-18.79 Z0.752
X53.844 Y-18.844 Z0.744
X53.63 Y-18.914 Z0.736
X53.42 Y-18.998 Z0.728
X53.218 Y-19.097 Z0.72
X53.022 Y-19.209 Z0.712
X52.835 Y-19.335 Z0.704
X52.657 Y-19.474 Z0.696
X52.489 Y-19.624 Z0.688
X52.331 Y-19.786 Z0.68
X52.186 Y-19.958 Z0.672
X52.053 Y-20.14 Z0.664
X51.932 Y-20.331 Z0.656
X51.825 Y-20.529 Z0.648
X51.733 Y-20.735 Z0.64
X51.655 Y-20.946 Z0.633
X51.591 Y-21.162 Z0.625
X51.543 Y-21.382 Z0.617
X51.51 Y-21.605 Z0.609
X51.493 Y-21.83 Z0.601
X51.491 Y-22.055 Z0.593
X51.505 Y-22.28 Z0.585
X51.535 Y-22.503 Z0.577
X51.579 Y-22.724 Z0.569
X51.64 Y-22.941 Z0.561
X51.715 Y-23.153 Z0.553
X51.804 Y-23.36 Z0.545
X51.908 Y-23.56 Z0.537
X52.025 Y-23.752 Z0.529
X52.156 Y-23.936 Z0.521
X52.299 Y-24.11 Z0.513
X52.453 Y-24.274 Z0.505
X52.619 Y-24.427 Z0.497
X52.794 Y-24.568 Z0.489
X52.98 Y-24.696 Z0.482
X53.173 Y-24.811 Z0.474
X53.374 Y-24.913 Z0.466
X53.582 Y-25. Z0.458
X53.795 Y-25.073 Z0.45
X54.013 Y-25.131 Z0.442
X54.234 Y-25.173 Z0.434
X54.458 Y-25.2 Z0.426
X54.682 Y-25.212 Z0.418
X54.907 Y-25.208 Z0.41
X55.132 Y-25.188 Z0.402
X55.354 Y-25.153 Z0.394
X55.573 Y-25.102 Z0.386
X55.788 Y-25.037 Z0.378
X55.998 Y-24.956 Z0.37
X56.202 Y-24.861 Z0.362
X56.399 Y-24.753 Z0.354
X56.588 Y-24.63 Z0.346
X56.768 Y-24.496 Z0.338
X56.939 Y-24.348 Z0.331
X57.098 Y-24.19 Z0.323
X57.247 Y-24.021 Z0.315
X57.383 Y-23.841 Z0.307
X57.506 Y-23.653 Z0.299
X57.616 Y-23.457 Z0.291
X57.712 Y-23.254 Z0.283
X57.794 Y-23.044 Z0.275
X57.861 Y-22.829 Z0.267
X57.913 Y-22.61 Z0.259
X57.95 Y-22.388 Z0.251
X57.971 Y-22.164 Z0.243
X57.977 Y-21.939 Z0.235
X57.967 Y-21.715 Z0.227
X57.942 Y-21.491 Z0.219
X57.901 Y-21.27 Z0.211
X57.844 Y-21.052 Z0.203
X57.773 Y-20.839 Z0.195
X57.687 Y-20.631 Z0.188
X57.587 Y-20.43 Z0.18
X57.474 Y-20.236 Z0.172
X57.347 Y-20.05 Z0.164
X57.208 Y-19.874 Z0.156
X57.056 Y-19.708 Z0.148
X56.894 Y-19.552 Z0.14
X56.721 Y-19.409 Z0.132
X56.539 Y-19.277 Z0.124
X56.348 Y-19.159 Z0.116
X56.149 Y-19.054 Z0.108
X55.943 Y-18.964 Z0.1
X55.732 Y-18.887 Z0.092
X55.516 Y-18.826 Z0.084
X55.296 Y-18.78 Z0.076
X55.073 Y-18.749 Z0.068
X54.849 Y-18.733 Z0.06
X54.624 Z0.052
X54.4 Y-18.749 Z0.044
X54.178 Y-18.78 Z0.037
X53.958 Y-18.827 Z0.029
X53.742 Y-18.889 Z0.021
X53.53 Y-18.965 Z0.013
X53.325 Y-19.057 Z0.005
X53.126 Y-19.162 Z-0.003
X52.935 Y-19.28 Z-0.011
X52.753 Y-19.412 Z-0.019
X52.581 Y-19.556 Z-0.027
X52.418 Y-19.711 Z-0.035
X52.268 Y-19.878 Z-0.043
X52.129 Y-20.054 Z-0.051
X52.002 Y-20.239 Z-0.059
X51.889 Y-20.433 Z-0.067
X51.79 Y-20.634 Z-0.075
X51.704 Y-20.842 Z-0.083
X51.634 Y-21.055 Z-0.091
X51.578 Y-21.272 Z-0.099
X51.537 Y-21.493 Z-0.107
X51.512 Y-21.716 Z-0.114
X51.503 Y-21.94 Z-0.122
X51.509 Y-22.165 Z-0.13
X51.53 Y-22.388 Z-0.138
X51.567 Y-22.609 Z-0.146
X51.619 Y-22.828 Z-0.154
X51.687 Y-23.042 Z-0.162
X51.769 Y-23.251 Z-0.17
X51.865 Y-23.454 Z-0.178
X51.975 Y-23.649 Z-0.186
X52.098 Y-23.837 Z-0.194
X52.234 Y-24.015 Z-0.202
X52.383 Y-24.184 Z-0.21
X52.542 Y-24.342 Z-0.218
X52.712 Y-24.488 Z-0.226
X52.892 Y-24.623 Z-0.234
X53.081 Y-24.744 Z-0.242
X53.277 Y-24.852 Z-0.25
X53.481 Y-24.946 Z-0.258
X53.691 Y-25.026 Z-0.265
X53.905 Y-25.091 Z-0.273
X54.124 Y-25.141 Z-0.281
X54.345 Y-25.176 Z-0.289
X54.569 Y-25.196 Z-0.297
X54.793 Y-25.199 Z-0.305
X55.017 Y-25.188 Z-0.313
X55.239 Y-25.16 Z-0.321
X55.459 Y-25.118 Z-0.329
X55.676 Y-25.06 Z-0.337
X55.888 Y-24.987 Z-0.345
X56.094 Y-24.9 Z-0.353
X56.294 Y-24.799 Z-0.361
X56.487 Y-24.684 Z-0.369
X56.671 Y-24.556 Z-0.377
X56.845 Y-24.415 Z-0.385
X57.01 Y-24.263 Z-0.393
X57.163 Y-24.099 Z-0.401
X57.305 Y-23.926 Z-0.408
X57.435 Y-23.743 Z-0.416
X57.551 Y-23.551 Z-0.424
X57.654 Y-23.352 Z-0.432
X57.743 Y-23.146 Z-0.44
X57.817 Y-22.935 Z-0.448
X57.877 Y-22.719 Z-0.456
X57.921 Y-22.499 Z-0.464
X57.95 Y-22.277 Z-0.472
X57.964 Y-22.053 Z-0.48
X57.962 Y-21.829 Z-0.488
X57.944 Y-21.605 Z-0.496
X57.911 Y-21.384 Z-0.504
X57.863 Y-21.165 Z-0.512
X57.799 Y-20.951 Z-0.52
X57.721 Y-20.741 Z-0.528
X57.629 Y-20.537 Z-0.536
X57.523 Y-20.34 Z-0.544
X57.403 Y-20.151 Z-0.552
X57.27 Y-19.97 Z-0.559
X57.125 Y-19.799 Z-0.567
X56.969 Y-19.639 Z-0.575
X56.802 Y-19.49 Z-0.583
X56.625 Y-19.353 Z-0.591
X56.439 Y-19.228 Z-0.599
X56.245 Y-19.117 Z-0.607
X56.043 Y-19.019 Z-0.615
X55.836 Y-18.936 Z-0.623
X55.622 Y-18.867 Z-0.631
X55.405 Y-18.813 Z-0.639
X55.185 Y-18.775 Z-0.647
X54.962 Y-18.752 Z-0.655
X54.738 Y-18.744 Z-0.663
X54.514 Y-18.752 Z-0.671
X54.292 Y-18.775 Z-0.679
X54.071 Y-18.814 Z-0.687
X53.854 Y-18.868 Z-0.695
X53.641 Y-18.937 Z-0.703
X53.433 Y-19.02 Z-0.71
X53.232 Y-19.118 Z-0.718
X53.037 Y-19.229 Z-0.726
X52.852 Y-19.354 Z-0.734
X52.675 Y-19.491 Z-0.742
X52.508 Y-19.64 Z-0.75
X52.352 Y-19.8 Z-0.758
X52.208 Y-19.97 Z-0.766
X52.075 Y-20.151 Z-0.774
X51.956 Y-20.34 Z-0.782
X51.85 Y-20.537 Z-0.79
X51.758 Y-20.74 Z-0.798
X51.68 Y-20.95 Z-0.806
X51.617 Y-21.164 Z-0.814
X51.568 Y-21.383 Z-0.822
X51.536 Y-21.604 Z-0.83
X51.518 Y-21.827 Z-0.838
X51.516 Y-22.05 Z-0.846
X51.53 Y-22.274 Z-0.854
X51.559 Y-22.495 Z-0.861
X51.603 Y-22.715 Z-0.869
X51.663 Y-22.93 Z-0.877
X51.737 Y-23.141 Z-0.885
X51.826 Y-23.346 Z-0.893
X51.928 Y-23.545 Z-0.901
X52.045 Y-23.736 Z-0.909
X52.174 Y-23.918 Z-0.917
X52.316 Y-24.091 Z-0.925
X52.469 Y-24.254 Z-0.933
X52.633 Y-24.406 Z-0.941
X52.807 Y-24.546 Z-0.949
X52.991 Y-24.674 Z-0.957
X53.183 Y-24.788 Z-0.965
X53.382 Y-24.889 Z-0.973
X53.588 Y-24.976 Z-0.981
X53.799 Y-25.048 Z-0.989
X54.015 Y-25.106 Z-0.997
X54.234 Y-25.148 Z-1.004
X54.456 Y-25.175 Z-1.012
X54.679 Y-25.187 Z-1.02
X54.902 Y-25.183 Z-1.028
X55.125 Y-25.164 Z-1.036
X55.345 Y-25.129 Z-1.044
X55.563 Y-25.079 Z-1.052
X55.776 Y-25.014 Z-1.06
X55.985 Y-24.934 Z-1.068
X56.188 Y-24.84 Z-1.076
X56.383 Y-24.733 Z-1.084
X56.571 Y-24.612 Z-1.092
X56.75 Y-24.478 Z-1.1
X56.919 Y-24.332 Z-1.108
X57.078 Y-24.175 Z-1.116
X57.225 Y-24.007 Z-1.124
X57.36 Y-23.829 Z-1.132
X57.483 Y-23.643 Z-1.14
X57.593 Y-23.448 Z-1.148
X57.688 Y-23.246 Z-1.155
X57.77 Y-23.038 Z-1.163
X57.836 Y-22.825 Z-1.171
X57.888 Y-22.608 Z-1.179
X57.925 Y-22.388 Z-1.187
X57.946 Y-22.166 Z-1.195
X57.952 Y-21.943 Z-1.203
X57.943 Y-21.72 Z-1.211
X57.917 Y-21.498 Z-1.219
X57.877 Y-21.279 Z-1.227
X57.822 Y-21.063 Z-1.235
X57.751 Y-20.851 Z-1.243
X57.666 Y-20.645 Z-1.251
X57.567 Y-20.445 Z-1.259
X57.455 Y-20.253 Z-1.267
X57.329 Y-20.068 Z-1.275
X57.191 Y-19.893 Z-1.283
X57.041 Y-19.728 Z-1.291
X56.88 Y-19.574 Z-1.299
X56.708 Y-19.431 Z-1.306
X56.528 Y-19.3 Z-1.314
X56.338 Y-19.183 Z-1.322
X56.141 Y-19.079 Z-1.33
X55.937 Y-18.988 Z-1.338
X55.727 Y-18.912 Z-1.346
X55.513 Y-18.851 Z-1.354
X55.295 Y-18.805 Z-1.362
X55.074 Y-18.774 Z-1.37
X54.851 Y-18.758 Z-1.378
X54.628 Z-1.386
X54.406 Y-18.774 Z-1.394
X54.185 Y-18.805 Z-1.402
X53.966 Y-18.851 Z-1.41
X53.752 Y-18.912 Z-1.418
X53.542 Y-18.987 Z-1.426
X53.339 Y-19.078 Z-1.434
X53.142 Y-19.182 Z-1.442
X52.952 Y-19.299 Z-1.45
X52.772 Y-19.429 Z-1.457
X52.6 Y-19.572 Z-1.465
X52.439 Y-19.726 Z-1.473
X52.289 Y-19.89 Z-1.481
X52.151 Y-20.065 Z-1.489
X52.026 Y-20.249 Z-1.497
X51.913 Y-20.441 Z-1.505
X51.814 Y-20.641 Z-1.513
X51.729 Y-20.847 Z-1.521
X51.659 Y-21.058 Z-1.529
X51.603 Y-21.274 Z-1.537
X51.563 Y-21.493 Z-1.545
X51.538 Y-21.715 Z-1.553
X51.528 Y-21.937 Z-1.561
X51.534 Y-22.16 Z-1.569
X51.555 Y-22.382 Z-1.577
X51.591 Y-22.601 Z-1.585
X51.643 Y-22.818 Z-1.593
X51.709 Y-23.031 Z-1.6
X51.791 Y-23.238 Z-1.608
X51.886 Y-23.439 Z-1.616
X51.995 Y-23.634 Z-1.624
X52.117 Y-23.82 Z-1.632
X52.252 Y-23.997 Z-1.64
X52.399 Y-24.165 Z-1.648
X52.557 Y-24.321 Z-1.656
X52.725 Y-24.467 Z-1.664
X52.903 Y-24.6 Z-1.672
X53.09 Y-24.721 Z-1.68
X53.285 Y-24.828 Z-1.688
X53.487 Y-24.922 Z-1.696
X53.695 Y-25.001 Z-1.704
X53.908 Y-25.066 Z-1.712
X54.124 Y-25.116 Z-1.72
X54.344 Y-25.151 Z-1.728
X54.566 Y-25.17 Z-1.736
X54.788 Y-25.174 Z-1.744
X55.011 Y-25.163 Z-1.751
X55.231 Y-25.136 Z-1.759
X55.45 Y-25.094 Z-1.767
X55.665 Y-25.037 Z-1.775
X55.875 Y-24.965 Z-1.783
X56.08 Y-24.878 Z-1.791
X56.279 Y-24.778 Z-1.799
X56.47 Y-24.664 Z-1.807
X56.653 Y-24.537 Z-1.815
X56.826 Y-24.398 Z-1.823
X56.99 Y-24.247 Z-1.831
X57.142 Y-24.085 Z-1.839
X57.283 Y-23.913 Z-1.847
X57.412 Y-23.731 Z-1.855
X57.528 Y-23.541 Z-1.863
X57.63 Y-23.344 Z-1.871
X57.719 Y-23.14 Z-1.879
X57.793 Y-22.93 Z-1.887
X57.852 Y-22.716 Z-1.895
X57.896 Y-22.498 Z-1.902
X57.925 Y-22.278 Z-1.91
X57.939 Y-22.056 Z-1.918
X57.937 Y-21.834 Z-1.926
X57.92 Y-21.612 Z-1.934
X57.887 Y-21.393 Z-1.942
X57.84 Y-21.175 Z-1.95
X57.777 Y-20.962 Z-1.958
X57.7 Y-20.754 Z-1.966
X57.608 Y-20.551 Z-1.974
X57.503 Y-20.356 Z-1.982
X57.384 Y-20.168 Z-1.99
X57.253 Y-19.989 Z-1.998
X57.109 Y-19.819 Z-2.006
X56.954 Y-19.66 Z-2.014
X56.789 Y-19.512 Z-2.022
X56.613 Y-19.375 Z-2.03
X56.429 Y-19.252 Z-2.038
X56.236 Y-19.141 Z-2.046
X56.036 Y-19.044 Z-2.053
X55.83 Y-18.961 Z-2.061
X55.618 Y-18.892 Z-2.069
X55.403 Y-18.839 Z-2.077
X55.184 Y-18.8 Z-2.085
X54.963 Y-18.777 Z-2.093
X54.741 Y-18.769 Z-2.101
X54.519 Y-18.776 Z-2.109
X54.298 Y-18.799 Z-2.117
X54.079 Y-18.838 Z-2.125
X53.864 Y-18.891 Z-2.133
X53.653 Y-18.959 Z-2.141
X53.447 Y-19.041 Z-2.149
X53.247 Y-19.138 Z-2.157
X53.054 Y-19.248 Z-2.165
X52.87 Y-19.372 Z-2.173
X52.694 Y-19.507 Z-2.181
X52.529 Y-19.655 Z-2.189
X52.374 Y-19.814 Z-2.197
X52.23 Y-19.983 Z-2.204
X52.098 Y-20.162 Z-2.212
X51.98 Y-20.349 Z-2.22
X51.874 Y-20.544 Z-2.228
X51.782 Y-20.747 Z-2.236
X51.705 Y-20.955 Z-2.244
X51.642 Y-21.167 Z-2.252
X51.594 Y-21.384 Z-2.26
X51.561 Y-21.604 Z-2.268
X51.544 Y-21.825 Z-2.276
X51.541 Y-22.047 Z-2.284
X51.555 Y-22.268 Z-2.292
X51.583 Y-22.488 Z-2.3
X51.627 Y-22.706 Z-2.308
X51.686 Y-22.92 Z-2.316
X51.759 Y-23.129 Z-2.324
X51.847 Y-23.333 Z-2.332
X51.949 Y-23.53 Z-2.34
X52.064 Y-23.72 Z-2.347
X52.192 Y-23.901 Z-2.355
X52.332 Y-24.073 Z-2.363
X52.484 Y-24.234 Z-2.371
X52.646 Y-24.385 Z-2.379
X52.819 Y-24.524 Z-2.387
X53.001 Y-24.651 Z-2.395
X53.191 Y-24.764 Z-2.403
X53.389 Y-24.865 Z-2.411
X53.593 Y-24.951 Z-2.419
X53.802 Y-25.023 Z-2.427
X54.017 Y-25.08 Z-2.435
X54.234 Y-25.123 Z-2.443
X54.454 Y-25.15 Z-2.451
X54.676 Y-25.161 Z-2.459
X54.897 Y-25.158 Z-2.467
X55.118 Y-25.139 Z-2.475
X55.337 Y-25.105 Z-2.483
X55.553 Y-25.055 Z-2.491
X55.765 Y-24.991 Z-2.498
X55.972 Y-24.912 Z-2.506
X56.174 Y-24.819 Z-2.514
X56.368 Y-24.713 Z-2.522
X56.554 Y-24.593 Z-2.53
X56.732 Y-24.46 Z-2.538
X56.9 Y-24.316 Z-2.546
X57.058 Y-24.16 Z-2.554
X57.204 Y-23.993 Z-2.562
X57.339 Y-23.817 Z-2.57
X57.46 Y-23.632 Z-2.578
X57.569 Y-23.439 Z-2.586
X57.664 Y-23.239 Z-2.594
X57.745 Y-23.033 Z-2.602
X57.811 Y-22.822 Z-2.61
X57.863 Y-22.607 Z-2.618
X57.9 Y-22.389 Z-2.626
X57.921 Y-22.168 Z-2.634
X57.927 Y-21.947 Z-2.642
X57.918 Y-21.726 Z-2.649
X57.893 Y-21.506 Z-2.657
X57.853 Y-21.288 Z-2.665
X57.798 Y-21.074 Z-2.673
X57.729 Y-20.863 Z-2.681
X57.645 Y-20.659 Z-2.689
X57.547 Y-20.46 Z-2.697
X57.435 Y-20.269 Z-2.705
X57.311 Y-20.086 Z-2.713
X57.174 Y-19.912 Z-2.721
X57.025 Y-19.748 Z-2.729
X56.865 Y-19.595 Z-2.737
X56.695 Y-19.453 Z-2.745
X56.516 Y-19.323 Z-2.753
X56.328 Y-19.206 Z-2.761
X56.132 Y-19.102 Z-2.769
X55.93 Y-19.013 Z-2.777
X55.722 Y-18.937 Z-2.785
X55.509 Y-18.876 Z-2.793
X55.293 Y-18.83 Z-2.8
X55.074 Y-18.799 Z-2.808
X54.853 Y-18.783 Z-2.816
X54.632 Z-2.824
X54.412 Y-18.798 Z-2.832
X54.193 Y-18.828 Z-2.84
X53.976 Y-18.874 Z-2.848
X53.763 Y-18.934 Z-2.856
X53.555 Y-19.009 Z-2.864
X53.353 Y-19.098 Z-2.872
X53.158 Y-19.201 Z-2.88
X52.969 Y-19.318 Z-2.888
X52.79 Y-19.447 Z-2.896
X52.62 Y-19.588 Z-2.904
X52.46 Y-19.741 Z-2.912
X52.311 Y-19.904 Z-2.92
X52.174 Y-20.077 Z-2.928
X52.049 Y-20.26 Z-2.936
X51.937 Y-20.451 Z-2.943
X51.839 Y-20.649 Z-2.951
X51.754 Y-20.853 Z-2.959
X51.684 Y-21.063 Z-2.967
X51.629 Y-21.277 Z-2.975
X51.588 Y-21.494 Z-2.983
X51.563 Y-21.714 Z-2.991
X51.553 Y-21.934 Z-2.999
X51.559 Y-22.156 Z-3.007
X51.579 Y-22.376 Z-3.015
X51.615 Y-22.594 Z-3.023
X51.666 Y-22.809 Z-3.031
X51.732 Y-23.02 Z-3.039
X51.812 Y-23.225 Z-3.047
X51.906 Y-23.425 Z-3.055
X52.014 Y-23.618 Z-3.063
X52.135 Y-23.803 Z-3.071
X52.269 Y-23.978 Z-3.079
X52.414 Y-24.145 Z-3.087
X52.571 Y-24.3 Z-3.094
X52.738 Y-24.445 Z-3.102
X52.914 Y-24.577 Z-3.11
X53.1 Y-24.697 Z-3.118
X53.293 Y-24.804 Z-3.126
X53.493 Y-24.897 Z-3.134
X53.699 Y-24.976 Z-3.142
X53.911 Y-25.041 Z-3.15
X54.126 Y-25.091 Z-3.158
X54.344 Y-25.125 Z-3.166
X54.564 Y-25.145 Z-3.174
X54.785 Y-25.149 Z-3.182
X55.005 Y-25.138 Z-3.19
X55.224 Y-25.111 Z-3.198
X55.441 Y-25.07 Z-3.206
X55.655 Y-25.013 Z-3.214
X55.864 Y-24.942 Z-3.222
X56.067 Y-24.857 Z-3.23
X56.265 Y-24.757 Z-3.238
X56.454 Y-24.645 Z-3.245
X56.636 Y-24.519 Z-3.253
X56.808 Y-24.381 Z-3.261
X56.97 Y-24.231 Z-3.269
X57.122 Y-24.071 Z-3.277
X57.262 Y-23.9 Z-3.285
X57.389 Y-23.721 Z-3.293
X57.504 Y-23.533 Z-3.301
X57.606 Y-23.337 Z-3.309
X57.694 Y-23.134 Z-3.317
X57.768 Y-22.927 Z-3.325
X57.826 Y-22.714 Z-3.333
X57.871 Y-22.498 Z-3.341
X57.9 Y-22.279 Z-3.349
X57.913 Y-22.059 Z-3.357
X57.912 Y-21.839 Z-3.365
X57.895 Y-21.619 Z-3.373
X57.863 Y-21.401 Z-3.381
X57.816 Y-21.185 Z-3.389
X57.754 Y-20.974 Z-3.396
X57.678 Y-20.767 Z-3.404
X57.587 Y-20.566 Z-3.412
X57.483 Y-20.371 Z-3.42
X57.365 Y-20.185 Z-3.428
X57.235 Y-20.007 Z-3.436
X57.092 Y-19.838 Z-3.444
X56.939 Y-19.68 Z-3.452
X56.775 Y-19.533 Z-3.46
X56.601 Y-19.397 Z-3.468
X56.418 Y-19.274 Z-3.476
X56.226 Y-19.164 Z-3.484
X56.028 Y-19.068 Z-3.492
X55.824 Y-18.985 Z-3.5
X55.614 Y-18.917 Z-3.508
X55.401 Y-18.864 Z-3.516
X55.184 Y-18.825 Z-3.524
X54.965 Y-18.802 Z-3.532
X54.745 Y-18.794 Z-3.539
X54.525 Y-18.801 Z-3.547
X54.306 Y-18.824 Z-3.555
X54.089 Y-18.861 Z-3.563
X53.875 Y-18.914 Z-3.571
X53.665 Y-18.981 Z-3.579
X53.46 Y-19.063 Z-3.587
X53.262 Y-19.158 Z-3.595
X53.071 Y-19.268 Z-3.603
X52.887 Y-19.39 Z-3.611
X52.713 Y-19.525 Z-3.619
X52.549 Y-19.671 Z-3.627
X52.395 Y-19.828 Z-3.635
X52.252 Y-19.996 Z-3.643
X52.121 Y-20.173 Z-3.651
X52.003 Y-20.359 Z-3.659
X51.898 Y-20.553 Z-3.667
X51.807 Y-20.753 Z-3.675
X51.73 Y-20.96 Z-3.683
X51.667 Y-21.171 Z-3.69
X51.619 Y-21.386 Z-3.698
X51.586 Y-21.604 Z-3.706
X51.569 Y-21.823 Z-3.714
X51.566 Y-22.043 Z-3.722
X51.579 Y-22.263 Z-3.73
X51.607 Y-22.481 Z-3.738
X51.65 Y-22.697 Z-3.746
X51.709 Y-22.909 Z-3.754
X51.781 Y-23.117 Z-3.762
X51.868 Y-23.319 Z-3.77
X51.969 Y-23.515 Z-3.778
X52.083 Y-23.703 Z-3.786
X52.209 Y-23.882 Z-3.794
X52.348 Y-24.053 Z-3.802
X52.499 Y-24.214 Z-3.81
X52.66 Y-24.363 Z-3.818
X52.831 Y-24.501 Z-3.826
X53.011 Y-24.627 Z-3.834
X53.2 Y-24.74 Z-3.841
X53.396 Y-24.84 Z-3.849
X53.599 Y-24.926 Z-3.857
X53.807 Y-24.998 Z-3.865
X54.019 Y-25.055 Z-3.873
X54.235 Y-25.097 Z-3.881
X54.453 Y-25.124 Z-3.889
X54.673 Y-25.136 Z-3.897
X54.893 Y-25.133 Z-3.905
X55.112 Y-25.114 Z-3.913
X55.329 Y-25.081 Z-3.921
X55.544 Y-25.032 Z-3.929
X55.755 Y-24.968 Z-3.937
X55.96 Y-24.89 Z-3.945
X56.16 Y-24.798 Z-3.953
X56.353 Y-24.693 Z-3.961
X56.538 Y-24.574 Z-3.969
X56.714 Y-24.443 Z-3.977
X56.881 Y-24.3 Z-3.985
X57.037 Y-24.145 Z-3.992
X57.182 Y-23.981 Z-4.
X57.316 Y-23.806 Z-4.008
X57.437 Y-23.623 Z-4.016
X57.545 Y-23.431 Z-4.024
X57.639 Y-23.233 Z-4.032
X57.72 Y-23.029 Z-4.04
X57.786 Y-22.819 Z-4.048
X57.838 Y-22.606 Z-4.056
X57.874 Y-22.389 Z-4.064
X57.896 Y-22.17 Z-4.072
X57.902 Y-21.951 Z-4.08
X57.893 Y-21.731 Z-4.088
X57.869 Y-21.513 Z-4.096
X57.829 Y-21.297 Z-4.104
X57.775 Y-21.084 Z-4.112
X57.706 Y-20.875 Z-4.12
X57.623 Y-20.672 Z-4.128
X57.526 Y-20.475 Z-4.135
X57.415 Y-20.285 Z-4.143
X57.292 Y-20.103 Z-4.151
X57.156 Y-19.93 Z-4.159
X57.009 Y-19.767 Z-4.167
X56.851 Y-19.615 Z-4.175
X56.682 Y-19.474 Z-4.183
X56.504 Y-19.345 Z-4.191
X56.318 Y-19.229 Z-4.199
X56.125 Y-19.126 Z-4.207
X55.924 Y-19.037 Z-4.215
X55.718 Y-18.962 Z-4.223
X55.507 Y-18.901 Z-4.231
X55.293 Y-18.855 Z-4.239
X55.075 Y-18.824 Z-4.247
X54.856 Y-18.809 Z-4.255
X54.637 Y-18.808 Z-4.263
X54.418 Y-18.823 Z-4.271
X54.201 Y-18.853 Z-4.279
X53.986 Y-18.897 Z-4.286
X53.775 Y-18.957 Z-4.294
X53.568 Y-19.031 Z-4.302
X53.367 Y-19.12 Z-4.31
X53.173 Y-19.222 Z-4.318
X52.986 Y-19.337 Z-4.326
X52.808 Y-19.465 Z-4.334
X52.639 Y-19.605 Z-4.342
X52.48 Y-19.756 Z-4.35
X52.332 Y-19.918 Z-4.358
X52.196 Y-20.09 Z-4.366
X52.072 Y-20.271 Z-4.374
X51.96 Y-20.46 Z-4.382
X51.863 Y-20.656 Z-4.39
X51.778 Y-20.859 Z-4.398
X51.709 Y-21.067 Z-4.406
X51.654 Y-21.279 Z-4.414
X51.613 Y-21.495 Z-4.422
X51.588 Y-21.713 Z-4.43
X51.578 Y-21.931 Z-4.437
X51.583 Y-22.151 Z-4.445
X51.603 Y-22.369 Z-4.453
X51.639 Y-22.585 Z-4.461
X51.689 Y-22.798 Z-4.469
X51.754 Y-23.008 Z-4.477
X51.834 Y-23.212 Z-4.485
X51.927 Y-23.41 Z-4.493
X52.034 Y-23.601 Z-4.501
X52.154 Y-23.785 Z-4.509
X52.286 Y-23.96 Z-4.517
X52.43 Y-24.125 Z-4.525
X52.585 Y-24.279 Z-4.533
X52.751 Y-24.423 Z-4.541
X52.926 Y-24.555 Z-4.549
X53.11 Y-24.674 Z-4.557
X53.302 Y-24.78 Z-4.565
X53.5 Y-24.873 Z-4.573
X53.705 Y-24.951 Z-4.581
X53.914 Y-25.016 Z-4.588
X54.128 Y-25.065 Z-4.596
X54.344 Y-25.1 Z-4.604
X54.562 Y-25.12 Z-4.612
X54.781 Y-25.124 Z-4.62
X55. Y-25.113 Z-4.628
X55.218 Y-25.087 Z-4.636
X55.433 Y-25.046 Z-4.644
X55.645 Y-24.99 Z-4.652
X55.852 Y-24.92 Z-4.66
X56.054 Y-24.836 Z-4.668
X56.25 Y-24.737 Z-4.676
X56.438 Y-24.626 Z-4.684
X56.618 Y-24.501 Z-4.692
X56.789 Y-24.365 Z-4.7
X56.95 Y-24.216 Z-4.708
X57.1 Y-24.057 Z-4.716
X57.239 Y-23.888 Z-4.724
X57.366 Y-23.71 Z-4.731
X57.481 Y-23.523 Z-4.739
X57.582 Y-23.329 Z-4.747
X57.669 Y-23.129 Z-4.755
X57.742 Y-22.922 Z-4.763
X57.801 Y-22.712 Z-4.771
X57.845 Y-22.497 Z-4.779
X57.874 Y-22.28 Z-4.787
X57.888 Y-22.062 Z-4.795
X57.887 Y-21.843 Z-4.803
X57.87 Y-21.625 Z-4.811
X57.839 Y-21.408 Z-4.819
X57.792 Y-21.194 Z-4.827
X57.731 Y-20.984 Z-4.835
X57.655 Y-20.779 Z-4.843
X57.566 Y-20.579 Z-4.851
X57.462 Y-20.386 Z-4.859
X57.346 Y-20.201 Z-4.867
X57.217 Y-20.024 Z-4.875
X57.076 Y-19.857 Z-4.882
X56.924 Y-19.7 Z-4.89
X56.761 Y-19.554 Z-4.898
X56.589 Y-19.419 Z-4.906
X56.408 Y-19.297 Z-4.914
X56.218 Y-19.188 Z-4.922
X56.022 Y-19.092 Z-4.93
X55.819 Y-19.01 Z-4.938
X55.611 Y-18.942 Z-4.946
X55.399 Y-18.889 Z-4.954
X55.184 Y-18.851 Z-4.962
X54.967 Y-18.827 Z-4.97
X54.748 Y-18.819 Z-4.978
X54.53 Y-18.826 Z-4.986
X54.313 Y-18.848 Z-4.994
X54.097 Y-18.885 Z-5.002
X53.885 Y-18.937 Z-5.01
X53.677 Y-19.004 Z-5.018
X53.474 Y-19.085 Z-5.026
X53.277 Y-19.179 Z-5.033
X53.087 Y-19.288 Z-5.041
X52.905 Y-19.409 Z-5.049
X52.731 Y-19.542 Z-5.057
X52.568 Y-19.687 Z-5.065
X52.415 Y-19.843 Z-5.073
X52.273 Y-20.01 Z-5.081
X52.143 Y-20.185 Z-5.089
X52.026 Y-20.37 Z-5.097
X51.921 Y-20.562 Z-5.105
X51.831 Y-20.76 Z-5.113
X51.754 Y-20.965 Z-5.121
X51.692 Y-21.174 Z-5.129
X51.644 Y-21.387 Z-5.137
X51.611 Y-21.603 Z-5.145
X51.594 Y-21.82 Z-5.153
X51.591 Y-22.039 Z-5.161
X51.604 Y-22.257 Z-5.169
X51.631 Y-22.473 Z-5.177
X51.674 Y-22.687 Z-5.184
X51.731 Y-22.898 Z-5.192
X51.803 Y-23.104 Z-5.2
X51.889 Y-23.305 Z-5.208
X51.989 Y-23.499 Z-5.216
X52.102 Y-23.686 Z-5.224
X52.227 Y-23.864 Z-5.232
X52.365 Y-24.034 Z-5.24
X52.514 Y-24.193 Z-5.248
X52.674 Y-24.342 Z-5.256
X52.844 Y-24.479 Z-5.264
X53.023 Y-24.604 Z-5.272
X53.21 Y-24.717 Z-5.28
X53.404 Y-24.816 Z-5.288
X53.605 Y-24.902 Z-5.296
X53.811 Y-24.973 Z-5.304
X54.022 Y-25.03 Z-5.312
X54.236 Y-25.072 Z-5.32
X54.453 Y-25.099 Z-5.328
X54.671 Y-25.111 Z-5.335
X54.889 Y-25.108 Z-5.343
X55.106 Y-25.09 Z-5.351
X55.322 Y-25.057 Z-5.359
X55.534 Y-25.009 Z-5.367
X55.743 Y-24.946 Z-5.375
X55.947 Y-24.869 Z-5.383
X56.145 Y-24.778 Z-5.391
X56.336 Y-24.673 Z-5.399
X56.52 Y-24.556 Z-5.407
X56.695 Y-24.426 Z-5.415
X56.861 Y-24.284 Z-5.423
X57.016 Y-24.131 Z-5.431
X57.16 Y-23.967 Z-5.439
X57.293 Y-23.794 Z-5.447
X57.413 Y-23.613 Z-5.455
X57.521 Y-23.423 Z-5.463
X57.615 Y-23.226 Z-5.471
X57.695 Y-23.023 Z-5.478
X57.761 Y-22.816 Z-5.486
X57.812 Y-22.604 Z-5.494
X57.849 Y-22.389 Z-5.502
X57.87 Y-22.172 Z-5.51
X57.877 Y-21.954 Z-5.518
X57.868 Y-21.736 Z-5.526
X57.844 Y-21.519 Z-5.534
X57.805 Y-21.305 Z-5.542
X57.752 Y-21.093 Z-5.55
X57.684 Y-20.886 Z-5.558
X57.601 Y-20.684 Z-5.566
X57.505 Y-20.489 Z-5.574
X57.396 Y-20.301 Z-5.582
X57.274 Y-20.12 Z-5.59
X57.14 Y-19.949 Z-5.598
X56.994 Y-19.787 Z-5.606
X56.837 Y-19.636 Z-5.614
X56.67 Y-19.496 Z-5.622
X56.494 Y-19.368 Z-5.629
X56.309 Y-19.253 Z-5.637
X56.117 Y-19.151 Z-5.645
X55.918 Y-19.062 Z-5.653
X55.714 Y-18.987 Z-5.661
X55.505 Y-18.927 Z-5.669
X55.292 Y-18.881 Z-5.677
X55.076 Y-18.85 Z-5.685
X54.859 Y-18.834 Z-5.693
X54.641 Y-18.833 Z-5.701
X54.424 Y-18.848 Z-5.709
X54.208 Y-18.877 Z-5.717
X53.995 Y-18.921 Z-5.725
X53.785 Y-18.98 Z-5.733
X53.58 Y-19.054 Z-5.741
X53.381 Y-19.141 Z-5.749
X53.188 Y-19.242 Z-5.757
X53.003 Y-19.356 Z-5.765
X52.826 Y-19.483 Z-5.773
X52.658 Y-19.622 Z-5.78
X52.5 Y-19.772 Z-5.788
X52.353 Y-19.932 Z-5.796
X52.218 Y-20.103 Z-5.804
X52.094 Y-20.282 Z-5.812
X51.984 Y-20.469 Z-5.82
X51.887 Y-20.664 Z-5.828
X51.803 Y-20.864 Z-5.836
X51.734 Y-21.07 Z-5.844
X51.679 Y-21.281 Z-5.852
X51.639 Y-21.495 Z-5.86
X51.613 Y-21.711 Z-5.868
X51.603 Y-21.928 Z-5.876
X51.608 Y-22.145 Z-5.884
X51.628 Y-22.362 Z-5.892
X51.663 Y-22.576 Z-5.9
X51.713 Y-22.788 Z-5.908
X51.777 Y-22.996 Z-5.916
X51.855 Y-23.199 Z-5.924
X51.948 Y-23.396 Z-5.931
X52.054 Y-23.586 Z-5.939
X52.172 Y-23.768 Z-5.947
X52.304 Y-23.941 Z-5.955
X52.446 Y-24.105 Z-5.963
X52.6 Y-24.259 Z-5.971
X52.764 Y-24.401 Z-5.979
X52.938 Y-24.532 Z-5.987
X53.12 Y-24.651 Z-5.995
X53.311 Y-24.756 Z-6.003
X53.508 Y-24.849 Z-6.011
X53.71 Y-24.927 Z-6.019
X53.918 Y-24.991 Z-6.027
X54.13 Y-25.04 Z-6.035
X54.344 Y-25.075 Z-6.043
X54.56 Y-25.095 Z-6.051
X54.778 Y-25.099 Z-6.059
X54.995 Y-25.089 Z-6.067
X55.21 Y-25.063 Z-6.074
X55.424 Y-25.023 Z-6.082
X55.634 Y-24.968 Z-6.09
X55.839 Y-24.898 Z-6.098
X56.04 Y-24.814 Z-6.106
X56.234 Y-24.717 Z-6.114
X56.421 Y-24.606 Z-6.122
X56.6 Y-24.483 Z-6.13
X56.77 Y-24.348 Z-6.138
X56.93 Y-24.201 Z-6.146
X57.079 Y-24.043 Z-6.154
X57.217 Y-23.876 Z-6.162
X57.343 Y-23.699 Z-6.17
X57.457 Y-23.514 Z-6.178
X57.558 Y-23.321 Z-6.186
X57.644 Y-23.122 Z-6.194
X57.717 Y-22.918 Z-6.202
X57.776 Y-22.709 Z-6.21
X57.82 Y-22.496 Z-6.218
X57.849 Y-22.281 Z-6.225
X57.863 Y-22.064 Z-6.233
X57.862 Y-21.847 Z-6.241
X57.846 Y-21.63 Z-6.249
X57.815 Y-21.415 Z-6.257
X57.769 Y-21.203 Z-6.265
X57.708 Y-20.995 Z-6.273
X57.634 Y-20.791 Z-6.281
X57.545 Y-20.593 Z-6.289
X57.443 Y-20.402 Z-6.297
X57.327 Y-20.218 Z-6.305
X57.2 Y-20.043 Z-6.313
X57.06 Y-19.877 Z-6.321
X56.909 Y-19.721 Z-6.329
X56.748 Y-19.576 Z-6.337
X56.577 Y-19.442 Z-6.345
X56.397 Y-19.321 Z-6.353
X56.21 Y-19.212 Z-6.361
X56.015 Y-19.117 Z-6.369
X55.814 Y-19.035 Z-6.376
X55.608 Y-18.968 Z-6.384
X55.397 Y-18.915 Z-6.392
X55.184 Y-18.876 Z-6.4
X54.968 Y-18.853 Z-6.408
X54.752 Y-18.844 Z-6.416
X54.535 Y-18.851 Z-6.424
X54.319 Y-18.873 Z-6.432
X54.105 Y-18.909 Z-6.44
X53.894 Y-18.961 Z-6.448
X53.688 Y-19.026 Z-6.456
X53.486 Y-19.107 Z-6.464
X53.291 Y-19.2 Z-6.472
X53.102 Y-19.307 Z-6.48
X52.921 Y-19.427 Z-6.488
X52.749 Y-19.559 Z-6.496
X52.587 Y-19.703 Z-6.504
X52.436 Y-19.858 Z-6.512
X52.295 Y-20.022 Z-6.52
X52.166 Y-20.196 Z-6.527
X52.049 Y-20.379 Z-6.535
X51.946 Y-20.569 Z-6.543
X51.855 Y-20.766 Z-6.551
X51.779 Y-20.969 Z-6.559
X51.717 Y-21.177 Z-6.567
X51.67 Y-21.388 Z-6.575
X51.637 Y-21.602 Z-6.583
X51.619 Y-21.818 Z-6.591
X51.616 Y-22.035 Z-6.599
X51.629 Y-22.251 Z-6.607
X51.656 Y-22.466 Z-6.615
X51.698 Y-22.678 Z-6.623
X51.755 Y-22.887 Z-6.631
X51.826 Y-23.092 Z-6.639
X51.911 Y-23.291 Z-6.647
X52.009 Y-23.484 Z-6.655
X52.121 Y-23.67 Z-6.663
X52.246 Y-23.847 Z-6.67
X52.382 Y-24.015 Z-6.678
X52.53 Y-24.174 Z-6.686
X52.688 Y-24.321 Z-6.694
X52.857 Y-24.458 Z-6.702
X53.034 Y-24.582 Z-6.71
X53.22 Y-24.694 Z-6.718
X53.412 Y-24.792 Z-6.726
X53.611 Y-24.877 Z-6.734
X53.816 Y-24.948 Z-6.742
X54.024 Y-25.005 Z-6.75
X54.237 Y-25.047 Z-6.758
X54.451 Y-25.074 Z-6.766
X54.667 Y-25.086 Z-6.774
X54.884 Y-25.083 Z-6.782
X55.099 Y-25.066 Z-6.79
X55.313 Y-25.033 Z-6.798
X55.524 Y-24.985 Z-6.806
X55.731 Y-24.923 Z-6.814
X55.934 Y-24.847 Z-6.821
X56.131 Y-24.757 Z-6.829
X56.321 Y-24.653 Z-6.837
X56.503 Y-24.537 Z-6.845
X56.677 Y-24.408 Z-6.853
X56.841 Y-24.267 Z-6.861
X56.995 Y-24.116 Z-6.869
X57.139 Y-23.954 Z-6.877
X57.271 Y-23.782 Z-6.885
X57.39 Y-23.602 Z-6.893
X57.497 Y-23.414 Z-6.901
X57.591 Y-23.219 Z-6.909
X57.67 Y-23.018 Z-6.917
X57.736 Y-22.811 Z-6.925
X57.787 Y-22.601 Z-6.933
X57.824 Y-22.388 Z-6.941
X57.845 Y-22.173 Z-6.949
X57.852 Y-21.957 Z-6.957
X57.843 Y-21.741 Z-6.965
X57.82 Y-21.526 Z-6.972
X57.782 Y-21.313 Z-6.98
X57.729 Y-21.104 Z-6.988
X57.662 Y-20.899 Z-6.996
X57.58 Y-20.698 Z-7.004
X57.485 Y-20.504 Z-7.012
X57.377 Y-20.317 Z-7.02
X57.256 Y-20.138 Z-7.028
X57.123 Y-19.968 Z-7.036
X56.978 Y-19.808 Z-7.044
X56.823 Y-19.657 Z-7.052
X56.657 Y-19.518 Z-7.06
X56.483 Y-19.391 Z-7.068
X56.3 Y-19.277 Z-7.076
X56.109 Y-19.175 Z-7.084
X55.912 Y-19.086 Z-7.092
X55.709 Y-19.012 Z-7.1
X55.501 Y-18.952 Z-7.108
X55.29 Y-18.906 Z-7.116
X55.076 Y-18.875 Z-7.123
X54.861 Y-18.859 Z-7.131
X54.645 Y-18.858 Z-7.139
X54.429 Y-18.872 Z-7.147
X54.215 Y-18.901 Z-7.155
X54.004 Y-18.945 Z-7.163
X53.795 Y-19.003 Z-7.171
X53.592 Y-19.076 Z-7.179
X53.394 Y-19.162 Z-7.187
X53.203 Y-19.262 Z-7.195
X53.019 Y-19.375 Z-7.203
X52.843 Y-19.501 Z-7.211
X52.677 Y-19.638 Z-7.219
X52.52 Y-19.786 Z-7.227
X52.375 Y-19.945 Z-7.235
X52.24 Y-20.114 Z-7.243
X52.118 Y-20.292 Z-7.251
X52.008 Y-20.478 Z-7.259
X51.911 Y-20.671 Z-7.266
X51.828 Y-20.87 Z-7.274
X51.759 Y-21.074 Z-7.282
X51.704 Y-21.283 Z-7.29
X51.664 Y-21.495 Z-7.298
X51.639 Y-21.709 Z-7.306
X51.628 Y-21.925 Z-7.314
X51.633 Y-22.14 Z-7.322
X51.653 Y-22.355 Z-7.33
X51.687 Y-22.568 Z-7.338
X51.736 Y-22.779 Z-7.346
X51.8 Y-22.985 Z-7.354
X51.877 Y-23.186 Z-7.362
X51.969 Y-23.382 Z-7.37
X52.074 Y-23.57 Z-7.378
X52.191 Y-23.751 Z-7.386
X52.321 Y-23.923 Z-7.394
X52.463 Y-24.086 Z-7.402
X52.615 Y-24.239 Z-7.41
X52.778 Y-24.38 Z-7.417
X52.95 Y-24.51 Z-7.425
X53.131 Y-24.628 Z-7.433
X53.319 Y-24.733 Z-7.441
X53.514 Y-24.824 Z-7.449
X53.715 Y-24.902 Z-7.457
X53.921 Y-24.966 Z-7.465
X54.131 Y-25.015 Z-7.473
X54.343 Y-25.05 Z-7.481
X54.558 Y-25.069 Z-7.489
X54.773 Y-25.074 Z-7.497
X54.989 Y-25.064 Z-7.505
X55.203 Y-25.039 Z-7.513
X55.415 Y-24.999 Z-7.521
X55.623 Y-24.944 Z-7.529
X55.827 Y-24.876 Z-7.537
X56.026 Y-24.793 Z-7.545
X56.219 Y-24.696 Z-7.553
X56.405 Y-24.587 Z-7.561
X56.582 Y-24.465 Z-7.568
X56.751 Y-24.331 Z-7.576
X56.91 Y-24.185 Z-7.584
X57.058 Y-24.029 Z-7.592
X57.195 Y-23.863 Z-7.6
X57.321 Y-23.687 Z-7.608
X57.434 Y-23.504 Z-7.616
X57.534 Y-23.313 Z-7.624
X57.62 Y-23.115 Z-7.632
X57.693 Y-22.913 Z-7.64
X57.751 Y-22.705 Z-7.648
X57.795 Y-22.495 Z-7.656
X57.824 Y-22.281 Z-7.664
X57.838 Y-22.067 Z-7.672
X57.837 Y-21.851 Z-7.68
X57.821 Y-21.637 Z-7.688
X57.791 Y-21.424 Z-7.696
X57.745 Y-21.213 Z-7.704
X57.686 Y-21.006 Z-7.712
X57.612 Y-20.804 Z-7.719
X57.524 Y-20.608 Z-7.727
X57.423 Y-20.418 Z-7.735
X57.309 Y-20.235 Z-7.743
X57.182 Y-20.061 Z-7.751
X57.044 Y-19.896 Z-7.759
X56.894 Y-19.741 Z-7.767
X56.734 Y-19.597 Z-7.775
X56.565 Y-19.465 Z-7.783
X56.387 Y-19.344 Z-7.791
X56.201 Y-19.236 Z-7.799
X56.007 Y-19.141 Z-7.807
X55.808 Y-19.06 Z-7.815
X55.604 Y-18.993 Z-7.823
X55.395 Y-18.94 Z-7.831
X55.183 Y-18.901 Z-7.839
X54.969 Y-18.878 Z-7.847
X54.754 Y-18.869 Z-7.855
X54.539 Y-18.876 Z-7.863
X54.325 Y-18.897 Z-7.87
X54.113 Y-18.933 Z-7.878
X53.904 Y-18.984 Z-7.886
X53.699 Y-19.049 Z-7.894
X53.499 Y-19.128 Z-7.902
X53.305 Y-19.221 Z-7.91
X53.118 Y-19.327 Z-7.918
X52.939 Y-19.445 Z-7.926
X52.769 Y-19.576 Z-7.934
X52.607 Y-19.719 Z-7.942
X52.457 Y-19.872 Z-7.95
X52.317 Y-20.035 Z-7.958
X52.189 Y-20.208 Z-7.966
X52.073 Y-20.389 Z-7.974
X51.97 Y-20.577 Z-7.982
X51.88 Y-20.773 Z-7.99
X51.804 Y-20.974 Z-7.998
X51.742 Y-21.18 Z-8.006
X51.695 Y-21.389 Z-8.013
X51.662 Y-21.602 Z-8.021
X51.644 Y-21.816 Z-8.029
X51.641 Y-22.031 Z-8.037
X51.653 Y-22.246 Z-8.045
X51.68 Y-22.459 Z-8.053
X51.722 Y-22.67 Z-8.061
X51.778 Y-22.877 Z-8.069
X51.848 Y-23.08 Z-8.077
X51.932 Y-23.278 Z-8.085
X52.03 Y-23.47 Z-8.093
X52.141 Y-23.654 Z-8.101
X52.269 Y-23.836 Z-8.109
X52.409 Y-24.008 Z-8.117
X52.562 Y-24.17 Z-8.126
X52.725 Y-24.32 Z-8.134
X52.899 Y-24.459 Z-8.142
X53.083 Y-24.584 Z-8.15
X53.275 Y-24.696 Z-8.159
X53.475 Y-24.794 Z-8.167
X53.681 Y-24.877 Z-8.175
X53.893 Y-24.945 Z-8.183
X54.109 Y-24.998 Z-8.191
X54.328 Y-25.035 Z-8.2
X54.549 Y-25.056 Z-8.208
X54.772 Y-25.061 Z-8.216
X54.994 Y-25.051 Z-8.224
X55.214 Y-25.024 Z-8.233
X55.433 Y-24.982 Z-8.241
X55.647 Y-24.924 Z-8.249
X55.857 Y-24.851 Z-8.257
X56.061 Y-24.763 Z-8.266
X56.259 Y-24.66 Z-8.274
X56.448 Y-24.544 Z-8.282
X56.629 Y-24.414 Z-8.29
X56.799 Y-24.271 Z-8.298
X56.959 Y-24.117 Z-8.307
X57.108 Y-23.952 Z-8.315
X57.244 Y-23.776 Z-8.323
X57.368 Y-23.591 Z-8.331
X57.477 Y-23.398 Z-8.34
X57.573 Y-23.197 Z-8.348
X57.654 Y-22.991 Z-8.356
X57.719 Y-22.779 Z-8.364
X57.77 Y-22.562 Z-8.373
X57.804 Y-22.343 Z-8.381
X57.823 Y-22.122 Z-8.389
X57.826 Y-21.9 Z-8.397
X57.813 Y-21.678 Z-8.405
X57.784 Y-21.458 Z-8.414
X57.739 Y-21.24 Z-8.422
X57.679 Y-21.027 Z-8.43
X57.604 Y-20.818 Z-8.438
X57.513 Y-20.615 Z-8.447
X57.409 Y-20.419 Z-8.455
X57.29 Y-20.231 Z-8.463
X57.159 Y-20.052 Z-8.471
X57.015 Y-19.883 Z-8.48
X56.859 Y-19.725 Z-8.488
X56.692 Y-19.579 Z-8.496
X56.515 Y-19.444 Z-8.504
X56.329 Y-19.323 Z-8.512
X56.135 Y-19.216 Z-8.521
X55.933 Y-19.122 Z-8.529
X55.726 Y-19.044 Z-8.537
X55.513 Y-18.981 Z-8.545
X55.296 Y-18.933 Z-8.554
X55.076 Y-18.9 Z-8.562
X54.855 Y-18.884 Z-8.57
X54.633 Z-8.578
X54.412 Y-18.899 Z-8.587
X54.193 Y-18.93 Z-8.595
X53.976 Y-18.978 Z-8.603
X53.763 Y-19.04 Z-8.611
X53.555 Y-19.118 Z-8.619
X53.354 Y-19.21 Z-8.628
X53.159 Y-19.317 Z-8.636
X52.973 Y-19.437 Z-8.644
X52.796 Y-19.57 Z-8.652
X52.629 Y-19.716 Z-8.661
X52.472 Y-19.873 Z-8.669
X52.328 Y-20.042 Z-8.677
X52.196 Y-20.22 Z-8.685
X52.077 Y-20.407 Z-8.693
X51.972 Y-20.602 Z-8.702
X51.881 Y-20.804 Z-8.71
X51.805 Y-21.013 Z-8.718
X51.744 Y-21.226 Z-8.726
X51.698 Y-21.443 Z-8.735
X51.668 Y-21.663 Z-8.743
X51.654 Y-21.884 Z-8.751
X51.656 Y-22.106 Z-8.759
X51.674 Y-22.327 Z-8.768
X51.708 Y-22.546 Z-8.776
X51.758 Y-22.762 Z-8.784
X51.822 Y-22.974 Z-8.792
X51.902 Y-23.181 Z-8.8
X51.997 Y-23.381 Z-8.809
X52.105 Y-23.574 Z-8.817
X52.227 Y-23.759 Z-8.825
X52.363 Y-23.934 Z-8.833
X52.51 Y-24.1 Z-8.842
X52.669 Y-24.254 Z-8.85
X52.838 Y-24.396 Z-8.858
X53.018 Y-24.526 Z-8.866
X53.206 Y-24.643 Z-8.875
X53.402 Y-24.746 Z-8.883
X53.605 Y-24.835 Z-8.891
X53.814 Y-24.908 Z-8.899
X54.028 Y-24.967 Z-8.907
X54.245 Y-25.01 Z-8.916
X54.465 Y-25.037 Z-8.924
X54.686 Y-25.049 Z-8.932
X54.907 Y-25.044 Z-8.94
X55.128 Y-25.024 Z-8.949
X55.346 Y-24.988 Z-8.957
X55.562 Y-24.936 Z-8.965
X55.773 Y-24.869 Z-8.973
X55.978 Y-24.787 Z-8.982
X56.178 Y-24.69 Z-8.99
X56.369 Y-24.579 Z-8.998
X56.553 Y-24.455 Z-9.006
X56.727 Y-24.318 Z-9.014
X56.891 Y-24.169 Z-9.023
X57.043 Y-24.009 Z-9.031
X57.183 Y-23.838 Z-9.039
X57.311 Y-23.657 Z-9.047
X57.426 Y-23.468 Z-9.056
X57.526 Y-23.271 Z-9.064
X57.612 Y-23.067 Z-9.072
X57.684 Y-22.858 Z-9.08
X57.74 Y-22.644 Z-9.089
X57.78 Y-22.426 Z-9.097
X57.805 Y-22.207 Z-9.105
X57.814 Y-21.986 Z-9.113
X57.807 Y-21.765 Z-9.121
X57.785 Y-21.545 Z-9.13
X57.746 Y-21.327 Z-9.138
X57.692 Y-21.112 Z-9.146
X57.623 Y-20.902 Z-9.154
X57.538 Y-20.698 Z-9.163
X57.44 Y-20.5 Z-9.171
X57.327 Y-20.309 Z-9.179
X57.201 Y-20.128 Z-9.187
X57.062 Y-19.955 Z-9.196
X56.911 Y-19.794 Z-9.204
X56.749 Y-19.643 Z-9.212
X56.577 Y-19.505 Z-9.22
X56.395 Y-19.379 Z-9.228
X56.205 Y-19.266 Z-9.237
X56.006 Y-19.168 Z-9.245
X55.802 Y-19.084 Z-9.253
X55.592 Y-19.015 Z-9.261
X55.378 Y-18.961 Z-9.27
X55.16 Y-18.923 Z-9.278
X54.94 Y-18.901 Z-9.286
X54.719 Y-18.894 Z-9.294
X54.499 Y-18.904 Z-9.303
X54.279 Y-18.929 Z-9.311
X54.062 Y-18.97 Z-9.319
X53.849 Y-19.026 Z-9.327
X53.64 Y-19.098 Z-9.335
X53.436 Y-19.184 Z-9.344
X53.24 Y-19.285 Z-9.352
X53.051 Y-19.399 Z-9.36
X52.871 Y-19.527 Z-9.368
X52.7 Y-19.668 Z-9.377
X52.54 Y-19.82 Z-9.385
X52.392 Y-19.983 Z-9.393
X52.255 Y-20.157 Z-9.401
X52.132 Y-20.34 Z-9.41
X52.022 Y-20.532 Z-9.418
X51.926 Y-20.731 Z-9.426
X51.844 Y-20.936 Z-9.434
X51.777 Y-21.147 Z-9.442
X51.726 Y-21.361 Z-9.451
X51.69 Y-21.579 Z-9.459
X51.67 Y-21.799 Z-9.467
X51.666 Y-22.02 Z-9.475
X51.678 Y-22.241 Z-9.484
X51.706 Y-22.46 Z-9.492
X51.749 Y-22.676 Z-9.5
X51.807 Y-22.889 Z-9.508
X51.881 Y-23.097 Z-9.517
X51.97 Y-23.299 Z-9.525
X52.072 Y-23.494 Z-9.533
X52.189 Y-23.681 Z-9.541
X52.319 Y-23.86 Z-9.549
X52.461 Y-24.028 Z-9.558
X52.615 Y-24.186 Z-9.566
X52.78 Y-24.333 Z-9.574
X52.955 Y-24.467 Z-9.582
X53.139 Y-24.589 Z-9.591
X53.331 Y-24.697 Z-9.599
X53.531 Y-24.79 Z-9.607
X53.737 Y-24.87 Z-9.615
X53.948 Y-24.934 Z-9.624
X54.163 Y-24.983 Z-9.632
X54.381 Y-25.016 Z-9.64
X54.601 Y-25.033 Z-9.648
X54.822 Y-25.035 Z-9.656
X55.042 Y-25.021 Z-9.665
X55.26 Y-24.991 Z-9.673
X55.476 Y-24.946 Z-9.681
X55.688 Y-24.885 Z-9.689
X55.895 Y-24.809 Z-9.698
X56.096 Y-24.718 Z-9.706
X56.29 Y-24.613 Z-9.714
X56.476 Y-24.494 Z-9.722
X56.653 Y-24.363 Z-9.731
X56.82 Y-24.219 Z-9.739
X56.976 Y-24.064 Z-9.747
X57.12 Y-23.897 Z-9.755
X57.253 Y-23.721 Z-9.763
X57.372 Y-23.536 Z-9.772
X57.478 Y-23.343 Z-9.78
X57.569 Y-23.142 Z-9.788
X57.646 Y-22.936 Z-9.796
X57.708 Y-22.724 Z-9.805
X57.754 Y-22.509 Z-9.813
X57.785 Y-22.291 Z-9.821
X57.8 Y-22.071 Z-9.829
X57.799 Y-21.851 Z-9.838
X57.783 Y-21.631 Z-9.846
X57.75 Y-21.413 Z-9.854
X57.702 Y-21.198 Z-9.862
X57.639 Y-20.987 Z-9.87
X57.561 Y-20.781 Z-9.879
X57.468 Y-20.581 Z-9.887
X57.361 Y-20.388 Z-9.895
X57.241 Y-20.204 Z-9.903
X57.107 Y-20.029 Z-9.912
X56.962 Y-19.863 Z-9.92
X56.805 Y-19.709 Z-9.928
X56.637 Y-19.566 Z-9.936
X56.459 Y-19.436 Z-9.945
X56.273 Y-19.319 Z-9.953
X56.079 Y-19.216 Z-9.961
X55.877 Y-19.126 Z-9.969
X55.67 Y-19.052 Z-9.977
X55.458 Y-18.993 Z-9.986
X55.243 Y-18.949 Z-9.994
X55.025 Y-18.92 Z-10.002
X54.805 Y-18.908 Z-10.01
X54.585 Y-18.911 Z-10.019
X54.366 Y-18.93 Z-10.027
X54.148 Y-18.964 Z-10.035
X53.934 Y-19.015 Z-10.043
X53.724 Y-19.08 Z-10.052
X53.519 Y-19.16 Z-10.06
X53.321 Y-19.255 Z-10.068
X53.13 Y-19.364 Z-10.076
X52.947 Y-19.486 Z-10.084
X52.773 Y-19.622 Z-10.093
X52.61 Y-19.769 Z-10.101
X52.457 Y-19.928 Z-10.109
X52.317 Y-20.097 Z-10.117
X52.188 Y-20.276 Z-10.126
X52.073 Y-20.463 Z-10.134
X51.972 Y-20.659 Z-10.142
X51.885 Y-20.861 Z-10.15
X51.813 Y-21.069 Z-10.159
X51.756 Y-21.281 Z-10.167
X51.715 Y-21.497 Z-10.175
X51.689 Y-21.715 Z-10.183
X51.678 Y-21.935 Z-10.191
X51.684 Y-22.155 Z-10.2
X51.705 Y-22.373 Z-10.208
X51.742 Y-22.59 Z-10.216
X51.795 Y-22.803 Z-10.224
X51.862 Y-23.012 Z-10.233
X51.945 Y-23.216 Z-10.241
X52.042 Y-23.413 Z-10.249
X52.153 Y-23.603 Z-10.257
X52.277 Y-23.784 Z-10.266
X52.414 Y-23.956 Z-10.274
X52.563 Y-24.118 Z-10.282
X52.723 Y-24.268 Z-10.29
X52.893 Y-24.407 Z-10.298
X53.073 Y-24.533 Z-10.307
X53.262 Y-24.646 Z-10.315
X53.458 Y-24.744 Z-10.323
X53.661 Y-24.829 Z-10.331
X53.869 Y-24.899 Z-10.34
X54.082 Y-24.953 Z-10.348
X54.298 Y-24.993 Z-10.356
X54.517 Y-25.016 Z-10.364
X54.737 Y-25.024 Z-10.373
X54.956 Y-25.016 Z-10.381
X55.175 Y-24.992 Z-10.389
X55.391 Y-24.953 Z-10.397
X55.604 Y-24.898 Z-10.405
X55.812 Y-24.828 Z-10.414
X56.014 Y-24.743 Z-10.422
X56.21 Y-24.644 Z-10.43
X56.398 Y-24.532 Z-10.438
X56.578 Y-24.406 Z-10.447
X56.748 Y-24.267 Z-10.455
X56.908 Y-24.117 Z-10.463
X57.056 Y-23.955 Z-10.471
X57.193 Y-23.783 Z-10.48
X57.317 Y-23.602 Z-10.488
X57.427 Y-23.412 Z-10.496
X57.524 Y-23.215 Z-10.504
X57.606 Y-23.012 Z-10.512
X57.673 Y-22.803 Z-10.521
X57.726 Y-22.59 Z-10.529
X57.762 Y-22.374 Z-10.537
X57.783 Y-22.155 Z-10.545
X57.789 Y-21.936 Z-10.554
X57.778 Y-21.717 Z-10.562
X57.752 Y-21.499 Z-10.57
X57.71 Y-21.283 Z-10.578
X57.653 Y-21.071 Z-10.587
X57.581 Y-20.864 Z-10.595
X57.494 Y-20.663 Z-10.603
X57.393 Y-20.468 Z-10.611
X57.278 Y-20.281 Z-10.619
X57.15 Y-20.103 Z-10.628
X57.01 Y-19.934 Z-10.636
X56.858 Y-19.776 Z-10.644
X56.695 Y-19.629 Z-10.652
X56.522 Y-19.495 Z-10.661
X56.34 Y-19.373 Z-10.669
X56.149 Y-19.265 Z-10.677
X55.951 Y-19.171 Z-10.685
X55.747 Y-19.091 Z-10.694
X55.538 Y-19.026 Z-10.702
X55.324 Y-18.976 Z-10.71
X55.108 Y-18.942 Z-10.718
X54.89 Y-18.923 Z-10.726
X54.67 Y-18.92 Z-10.735
X54.452 Y-18.933 Z-10.743
X54.234 Y-18.962 Z-10.751
X54.02 Y-19.006 Z-10.759
X53.809 Y-19.065 Z-10.768
X53.603 Y-19.139 Z-10.776
X53.402 Y-19.228 Z-10.784
X53.209 Y-19.331 Z-10.792
X53.023 Y-19.448 Z-10.801
X52.847 Y-19.578 Z-10.809
X52.68 Y-19.72 Z-10.817
X52.524 Y-19.874 Z-10.825
X52.379 Y-20.038 Z-10.833
X52.246 Y-20.213 Z-10.842
X52.127 Y-20.396 Z-10.85
X52.021 Y-20.588 Z-10.858
X51.929 Y-20.787 Z-10.866
X51.851 Y-20.992 Z-10.875
X51.788 Y-21.201 Z-10.883
X51.741 Y-21.415 Z-10.891
X51.709 Y-21.632 Z-10.899
X51.693 Y-21.85 Z-10.908
X51.692 Y-22.069 Z-10.916
X51.708 Y-22.287 Z-10.924
X51.738 Y-22.504 Z-10.932
X51.785 Y-22.718 Z-10.94
X51.846 Y-22.928 Z-10.949
X51.923 Y-23.133 Z-10.957
X52.014 Y-23.332 Z-10.965
X52.119 Y-23.524 Z-10.973
X52.238 Y-23.708 Z-10.982
X52.369 Y-23.883 Z-10.99
X52.513 Y-24.048 Z-10.998
X52.668 Y-24.202 Z-11.006
X52.834 Y-24.345 Z-11.015
X53.01 Y-24.475 Z-11.023
X53.195 Y-24.593 Z-11.031
X53.387 Y-24.697 Z-11.039
X53.587 Y-24.786 Z-11.047
X53.792 Y-24.862 Z-11.056
X54.003 Y-24.922 Z-11.064
X54.217 Y-24.967 Z-11.072
X54.434 Y-24.996 Z-11.08
X54.652 Y-25.01 Z-11.089
X54.871 Y-25.008 Z-11.097
X55.089 Y-24.991 Z-11.105
X55.305 Y-24.958 Z-11.113
X55.518 Y-24.909 Z-11.122
X55.727 Y-24.845 Z-11.13
X55.931 Y-24.767 Z-11.138
X56.129 Y-24.673 Z-11.146
X56.32 Y-24.566 Z-11.154
X56.502 Y-24.446 Z-11.163
X56.675 Y-24.313 Z-11.171
X56.838 Y-24.167 Z-11.179
X56.991 Y-24.01 Z-11.187
X57.131 Y-23.843 Z-11.196
X57.26 Y-23.666 Z-11.204
X57.375 Y-23.48 Z-11.212
X57.477 Y-23.287 Z-11.22
X57.564 Y-23.087 Z-11.228
X57.637 Y-22.881 Z-11.237
X57.695 Y-22.67 Z-11.245
X57.737 Y-22.455 Z-11.253
X57.765 Y-22.239 Z-11.261
X57.776 Y-22.02 Z-11.27
X57.772 Y-21.802 Z-11.278
X57.752 Y-21.584 Z-11.286
X57.716 Y-21.368 Z-11.294
X57.665 Y-21.156 Z-11.303
X57.599 Y-20.947 Z-11.311
X57.518 Y-20.744 Z-11.319
X57.423 Y-20.548 Z-11.327
X57.314 Y-20.359 Z-11.335
X57.191 Y-20.178 Z-11.344
X57.056 Y-20.006 Z-11.352
X56.909 Y-19.845 Z-11.36
X56.751 Y-19.694 Z-11.368
X56.583 Y-19.556 Z-11.377
X56.405 Y-19.43 Z-11.385
X56.218 Y-19.316 Z-11.393
X56.023 Y-19.217 Z-11.401
X55.822 Y-19.132 Z-11.41
X55.616 Y-19.061 Z-11.418
X55.405 Y-19.006 Z-11.426
X55.19 Y-18.966 Z-11.434
X54.973 Y-18.941 Z-11.442
X54.755 Y-18.932 Z-11.451
X54.537 Y-18.939 Z-11.459
X54.32 Y-18.961 Z-11.467
X54.105 Y-18.999 Z-11.475
X53.893 Y-19.052 Z-11.484
X53.686 Y-19.121 Z-11.492
X53.484 Y-19.204 Z-11.5
X53.289 Y-19.301 Z-11.508
X53.101 Y-19.412 Z-11.517
X52.921 Y-19.536 Z-11.525
X52.751 Y-19.673 Z-11.533
X52.591 Y-19.822 Z-11.541
X52.443 Y-19.982 Z-11.549
X52.306 Y-20.152 Z-11.558
X52.182 Y-20.331 Z-11.566
X52.071 Y-20.519 Z-11.574
X51.974 Y-20.714 Z-11.582
X51.891 Y-20.916 Z-11.591
X51.823 Y-21.123 Z-11.599
X51.77 Y-21.334 Z-11.607
X51.732 Y-21.549 Z-11.615
X51.71 Y-21.766 Z-11.624
X51.703 Y-21.984 Z-11.632
X51.712 Y-22.202 Z-11.64
X51.737 Y-22.418 Z-11.648
X51.777 Y-22.633 Z-11.656
X51.833 Y-22.843 Z-11.665
X51.903 Y-23.05 Z-11.673
X51.988 Y-23.25 Z-11.681
X52.088 Y-23.444 Z-11.689
X52.201 Y-23.631 Z-11.698
X52.327 Y-23.809 Z-11.706
X52.466 Y-23.977 Z-11.714
X52.616 Y-24.135 Z-11.722
X52.777 Y-24.282 Z-11.731
X52.948 Y-24.416 Z-11.739
X53.129 Y-24.538 Z-11.747
X53.318 Y-24.647 Z-11.755
X53.514 Y-24.742 Z-11.763
X53.717 Y-24.823 Z-11.772
X53.925 Y-24.889 Z-11.78
X54.137 Y-24.939 Z-11.788
X54.351 Y-24.975 Z-11.796
X54.568 Y-24.994 Z-11.805
X54.786 Y-24.999 Z-11.813
X55.003 Y-24.987 Z-11.821
X55.219 Y-24.96 Z-11.829
X55.433 Y-24.918 Z-11.838
X55.643 Y-24.86 Z-11.846
X55.848 Y-24.787 Z-11.854
X56.048 Y-24.7 Z-11.862
X56.24 Y-24.599 Z-11.87
X56.425 Y-24.484 Z-11.879
X56.601 Y-24.356 Z-11.887
X56.768 Y-24.215 Z-11.895
X56.924 Y-24.064 Z-11.903
X57.069 Y-23.901 Z-11.912
X57.201 Y-23.728 Z-11.92
X57.321 Y-23.547 Z-11.928
X57.428 Y-23.357 Z-11.936
X57.52 Y-23.16 Z-11.945
X57.599 Y-22.957 Z-11.953
X57.662 Y-22.748 Z-11.961
X57.711 Y-22.536 Z-11.969
X57.743 Y-22.321 Z-11.977
X57.761 Y-22.104 Z-11.986
X57.763 Y-21.886 Z-11.994
X57.749 Y-21.669 Z-12.002
X57.719 Y-21.453 Z-12.01
X57.674 Y-21.24 Z-12.019
X57.614 Y-21.031 Z-12.027
X57.54 Y-20.827 Z-12.035
X57.45 Y-20.629 Z-12.043
X57.347 Y-20.437 Z-12.052
X57.23 Y-20.254 Z-12.06
X57.101 Y-20.08 Z-12.068
X56.959 Y-19.915 Z-12.076
X56.805 Y-19.761 Z-12.084
X56.641 Y-19.618 Z-12.093
X56.468 Y-19.487 Z-12.101
X56.285 Y-19.37 Z-12.109
X56.094 Y-19.265 Z-12.117
X55.896 Y-19.175 Z-12.126
X55.692 Y-19.099 Z-12.134
X55.484 Y-19.038 Z-12.142
X55.271 Y-18.992 Z-12.15
X55.056 Y-18.961 Z-12.159
X54.839 Y-18.946 Z-12.167
X54.622 Y-18.947 Z-12.175
X54.405 Y-18.963 Z-12.183
X54.19 Y-18.995 Z-12.191
X53.977 Y-19.042 Z-12.2
X53.769 Y-19.104 Z-12.208
X53.566 Y-19.182 Z-12.216
X53.369 Y-19.273 Z-12.224
X53.178 Y-19.378 Z-12.233
X52.996 Y-19.497 Z-12.241
X52.823 Y-19.629 Z-12.249
X52.66 Y-19.772 Z-12.257
X52.508 Y-19.927 Z-12.266
X52.367 Y-20.093 Z-12.274
X52.239 Y-20.268 Z-12.282
X52.123 Y-20.451 Z-12.29
X52.021 Y-20.643 Z-12.298
X51.933 Y-20.842 Z-12.307
X51.86 Y-21.046 Z-12.315
X51.801 Y-21.255 Z-12.323
X51.757 Y-21.468 Z-12.331
X51.729 Y-21.683 Z-12.34
X51.717 Y-21.9 Z-12.348
X51.72 Y-22.117 Z-12.356
X51.738 Y-22.333 Z-12.364
X51.772 Y-22.548 Z-12.373
X51.822 Y-22.759 Z-12.381
X51.886 Y-22.966 Z-12.389
X51.965 Y-23.169 Z-12.397
X52.059 Y-23.364 Z-12.405
X52.166 Y-23.553 Z-12.414
X52.287 Y-23.734 Z-12.422
X52.42 Y-23.905 Z-12.43
X52.566 Y-24.067 Z-12.438
X52.722 Y-24.217 Z-12.447
X52.889 Y-24.356 Z-12.455
X53.065 Y-24.483 Z-12.463
X53.251 Y-24.596 Z-12.471
X53.443 Y-24.696 Z-12.48
X53.642 Y-24.782 Z-12.488
X53.847 Y-24.853 Z-12.496
X54.057 Y-24.909 Z-12.504
X54.27 Y-24.95 Z-12.512
X54.485 Y-24.976 Z-12.521
X54.702 Y-24.986 Z-12.529
X54.918 Y-24.981 Z-12.537
X55.134 Y-24.96 Z-12.545
X55.348 Y-24.924 Z-12.554
X55.559 Y-24.872 Z-12.562
X55.765 Y-24.805 Z-12.57
X55.966 Y-24.724 Z-12.578
X56.161 Y-24.628 Z-12.587
X56.348 Y-24.519 Z-12.595
X56.527 Y-24.397 Z-12.603
X56.696 Y-24.262 Z-12.611
X56.856 Y-24.115 Z-12.619
X57.005 Y-23.957 Z-12.628
X57.142 Y-23.789 Z-12.636
X57.266 Y-23.611 Z-12.644
X57.377 Y-23.425 Z-12.652
X57.475 Y-23.231 Z-12.661
X57.559 Y-23.031 Z-12.669
X57.627 Y-22.826 Z-12.677
X57.681 Y-22.616 Z-12.685
X57.72 Y-22.402 Z-12.694
X57.744 Y-22.187 Z-12.702
X57.751 Y-21.97 Z-12.71
G3 X54.735 Y-18.953 R3.017
X51.718 Y-21.97 R3.017
X54.735 Y-24.986 R3.017
X57.751 Y-21.97 R3.017
S15000
G1 X57.767 Y-21.058
X57.786 Y-20.946
X57.796 Y-20.796
X57.79 Y-20.646
X57.77 Y-20.498
X57.738 Y-20.351
X57.694 Y-20.208
X57.641 Y-20.067
X57.579 Y-19.931
X57.508 Y-19.799
X57.429 Y-19.671
X57.344 Y-19.548
X57.252 Y-19.429
X57.154 Y-19.316
X57.05 Y-19.208
X56.94 Y-19.105
X56.826 Y-19.008
X56.707 Y-18.916
X56.584 Y-18.83
X56.455 Y-18.749
X56.32 Y-18.672
X56.181 Y-18.602
X56.037 Y-18.537
X55.888 Y-18.479
X55.736 Y-18.427
X55.58 Y-18.382
X55.422 Y-18.344
X55.26 Y-18.313
X55.096 Y-18.29
X54.931 Y-18.274
X54.764 Y-18.266
X54.596
X54.428 Y-18.274
X54.26 Y-18.289
X54.092 Y-18.313
X53.925 Y-18.345
X53.759 Y-18.384
X53.595 Y-18.431
X53.432 Y-18.486
X53.273 Y-18.549
X53.116 Y-18.62
X52.962 Y-18.697
X52.812 Y-18.782
X52.666 Y-18.874
X52.524 Y-18.973
X52.387 Y-19.078
X52.254 Y-19.19
X52.127 Y-19.308
X52.006 Y-19.432
X51.89 Y-19.562
X51.781 Y-19.697
X51.678 Y-19.837
X51.581 Y-19.982
X51.492 Y-20.131
X51.409 Y-20.284
X51.334 Y-20.441
X51.266 Y-20.602
X51.206 Y-20.765
X51.153 Y-20.931
X51.108 Y-21.1
X51.072 Y-21.27
X51.043 Y-21.442
X51.022 Y-21.616
X51.009 Y-21.79
X51.005 Y-21.964
X51.009 Y-22.139
X51.021 Y-22.313
X51.041 Y-22.486
X51.069 Y-22.659
X51.105 Y-22.829
X51.149 Y-22.998
X51.201 Y-23.165
X51.261 Y-23.329
X51.328 Y-23.49
X51.403 Y-23.648
X51.485 Y-23.802
X51.575 Y-23.952
X51.671 Y-24.098
X51.774 Y-24.239
X51.884 Y-24.375
X51.999 Y-24.506
X52.121 Y-24.632
X52.248 Y-24.751
X52.381 Y-24.864
X52.52 Y-24.971
X52.663 Y-25.072
X52.81 Y-25.166
X52.962 Y-25.252
X53.117 Y-25.332
X53.277 Y-25.404
X53.439 Y-25.468
X53.604 Y-25.525
X53.772 Y-25.574
X53.942 Y-25.615
X54.113 Y-25.648
X54.286 Y-25.673
X54.46 Y-25.69
X54.635 Y-25.699
X54.81 Y-25.7
X54.984 Y-25.692
X55.158 Y-25.676
X55.331 Y-25.653
X55.503 Y-25.621
X55.673 Y-25.581
X55.841 Y-25.533
X56.007 Y-25.477
X56.17 Y-25.414
X56.329 Y-25.343
X56.486 Y-25.264
X56.638 Y-25.179
X56.786 Y-25.086
X56.93 Y-24.986
X57.069 Y-24.88
X57.202 Y-24.768
X57.331 Y-24.649
X57.453 Y-24.525
X57.57 Y-24.395
X57.68 Y-24.259
X57.784 Y-24.119
X57.882 Y-23.974
X57.972 Y-23.824
X58.055 Y-23.67
X58.131 Y-23.513
X58.21 Y-23.328
X58.296 Y-23.098
X58.415 Y-22.726
X58.493 Y-22.435
X58.547 Y-22.186
X58.586 Y-21.959
X58.612 Y-21.746
X58.627 Y-21.544
X58.633 Y-21.352
X58.629 Y-21.167
X58.618 Y-20.989
X58.598 Y-20.814
X58.57 Y-20.642
X58.535 Y-20.472
X58.492 Y-20.306
X58.441 Y-20.142
X58.383 Y-19.981
X58.317 Y-19.822
X58.244 Y-19.667
X58.164 Y-19.515
X58.075 Y-19.366
X57.98 Y-19.22
X57.877 Y-19.078
X57.766 Y-18.94
X57.649 Y-18.806
X57.524 Y-18.677
X57.392 Y-18.553
X57.253 Y-18.434
X57.108 Y-18.32
X56.956 Y-18.213
X56.798 Y-18.112
X56.634 Y-18.018
X56.465 Y-17.931
X56.291 Y-17.852
X56.112 Y-17.78
X55.929 Y-17.717
X55.742 Y-17.662
X55.552 Y-17.615
X55.358 Y-17.577
X55.163 Y-17.548
X54.965 Y-17.528
X54.765 Y-17.518
X54.565 Y-17.516
X54.363 Y-17.525
X54.162 Y-17.542
X53.961 Y-17.569
X53.761 Y-17.606
X53.562 Y-17.652
X53.366 Y-17.708
X53.171 Y-17.772
X52.979 Y-17.846
X52.791 Y-17.93
X52.606 Y-18.022
X52.426 Y-18.122
X52.25 Y-18.232
X52.079 Y-18.349
X51.914 Y-18.475
X51.754 Y-18.608
X51.601 Y-18.749
X51.454 Y-18.898
X51.314 Y-19.053
X51.182 Y-19.214
X51.057 Y-19.382
X50.94 Y-19.555
X50.831 Y-19.734
X50.731 Y-19.918
X50.639 Y-20.107
X50.556 Y-20.3
X50.482 Y-20.496
X50.418 Y-20.696
X50.363 Y-20.899
X50.317 Y-21.104
X50.281 Y-21.311
X50.255 Y-21.52
X50.239 Y-21.73
X50.232 Y-21.94
X50.236 Y-22.151
X50.249 Y-22.361
X50.272 Y-22.57
X50.305 Y-22.778
X50.347 Y-22.984
X50.399 Y-23.189
X50.461 Y-23.39
X50.532 Y-23.589
X50.612 Y-23.783
X50.701 Y-23.974
X50.8 Y-24.161
X50.906 Y-24.343
X51.022 Y-24.519
X51.145 Y-24.69
X51.276 Y-24.856
X51.415 Y-25.014
X51.561 Y-25.166
X51.714 Y-25.311
X51.874 Y-25.449
X52.04 Y-25.579
X52.212 Y-25.702
X52.389 Y-25.816
X52.572 Y-25.921
X52.759 Y-26.018
X52.951 Y-26.106
X53.147 Y-26.185
X53.346 Y-26.255
X53.548 Y-26.315
X53.753 Y-26.366
X53.96 Y-26.407
X54.168 Y-26.439
X54.378 Y-26.46
X54.589 Y-26.472
X54.8 Y-26.474
X55.011 Y-26.466
X55.221 Y-26.448
X55.43 Y-26.421
X55.638 Y-26.383
X55.844 Y-26.336
X56.047 Y-26.279
X56.247 Y-26.213
X56.444 Y-26.138
X56.637 Y-26.053
X56.827 Y-25.959
X57.011 Y-25.857
X57.191 Y-25.746
X57.365 Y-25.627
X57.533 Y-25.5
X57.695 Y-25.365
X57.851 Y-25.223
X58. Y-25.073
X58.144 Y-24.914
X58.286 Y-24.742
X58.434 Y-24.544
X58.577 Y-24.335
X58.713 Y-24.112
X58.841 Y-23.879
X58.958 Y-23.639
X59.063 Y-23.396
X59.156 Y-23.152
X59.235 Y-22.909
X59.301 Y-22.668
X59.355 Y-22.43
X59.396 Y-22.193
X59.426 Y-21.959
X59.445 Y-21.727
X59.453 Y-21.497
X59.45 Y-21.27
X59.437 Y-21.045
X59.413 Y-20.824
X59.379 Y-20.605
X59.335 Y-20.39
X59.282 Y-20.178
X59.219 Y-19.97
X59.146 Y-19.765
X59.064 Y-19.564
X58.973 Y-19.367
X58.872 Y-19.175
X58.763 Y-18.987
X58.644 Y-18.804
X58.517 Y-18.627
X58.381 Y-18.455
X58.237 Y-18.289
X58.084 Y-18.13
X57.924 Y-17.977
X57.755 Y-17.831
X57.58 Y-17.692
X57.397 Y-17.561
X57.207 Y-17.439
X57.011 Y-17.325
X56.809 Y-17.219
X56.601 Y-17.123
X56.388 Y-17.036
X56.17 Y-16.959
X55.948 Y-16.892
X55.722 Y-16.836
X55.493 Y-16.789
X55.26 Y-16.754
X55.026 Y-16.729
X54.79 Y-16.715
X54.553 Y-16.712
X54.315 Y-16.72
X54.077 Y-16.74
X53.839 Y-16.771
X53.603 Y-16.813
X53.368 Y-16.866
X53.135 Y-16.93
X52.905 Y-17.005
X52.678 Y-17.091
X52.455 Y-17.188
X52.237 Y-17.296
X52.023 Y-17.413
X51.815 Y-17.541
X51.613 Y-17.679
X51.417 Y-17.826
X51.227 Y-17.982
X51.046 Y-18.148
X50.871 Y-18.321
X50.705 Y-18.503
X50.548 Y-18.693
X50.399 Y-18.89
X50.26 Y-19.095
X50.131 Y-19.305
X50.011 Y-19.522
X49.901 Y-19.744
X49.802 Y-19.971
X49.714 Y-20.203
X49.636 Y-20.438
X49.57 Y-20.678
X49.515 Y-20.92
X49.471 Y-21.164
X49.438 Y-21.411
X49.418 Y-21.659
X49.409 Y-21.907
X49.411 Y-22.156
X49.425 Y-22.405
X49.451 Y-22.652
X49.489 Y-22.898
X49.538 Y-23.143
X49.598 Y-23.384
X49.669 Y-23.623
X49.752 Y-23.858
X49.846 Y-24.089
X49.95 Y-24.316
X50.065 Y-24.537
X50.19 Y-24.753
X50.325 Y-24.962
X50.47 Y-25.166
X50.624 Y-25.362
X50.787 Y-25.55
X50.959 Y-25.731
X51.139 Y-25.904
X51.327 Y-26.068
X51.523 Y-26.223
X51.725 Y-26.369
X51.935 Y-26.505
X52.15 Y-26.631
X52.371 Y-26.747
X52.597 Y-26.852
X52.828 Y-26.947
X53.063 Y-27.031
X53.302 Y-27.104
X53.544 Y-27.165
X53.789 Y-27.215
X54.035 Y-27.254
X54.283 Y-27.281
X54.533 Y-27.296
X54.782 Y-27.3
X55.032 Y-27.292
X55.281 Y-27.272
X55.528 Y-27.241
X55.774 Y-27.198
X56.018 Y-27.143
X56.259 Y-27.078
X56.496 Y-27.001
X56.73 Y-26.913
X56.959 Y-26.814
X57.184 Y-26.704
X57.403 Y-26.584
X57.617 Y-26.454
X57.827 Y-26.312
X58.033 Y-26.158
X58.235 Y-25.992
X58.433 Y-25.813
X58.627 Y-25.621
X58.814 Y-25.416
X58.994 Y-25.2
X59.166 Y-24.974
X59.328 Y-24.738
X59.478 Y-24.495
X59.618 Y-24.245
X59.745 Y-23.989
X59.859 Y-23.729
X59.961 Y-23.465
X60.049 Y-23.199
X60.124 Y-22.93
X60.187 Y-22.66
X60.236 Y-22.39
X60.272 Y-22.119
X60.295 Y-21.849
X60.306 Y-21.58
X60.304 Y-21.313
X60.29 Y-21.047
X60.263 Y-20.784
X60.224 Y-20.523
X60.173 Y-20.266
X60.111 Y-20.012
X60.036 Y-19.762
X59.951 Y-19.516
X59.854 Y-19.274
X59.745 Y-19.038
X59.626 Y-18.807
X59.496 Y-18.581
X59.356 Y-18.362
X59.205 Y-18.149
X59.044 Y-17.943
X58.874 Y-17.745
X58.693 Y-17.554
X58.504 Y-17.371
X58.306 Y-17.197
X58.099 Y-17.032
X57.883 Y-16.877
X57.661 Y-16.731
X57.43 Y-16.595
X57.193 Y-16.47
X56.95 Y-16.355
X56.7 Y-16.252
X56.445 Y-16.161
X56.186 Y-16.081
X55.922 Y-16.013
X55.654 Y-15.957
X55.383 Y-15.914
X55.11 Y-15.884
X54.834 Y-15.866
X54.557 Y-15.861
X54.28 Y-15.869
X54.003 Y-15.89
X53.726 Y-15.925
X53.45 Y-15.972
X53.177 Y-16.032
X52.906 Y-16.106
X52.638 Y-16.191
X52.373 Y-16.29
X52.114 Y-16.401
X51.859 Y-16.525
X51.61 Y-16.66
X51.367 Y-16.807
X51.131 Y-16.966
X50.902 Y-17.136
X50.682 Y-17.316
X50.469 Y-17.507
X50.266 Y-17.708
X50.072 Y-17.918
X49.888 Y-18.138
X49.714 Y-18.366
X49.551 Y-18.602
X49.399 Y-18.846
X49.258 Y-19.097
X49.129 Y-19.354
X49.013 Y-19.617
X48.909 Y-19.886
X48.817 Y-20.159
X48.738 Y-20.437
X48.673 Y-20.718
X48.62 Y-21.001
X48.581 Y-21.288
X48.555 Y-21.576
X48.543 Y-21.864
X48.544 Y-22.154
X48.559 Y-22.442
X48.588 Y-22.73
X48.63 Y-23.017
X48.685 Y-23.301
X48.753 Y-23.582
X48.835 Y-23.86
X48.93 Y-24.134
X49.037 Y-24.403
X49.157 Y-24.667
X49.289 Y-24.925
X49.433 Y-25.177
X49.589 Y-25.421
X49.755 Y-25.658
X49.933 Y-25.888
X50.122 Y-26.108
X50.32 Y-26.319
X50.529 Y-26.521
X50.746 Y-26.713
X50.973 Y-26.895
X51.207 Y-27.065
X51.45 Y-27.225
X51.699 Y-27.373
X51.955 Y-27.509
X52.218 Y-27.633
X52.486 Y-27.745
X52.758 Y-27.844
X53.036 Y-27.93
X53.317 Y-28.003
X53.601 Y-28.063
X53.887 Y-28.11
X54.175 Y-28.143
X54.465 Y-28.162
X54.755 Y-28.168
X55.046 Y-28.16
X55.335 Y-28.139
X55.623 Y-28.104
X55.91 Y-28.056
X56.193 Y-27.994
X56.474 Y-27.919
X56.751 Y-27.831
X57.025 Y-27.729
X57.295 Y-27.615
X57.562 Y-27.487
X57.824 Y-27.345
X58.082 Y-27.19
X58.334 Y-27.021
X58.581 Y-26.839
X58.821 Y-26.644
X59.053 Y-26.437
X59.277 Y-26.217
X59.492 Y-25.985
X59.697 Y-25.742
X59.891 Y-25.489
X60.073 Y-25.227
X60.243 Y-24.956
X60.4 Y-24.677
X60.544 Y-24.391
X60.675 Y-24.099
X60.791 Y-23.803
X60.892 Y-23.502
X60.98 Y-23.198
X61.052 Y-22.891
X61.11 Y-22.583
X61.153 Y-22.273
X61.182 Y-21.963
X61.196 Y-21.653
X61.195 Y-21.345
X61.18 Y-21.037
X61.151 Y-20.732
X61.107 Y-20.429
X61.05 Y-20.129
X60.979 Y-19.832
X60.894 Y-19.54
X60.795 Y-19.253
X60.684 Y-18.97
X60.559 Y-18.693
X60.421 Y-18.423
X60.271 Y-18.159
X60.109 Y-17.902
X59.934 Y-17.653
X59.748 Y-17.411
X59.55 Y-17.179
X59.342 Y-16.956
X59.123 Y-16.742
X58.893 Y-16.539
X58.654 Y-16.346
X58.406 Y-16.164
X58.148 Y-15.993
X57.883 Y-15.835
X57.609 Y-15.688
X57.328 Y-15.555
X57.041 Y-15.434
X56.747 Y-15.326
X56.448 Y-15.233
X56.145 Y-15.153
X55.836 Y-15.087
X55.525 Y-15.035
X55.21 Y-14.999
X54.894 Y-14.976
X54.576 Y-14.969
X54.257 Y-14.977
X53.938 Y-14.999
X53.62 Y-15.037
X53.304 Y-15.089
X52.989 Y-15.157
X52.678 Y-15.239
X52.37 Y-15.336
X52.066 Y-15.447
X51.768 Y-15.573
X51.475 Y-15.713
X51.188 Y-15.867
X50.909 Y-16.034
X50.637 Y-16.214
X50.374 Y-16.407
X50.12 Y-16.613
X49.875 Y-16.83
X49.641 Y-17.059
X49.417 Y-17.299
X49.205 Y-17.549
X49.004 Y-17.809
X48.816 Y-18.079
X48.64 Y-18.357
X48.478 Y-18.644
X48.328 Y-18.938
X48.193 Y-19.239
X48.072 Y-19.546
X47.965 Y-19.858
X47.873 Y-20.176
X47.796 Y-20.497
X47.734 Y-20.822
X47.688 Y-21.15
X47.656 Y-21.479
X47.641 Y-21.81
X47.64 Y-22.142
X47.655 Y-22.473
X47.686 Y-22.803
X47.732 Y-23.131
X47.794 Y-23.457
X47.87 Y-23.78
X47.962 Y-24.099
X48.069 Y-24.413
X48.19 Y-24.722
X48.326 Y-25.026
X48.475 Y-25.322
X48.639 Y-25.611
X48.816 Y-25.893
X49.005 Y-26.165
X49.208 Y-26.429
X49.422 Y-26.683
X49.649 Y-26.926
X49.886 Y-27.159
X50.134 Y-27.38
X50.392 Y-27.59
X50.66 Y-27.787
X50.937 Y-27.971
X51.222 Y-28.142
X51.514 Y-28.3
X51.814 Y-28.444
X52.12 Y-28.574
X52.432 Y-28.689
X52.75 Y-28.789
X53.071 Y-28.875
X53.396 Y-28.945
X53.724 Y-29.
X54.054 Y-29.04
X54.386 Y-29.064
X54.719 Y-29.073
X55.051 Y-29.066
X55.383 Y-29.043
X55.714 Y-29.005
X56.044 Y-28.951
X56.371 Y-28.882
X56.695 Y-28.797
X57.016 Y-28.697
X57.334 Y-28.582
X57.648 Y-28.45
X57.957 Y-28.304
X58.261 Y-28.142
X58.558 Y-27.965
X58.849 Y-27.774
X59.132 Y-27.567
X59.406 Y-27.347
X59.671 Y-27.112
X59.927 Y-26.865
X60.171 Y-26.604
X60.403 Y-26.332
X60.623 Y-26.049
X60.829 Y-25.755
X61.022 Y-25.452
X61.2 Y-25.14
X61.364 Y-24.82
X61.512 Y-24.493
X61.644 Y-24.16
X61.761 Y-23.821
X61.861 Y-23.479
X61.945 Y-23.133
X62.012 Y-22.784
X62.063 Y-22.433
X62.098 Y-22.081
X62.116 Y-21.729
X62.117 Y-21.377
X62.102 Y-21.026
X62.07 Y-20.677
X62.023 Y-20.33
X61.959 Y-19.987
X61.879 Y-19.647
X61.784 Y-19.312
X61.673 Y-18.982
X61.547 Y-18.657
X61.405 Y-18.339
X61.249 Y-18.028
X61.079 Y-17.725
X60.895 Y-17.43
X60.696 Y-17.143
X60.485 Y-16.866
X60.26 Y-16.599
X60.023 Y-16.342
X59.774 Y-16.096
X59.513 Y-15.862
X59.241 Y-15.64
X58.958 Y-15.431
X58.666 Y-15.235
X58.364 Y-15.052
X58.053 Y-14.883
X57.733 Y-14.729
X57.407 Y-14.59
X57.073 Y-14.465
X56.733 Y-14.357
X56.388 Y-14.264
X56.038 Y-14.187
X55.684 Y-14.127
X55.327 Y-14.083
X54.968 Y-14.056
X54.607 Y-14.045
X54.245 Y-14.052
X53.883 Y-14.075
X53.522 Y-14.116
X53.163 Y-14.174
X52.806 Y-14.248
X52.452 Y-14.339
X52.102 Y-14.447
X51.757 Y-14.572
X51.418 Y-14.712
X51.086 Y-14.869
X50.76 Y-15.041
X50.443 Y-15.229
X50.134 Y-15.431
X49.835 Y-15.648
X49.546 Y-15.879
X49.268 Y-16.123
X49.001 Y-16.381
X48.746 Y-16.651
X48.504 Y-16.933
X48.275 Y-17.226
X48.06 Y-17.53
X47.86 Y-17.844
X47.674 Y-18.167
X47.503 Y-18.499
X47.348 Y-18.839
X47.209 Y-19.186
X47.087 Y-19.539
X46.98 Y-19.897
X46.891 Y-20.261
X46.819 Y-20.628
X46.764 Y-20.998
X46.727 Y-21.371
X46.707 Y-21.745
X46.704 Y-22.12
X46.719 Y-22.495
X46.752 Y-22.869
X46.802 Y-23.241
X46.87 Y-23.61
X46.954 Y-23.976
X47.056 Y-24.338
X47.175 Y-24.694
X47.31 Y-25.045
X47.462 Y-25.388
X47.629 Y-25.725
X47.812 Y-26.053
X48.011 Y-26.373
X48.224 Y-26.682
X48.451 Y-26.982
X48.692 Y-27.271
X48.947 Y-27.548
X49.214 Y-27.813
X49.493 Y-28.065
X49.784 Y-28.303
X50.086 Y-28.528
X50.398 Y-28.739
X50.72 Y-28.934
X51.05 Y-29.115
X51.388 Y-29.279
X51.734 Y-29.428
X52.087 Y-29.56
X52.445 Y-29.676
X52.808 Y-29.775
X53.176 Y-29.857
X53.547 Y-29.921
X53.92 Y-29.968
X54.296 Y-29.998
X54.673 Y-30.009
X55.05 Y-30.004
X55.427 Y-29.98
X55.803 Y-29.939
X56.178 Y-29.88
X56.551 Y-29.803
X56.921 Y-29.709
X57.287 Y-29.597
X57.649 Y-29.467
X58.006 Y-29.32
X58.358 Y-29.156
X58.702 Y-28.975
X59.039 Y-28.777
X59.368 Y-28.563
X59.688 Y-28.332
X59.998 Y-28.086
X60.297 Y-27.825
X60.584 Y-27.549
X60.859 Y-27.26
X61.12 Y-26.957
X61.367 Y-26.642
X61.6 Y-26.315
X61.817 Y-25.977
X62.018 Y-25.629
X62.203 Y-25.273
X62.371 Y-24.908
X62.521 Y-24.536
X62.654 Y-24.158
X62.768 Y-23.774
X62.865 Y-23.387
X62.943 Y-22.995
X63.002 Y-22.601
X63.043 Y-22.206
X63.065 Y-21.81
X63.069 Y-21.413
X63.054 Y-21.018
X63.021 Y-20.624
X62.969 Y-20.232
X62.899 Y-19.844
X62.811 Y-19.46
X62.706 Y-19.081
X62.583 Y-18.707
X62.442 Y-18.34
X62.284 Y-17.979
X62.11 Y-17.627
X61.919 Y-17.283
X61.713 Y-16.948
X61.491 Y-16.623
X61.253 Y-16.308
X61.001 Y-16.005
X60.735 Y-15.714
X60.455 Y-15.435
X60.162 Y-15.169
X59.857 Y-14.917
X59.539 Y-14.679
X59.21 Y-14.456
X58.871 Y-14.248
X58.522 Y-14.056
X58.163 Y-13.88
X57.796 Y-13.721
X57.422 Y-13.579
X57.04 Y-13.455
X56.652 Y-13.348
X56.259 Y-13.26
X55.862 Y-13.189
X55.461 Y-13.138
X55.057 Y-13.105
X54.652 Y-13.091
X54.245 Y-13.096
X53.839 Y-13.121
X53.434 Y-13.164
X53.03 Y-13.226
X52.629 Y-13.308
X52.231 Y-13.408
X51.839 Y-13.527
X51.451 Y-13.664
X51.07 Y-13.819
X50.696 Y-13.993
X50.33 Y-14.184
X49.973 Y-14.392
X49.626 Y-14.617
X49.289 Y-14.858
X48.964 Y-15.115
X48.65 Y-15.388
X48.35 Y-15.675
X48.063 Y-15.976
X47.79 Y-16.29
X47.532 Y-16.617
X47.289 Y-16.956
X47.062 Y-17.307
X46.852 Y-17.667
X46.659 Y-18.038
X46.483 Y-18.417
X46.325 Y-18.805
X46.186 Y-19.199
X46.065 Y-19.6
X45.963 Y-20.007
X45.879 Y-20.418
X45.816 Y-20.832
X45.771 Y-21.249
X45.747 Y-21.668
X45.742 Y-22.088
X45.756 Y-22.508
X45.79 Y-22.927
X45.844 Y-23.344
X45.917 Y-23.758
X46.01 Y-24.168
X46.122 Y-24.573
X46.252 Y-24.973
X46.402 Y-25.366
X46.569 Y-25.752
X46.755 Y-26.13
X46.958 Y-26.499
X47.178 Y-26.858
X47.415 Y-27.206
X47.667 Y-27.543
X47.936 Y-27.868
X48.219 Y-28.18
X48.516 Y-28.478
X48.828 Y-28.762
X49.152 Y-29.031
X49.488 Y-29.285
X49.836 Y-29.522
X50.195 Y-29.743
X50.564 Y-29.947
X50.942 Y-30.134
X51.328 Y-30.303
X51.722 Y-30.453
X52.122 Y-30.585
X52.529 Y-30.698
X52.94 Y-30.792
X53.355 Y-30.866
X53.773 Y-30.921
X54.194 Y-30.957
X54.617 Y-30.972
X55.04 Y-30.968
X55.464 Y-30.944
X55.886 Y-30.9
X56.307 Y-30.836
X56.726 Y-30.753
X57.142 Y-30.649
X57.553 Y-30.526
X57.959 Y-30.383
X58.36 Y-30.221
X58.754 Y-30.04
X59.14 Y-29.839
X59.518 Y-29.62
X59.886 Y-29.383
X60.244 Y-29.129
X60.59 Y-28.857
X60.924 Y-28.568
X61.245 Y-28.263
X61.552 Y-27.943
X61.844 Y-27.608
X62.121 Y-27.26
X62.381 Y-26.898
X62.624 Y-26.525
X62.85 Y-26.14
X63.057 Y-25.746
X63.245 Y-25.342
X63.415 Y-24.93
X63.564 Y-24.51
X63.694 Y-24.085
X63.804 Y-23.654
X63.893 Y-23.219
X63.961 Y-22.781
X64.009 Y-22.341
X64.037 Y-21.899
X64.043 Y-21.457
X64.029 Y-21.016
X63.995 Y-20.576
X63.939 Y-20.139
X63.864 Y-19.705
X63.768 Y-19.276
X63.652 Y-18.852
X63.517 Y-18.433
X63.438 Y-18.223
X63.416 Y-18.166
X63.392 Y-18.11
X63.367 Y-18.055
X63.024 Y-17.318
X62.97 Y-17.21
X62.817 Y-16.988
X62.102 Y-15.968
X61.988 Y-15.82
X60.894 Y-14.726
X60.745 Y-14.609
X59.709 Y-13.884
X59.502 Y-13.741
X59.404 Y-13.691
X58.052 Y-13.06
X57.948 Y-13.021
X57.016 Y-12.771
X56.809 Y-12.721
X56.394 Y-12.628
X56.187 Y-12.585
X54.944 Y-12.476
X54.737 Y-12.461
X54.53 Y-12.476
X53.287 Y-12.585
X53.08 Y-12.628
X52.665 Y-12.721
X52.458 Y-12.771
X51.526 Y-13.021
X51.422 Y-13.06
X50.07 Y-13.691
X49.972 Y-13.741
X49.745 Y-13.898
X48.729 Y-14.609
X48.58 Y-14.726
X47.486 Y-15.82
X47.372 Y-15.968
X46.647 Y-17.003
X46.504 Y-17.21
X46.45 Y-17.318
X45.825 Y-18.659
X45.786 Y-18.762
X45.426 Y-20.108
X45.414 Y-20.17
X45.339 Y-20.729
X45.315 Y-20.936
X45.242 Y-21.764
X45.227 Y-21.971
X45.242 Y-22.178
X45.315 Y-23.006
X45.339 Y-23.213
X45.414 Y-23.772
X45.426 Y-23.834
X45.786 Y-25.18
X45.825 Y-25.283
X46.45 Y-26.624
X46.504 Y-26.732
X46.657 Y-26.954
X47.372 Y-27.974
X47.486 Y-28.122
X48.58 Y-29.216
X48.729 Y-29.333
X49.765 Y-30.058
X49.972 Y-30.201
X50.07 Y-30.251
X51.422 Y-30.882
X51.526 Y-30.921
X52.458 Y-31.171
X52.665 Y-31.221
X53.08 Y-31.314
X53.287 Y-31.357
X54.53 Y-31.466
X54.737 Y-31.481
X54.944 Y-31.466
X56.187 Y-31.357
X56.394 Y-31.314
X56.809 Y-31.221
X57.016 Y-31.171
X57.948 Y-30.921
X58.052 Y-30.882
X59.404 Y-30.251
X59.502 Y-30.201
X59.729 Y-30.044
X60.745 Y-29.333
X60.894 Y-29.216
X61.988 Y-28.122
X62.102 Y-27.974
X62.827 Y-26.939
X62.97 Y-26.732
X63.024 Y-26.624
X63.649 Y-25.283
X63.688 Y-25.18
X64.048 Y-23.834
X64.06 Y-23.772
X64.135 Y-23.213
X64.159 Y-23.006
X64.232 Y-22.178
X64.247 Y-21.971
X64.232 Y-21.764
X64.159 Y-20.936
X64.135 Y-20.729
X64.06 Y-20.17
X64.048 Y-20.108
X63.688 Y-18.762
X63.649 Y-18.659
X63.367 Y-18.055
G3 X62.715 Y-17.714 R0.635
G1 X62.616 Y-17.728 Z-12.702
X62.52 Y-17.741 Z-12.679
X62.429 Y-17.754 Z-12.641
X62.345 Y-17.766 Z-12.589
X62.27 Y-17.776 Z-12.524
X62.206 Y-17.785 Z-12.448
X62.154 Y-17.792 Z-12.363
X62.116 Y-17.797 Z-12.271
X62.093 Y-17.8 Z-12.174
X62.086 Y-17.801 Z-12.075
G0 Z15.

G53 G0 Z0.
M30
