(ADAPTIVE0.15)
(MACHINE)
(  VENDOR: BANTAM TOOLS)
(  MODEL: EXPLORER CNC MILLING MACHINE)
(  DESCRIPTION: BANTAM TOOLS EXPLORER CNC MILLING MACHINE)
(T2 D=0.25 CR=0. - ZMIN=0. - FLAT END MILL)
G0 G90 G94 G17
G20
G53 G0 Z0.

(2DADAPTIVE_.15OPT_LOAD)
T2
M3 S12000
G90 G94 G17
G55
G0 X-0.0258 Y-0.2861
Z0.6
G0 Z0.2
Z0.05
G1 Z0.025 F40.
X-0.0257 Y-0.2858 Z0.0211
X-0.0255 Y-0.2849 Z0.0173
X-0.0251 Y-0.2834 Z0.0137
X-0.0246 Y-0.2814 Z0.0103
X-0.024 Y-0.279 Z0.0073
X-0.0232 Y-0.2761 Z0.0048
X-0.0224 Y-0.2728 Z0.0027
X-0.0215 Y-0.2693 Z0.0012
X-0.0205 Y-0.2656 Z0.0003
X-0.0196 Y-0.2618 Z0.
G3 X0. Y-0.1257 R0.6382
G1 Y-0.1212
X0.0065 Y-0.0856
X0.0119 Y-0.0499
X0.0157 Y-0.0139
X0.0184 Y0.0222
X0.0204 Y0.0583
X0.0217 Y0.0945
X0.0227 Y0.1307
X0.0234 Y0.1668
X0.0239 Y0.203
X0.0242 Y0.2392
X0.0244 Y0.2754
X0.0246 Y0.3116
X0.0248 Y0.3839
X0.0249 Y0.4925
X0.025 Y0.7457
Y1.8674
Y3.292
X0.0258 Y3.2965
X0.0274 Y3.3007
X0.0321 Y3.3085
X0.0586 Y3.333
X0.091 Y3.3492
X0.1255 Y3.3601
X0.1609 Y3.3676
X0.1967 Y3.3728
X0.2327 Y3.3765
X0.2688 Y3.379
X0.305 Y3.3808
X0.3411 Y3.382
X0.3773 Y3.3829
X0.4135 Y3.3835
X0.4496 Y3.384
X0.4858 Y3.3843
X0.522 Y3.3845
X0.5582 Y3.3846
X0.6306 Y3.3848
X0.7391 Y3.3849
X1.0286 Y3.385
X2.5482
X3.2899
X3.2944 Y3.3842
X3.2986 Y3.3826
X3.3063 Y3.3779
X3.3317 Y3.3521
X3.3483 Y3.3199
X3.3595 Y3.2855
X3.3672 Y3.2502
X3.3725 Y3.2144
X3.3763 Y3.1784
X3.3789 Y3.1423
X3.3807 Y3.1062
X3.382 Y3.07
X3.3829 Y3.0338
X3.3835 Y2.9977
X3.3839 Y2.9615
X3.3843 Y2.9253
X3.3845 Y2.8891
X3.3846 Y2.8529
X3.3848 Y2.7806
X3.3849 Y2.672
X3.385 Y2.3826
Y2.1655
Y0.1755
Y0.1212
X3.3842 Y0.1168
X3.3826 Y0.1125
X3.3732 Y0.0971
X3.3453 Y0.0741
X3.3124 Y0.0589
X3.2777 Y0.0486
X3.2423 Y0.0415
X3.2064 Y0.0365
X3.1704 Y0.0331
X3.1343 Y0.0307
X3.0982 Y0.029
X3.062 Y0.0278
X3.0258 Y0.027
X2.9897 Y0.0264
X2.9535 Y0.026
X2.9173 Y0.0257
X2.8811 Y0.0255
X2.8449 Y0.0253
X2.7726 Y0.0252
X2.664 Y0.0251
X2.3384 Y0.025
X1.47
X0.2624
X0.258 Y0.0258
X0.2538 Y0.0274
X0.246 Y0.0321
X0.2224 Y0.0595
X0.2072 Y0.0923
X0.1971 Y0.1271
X0.1902 Y0.1626
X0.1855 Y0.1985
X0.1822 Y0.2345
X0.18 Y0.2706
X0.1785 Y0.3068
X0.1774 Y0.3429
X0.1767 Y0.3791
X0.1762 Y0.4153
X0.1758 Y0.4515
X0.1756 Y0.4876
X0.1754 Y0.5238
X0.1752 Y0.5962
X0.1751 Y0.7047
X0.175 Y0.7771
Y1.8264
Y2.7671
Y3.1199
X0.1774 Y3.1286
X0.1858 Y3.1446
X0.21 Y3.1715
X0.2411 Y3.19
X0.2749 Y3.2029
X0.3099 Y3.2121
X0.3455 Y3.2186
X0.3814 Y3.2232
X0.4174 Y3.2265
X0.4535 Y3.2289
X0.4897 Y3.2306
X0.5258 Y3.2319
X0.562 Y3.2327
X0.5982 Y3.2334
X0.6344 Y3.2338
X0.6705 Y3.2342
X0.7067 Y3.2344
X0.7429 Y3.2346
X0.8153 Y3.2348
X0.9238 Y3.2349
X1.1409 Y3.235
X1.756
X3.1219
X3.1389 Y3.229
X3.1675 Y3.2068
X3.1872 Y3.1764
X3.2009 Y3.1429
X3.2106 Y3.1081
X3.2175 Y3.0726
X3.2225 Y3.0367
X3.226 Y3.0007
X3.2285 Y2.9646
X3.2303 Y2.9285
X3.2317 Y2.8923
X3.2326 Y2.8562
X3.2333 Y2.82
X3.2338 Y2.7838
X3.2341 Y2.7476
X3.2344 Y2.7114
X3.2345 Y2.6753
X3.2347 Y2.6391
X3.2348 Y2.5667
X3.2349 Y2.4582
X3.235 Y2.1325
Y0.6491
Y0.2918
X3.2334 Y0.2829
X3.2253 Y0.2667
X3.2015 Y0.2394
X3.1706 Y0.2207
X3.1368 Y0.2076
X3.1019 Y0.1983
X3.0663 Y0.1917
X3.0304 Y0.187
X2.9944 Y0.1836
X2.9583 Y0.1812
X2.9222 Y0.1794
X2.886 Y0.1782
X2.8498 Y0.1773
X2.8137 Y0.1766
X2.7775 Y0.1762
X2.7413 Y0.1758
X2.7051 Y0.1756
X2.6689 Y0.1754
X2.5966 Y0.1752
X2.488 Y0.1751
X2.2709 Y0.175
X1.6558
X0.4392
X0.4303 Y0.1766
X0.4142 Y0.1849
X0.3874 Y0.2092
X0.3691 Y0.2404
X0.3563 Y0.2742
X0.3473 Y0.3092
X0.3409 Y0.3449
X0.3363 Y0.3808
X0.3331 Y0.4168
X0.3308 Y0.4529
X0.3291 Y0.489
X0.328 Y0.5252
X0.3271 Y0.5614
X0.3265 Y0.5976
X0.3261 Y0.6337
X0.3258 Y0.6699
X0.3256 Y0.7061
X0.3254 Y0.7423
X0.3252 Y0.8146
X0.3251 Y0.9232
X0.325 Y1.1765
Y2.9132
Y2.9675
X0.3312 Y2.9845
X0.3528 Y3.0135
X0.3828 Y3.0337
X0.416 Y3.0481
X0.4507 Y3.0583
X0.4861 Y3.0657
X0.5219 Y3.071
X0.5579 Y3.0749
X0.594 Y3.0777
X0.6301 Y3.0797
X0.6663 Y3.0811
X0.7024 Y3.0822
X0.7386 Y3.083
X0.7748 Y3.0835
X0.8109 Y3.0839
X0.8471 Y3.0842
X0.8833 Y3.0844
X0.9195 Y3.0846
X0.9919 Y3.0848
X1.1004 Y3.0849
X1.3537 Y3.085
X2.222
X2.9638
X2.9726 Y3.0828
X2.9889 Y3.0751
X3.0167 Y3.0519
X3.0361 Y3.0214
X3.0498 Y2.9879
X3.0596 Y2.9531
X3.0666 Y2.9176
X3.0717 Y2.8817
X3.0754 Y2.8457
X3.078 Y2.8097
X3.0799 Y2.7735
X3.0813 Y2.7374
X3.0823 Y2.7012
X3.0831 Y2.665
X3.0836 Y2.6288
X3.084 Y2.5927
X3.0843 Y2.5565
X3.0845 Y2.5203
X3.0846 Y2.4841
X3.0848 Y2.4118
X3.0849 Y2.3032
X3.085 Y2.0499
Y1.869
Y0.4489
X3.0834 Y0.44
X3.0764 Y0.4233
X3.0539 Y0.3949
X3.0237 Y0.3751
X2.9903 Y0.3611
X2.9556 Y0.351
X2.9201 Y0.3438
X2.8843 Y0.3386
X2.8483 Y0.3349
X2.8122 Y0.3322
X2.7761 Y0.3302
X2.74 Y0.3288
X2.7038 Y0.3277
X2.6676 Y0.327
X2.6314 Y0.3264
X2.5953 Y0.326
X2.5591 Y0.3258
X2.5229 Y0.3255
X2.4867 Y0.3254
X2.4143 Y0.3252
X2.3058 Y0.3251
X2.0525 Y0.325
X0.5962
X0.5874 Y0.3271
X0.571 Y0.3347
X0.5431 Y0.3578
X0.5237 Y0.3883
X0.51 Y0.4218
X0.5002 Y0.4567
X0.4932 Y0.4921
X0.4882 Y0.528
X0.4845 Y0.564
X0.4819 Y0.6001
X0.48 Y0.6362
X0.4786 Y0.6723
X0.4776 Y0.7085
X0.4769 Y0.7447
X0.4764 Y0.7809
X0.476 Y0.8171
X0.4757 Y0.8532
X0.4755 Y0.8894
X0.4753 Y0.9618
X0.4751 Y1.0703
X0.475 Y1.2874
Y2.2643
Y2.8071
X0.4759 Y2.8161
X0.4821 Y2.8331
X0.5035 Y2.8622
X0.5334 Y2.8826
X0.5665 Y2.8972
X0.6011 Y2.9076
X0.6365 Y2.9151
X0.6723 Y2.9205
X0.7083 Y2.9245
X0.7443 Y2.9273
X0.7805 Y2.9294
X0.8166 Y2.9309
X0.8528 Y2.932
X0.889 Y2.9328
X0.9251 Y2.9334
X0.9613 Y2.9338
X0.9975 Y2.9342
X1.0337 Y2.9344
X1.0699 Y2.9346
X1.1422 Y2.9348
X1.2508 Y2.9349
X1.4679 Y2.935
X1.8659
X2.8066
X2.8156 Y2.9342
X2.8326 Y2.9281
X2.8618 Y2.9067
X2.8824 Y2.8769
X2.897 Y2.8438
X2.9074 Y2.8092
X2.915 Y2.7738
X2.9204 Y2.7381
X2.9244 Y2.7021
X2.9273 Y2.666
X2.9294 Y2.6299
X2.9309 Y2.5937
X2.932 Y2.5576
X2.9328 Y2.5214
X2.9334 Y2.4852
X2.9338 Y2.4491
X2.9342 Y2.4129
X2.9344 Y2.3767
X2.9346 Y2.3405
X2.9348 Y2.2681
X2.9349 Y2.1596
X2.935 Y1.9425
Y0.6038
X2.9343 Y0.5948
X2.9283 Y0.5777
X2.9071 Y0.5484
X2.8773 Y0.5278
X2.8442 Y0.5131
X2.8096 Y0.5026
X2.7742 Y0.4951
X2.7385 Y0.4896
X2.7025 Y0.4856
X2.6664 Y0.4827
X2.6303 Y0.4806
X2.5942 Y0.4791
X2.558 Y0.478
X2.5218 Y0.4772
X2.4857 Y0.4766
X2.4495 Y0.4762
X2.4133 Y0.4758
X2.3771 Y0.4756
X2.3409 Y0.4755
X2.2686 Y0.4752
X2.16 Y0.4751
X1.9429 Y0.475
X0.7489
X0.7313 Y0.4791
X0.7161 Y0.4889
X0.6902 Y0.5141
X0.6719 Y0.5454
X0.6589 Y0.5791
X0.6496 Y0.6141
X0.6428 Y0.6496
X0.638 Y0.6855
X0.6344 Y0.7215
X0.6319 Y0.7576
X0.63 Y0.7937
X0.6286 Y0.8299
X0.6276 Y0.866
X0.6269 Y0.9022
X0.6264 Y0.9384
X0.626 Y0.9746
X0.6257 Y1.0108
X0.6255 Y1.0469
X0.6254 Y1.0831
X0.6252 Y1.1555
X0.6251 Y1.264
X0.625 Y1.5173
Y2.657
X0.6262 Y2.666
X0.6326 Y2.6829
X0.6542 Y2.712
X0.6841 Y2.7324
X0.7172 Y2.7469
X0.7519 Y2.7574
X0.7872 Y2.7649
X0.823 Y2.7703
X0.859 Y2.7743
X0.895 Y2.7772
X0.9312 Y2.7793
X0.9673 Y2.7808
X1.0035 Y2.782
X1.0396 Y2.7828
X1.0758 Y2.7834
X1.112 Y2.7838
X1.1482 Y2.7841
X1.1844 Y2.7844
X1.2205 Y2.7845
X1.2929 Y2.7848
X1.4015 Y2.7849
X1.6185 Y2.785
X2.6588
X2.6677 Y2.7833
X2.6844 Y2.7763
X2.713 Y2.7542
X2.7331 Y2.7241
X2.7474 Y2.6909
X2.7577 Y2.6562
X2.7652 Y2.6208
X2.7705 Y2.585
X2.7745 Y2.549
X2.7773 Y2.513
X2.7794 Y2.4769
X2.7809 Y2.4407
X2.782 Y2.4045
X2.7828 Y2.3684
X2.7834 Y2.3322
X2.7838 Y2.296
X2.7841 Y2.2598
X2.7844 Y2.2237
X2.7845 Y2.1875
X2.7848 Y2.1151
X2.7849 Y2.0066
X2.785 Y1.7895
Y0.7764
Y0.7492
X2.7807 Y0.7317
X2.7708 Y0.7165
X2.7455 Y0.6906
X2.7143 Y0.6724
X2.6806 Y0.6593
X2.6456 Y0.6499
X2.6101 Y0.6431
X2.5742 Y0.6382
X2.5382 Y0.6346
X2.5021 Y0.632
X2.466 Y0.6301
X2.4298 Y0.6288
X2.3937 Y0.6277
X2.3575 Y0.627
X2.3213 Y0.6265
X2.2851 Y0.6261
X2.249 Y0.6258
X2.2128 Y0.6256
X2.1766 Y0.6254
X2.1042 Y0.6252
X1.9957 Y0.6251
X1.7424 Y0.625
X0.9012
X0.8923 Y0.6268
X0.8756 Y0.6338
X0.8471 Y0.656
X0.8269 Y0.6861
X0.8126 Y0.7193
X0.8023 Y0.754
X0.7948 Y0.7894
X0.7895 Y0.8251
X0.7855 Y0.8611
X0.7827 Y0.8972
X0.7806 Y0.9333
X0.7791 Y0.9695
X0.778 Y1.0056
X0.7772 Y1.0418
X0.7766 Y1.078
X0.7762 Y1.1141
X0.7759 Y1.1503
X0.7756 Y1.1865
X0.7755 Y1.2227
X0.7752 Y1.2951
X0.7751 Y1.4036
X0.775 Y1.6207
Y2.5071
X0.7764 Y2.5161
X0.783 Y2.5329
X0.8047 Y2.5619
X0.8346 Y2.5823
X0.8677 Y2.5968
X0.9023 Y2.6073
X0.9377 Y2.6148
X0.9735 Y2.6203
X1.0094 Y2.6242
X1.0455 Y2.6271
X1.0816 Y2.6292
X1.1178 Y2.6308
X1.1539 Y2.6319
X1.1901 Y2.6327
X1.2263 Y2.6334
X1.2625 Y2.6338
X1.2987 Y2.6341
X1.3348 Y2.6344
X1.371 Y2.6345
X1.4434 Y2.6347
X1.5519 Y2.6349
X1.769 Y2.635
X2.5107
X2.5283 Y2.6305
X2.5434 Y2.6205
X2.5692 Y2.5952
X2.5875 Y2.564
X2.6006 Y2.5302
X2.61 Y2.4953
X2.6168 Y2.4598
X2.6217 Y2.4239
X2.6253 Y2.3879
X2.6279 Y2.3518
X2.6298 Y2.3157
X2.6312 Y2.2795
X2.6322 Y2.2434
X2.633 Y2.2072
X2.6335 Y2.171
X2.6339 Y2.1348
X2.6342 Y2.0987
X2.6344 Y2.0625
X2.6346 Y2.0263
X2.6348 Y1.9539
X2.6349 Y1.8454
X2.635 Y1.6283
Y0.9046
X2.634 Y0.8957
X2.6281 Y0.8786
X2.6069 Y0.8493
X2.5772 Y0.8286
X2.5441 Y0.8138
X2.5095 Y0.8032
X2.4742 Y0.7955
X2.4384 Y0.79
X2.4025 Y0.7859
X2.3664 Y0.783
X2.3303 Y0.7808
X2.2941 Y0.7793
X2.258 Y0.7781
X2.2218 Y0.7773
X2.1856 Y0.7767
X2.1495 Y0.7762
X2.1133 Y0.7759
X2.0771 Y0.7757
X2.0409 Y0.7755
X1.9685 Y0.7753
X1.86 Y0.7751
X1.6429 Y0.775
X1.0459
X1.0288 Y0.781
X0.9995 Y0.8021
X0.9787 Y0.8318
X0.9639 Y0.8648
X0.9533 Y0.8994
X0.9456 Y0.9347
X0.94 Y0.9705
X0.936 Y1.0064
X0.933 Y1.0425
X0.9309 Y1.0786
X0.9293 Y1.1147
X0.9281 Y1.1509
X0.9273 Y1.1871
X0.9267 Y1.2233
X0.9262 Y1.2594
X0.9259 Y1.2956
X0.9257 Y1.3318
X0.9255 Y1.368
X0.9253 Y1.4403
X0.9251 Y1.5489
Y1.5851
X0.925 Y1.8745
Y2.363
X0.9305 Y2.3802
X0.9513 Y2.4098
X0.9808 Y2.4307
X1.0138 Y2.4457
X1.0483 Y2.4564
X1.0837 Y2.4642
X1.1194 Y2.4698
X1.1554 Y2.4739
X1.1914 Y2.4769
X1.2275 Y2.4791
X1.2637 Y2.4806
X1.2999 Y2.4818
X1.336 Y2.4827
X1.3722 Y2.4833
X1.4084 Y2.4837
X1.4446 Y2.4841
X1.4807 Y2.4843
X1.5169 Y2.4845
X1.5893 Y2.4847
X1.6978 Y2.4849
X1.9149 Y2.485
X2.0958
X2.3582
X2.367 Y2.4832
X2.3837 Y2.4762
X2.4123 Y2.4541
X2.4326 Y2.4241
X2.447 Y2.3909
X2.4574 Y2.3563
X2.4649 Y2.3209
X2.4703 Y2.2851
X2.4743 Y2.2491
X2.4772 Y2.2131
X2.4793 Y2.1769
X2.4808 Y2.1408
X2.4819 Y2.1046
X2.4827 Y2.0685
X2.4833 Y2.0323
X2.4838 Y1.9961
X2.4841 Y1.9599
X2.4844 Y1.9237
X2.4845 Y1.8876
X2.4847 Y1.8152
X2.4849 Y1.7066
X2.485 Y1.4896
Y1.0554
X2.4843 Y1.0464
X2.4786 Y1.0292
X2.4576 Y0.9997
X2.428 Y0.9789
X2.395 Y0.9641
X2.3604 Y0.9534
X2.3251 Y0.9457
X2.2893 Y0.9401
X2.2534 Y0.936
X2.2173 Y0.9331
X2.1812 Y0.9309
X2.1451 Y0.9293
X2.1089 Y0.9282
X2.0727 Y0.9273
X2.0365 Y0.9267
X2.0004 Y0.9262
X1.9642 Y0.9259
X1.928 Y0.9257
X1.8918 Y0.9255
X1.8195 Y0.9253
X1.7109 Y0.9251
X1.4938 Y0.925
X1.2044
X1.1954 Y0.9259
X1.1783 Y0.932
X1.149 Y0.9532
X1.1284 Y0.983
X1.1137 Y1.016
X1.1031 Y1.0506
X1.0955 Y1.086
X1.0899 Y1.1217
X1.0859 Y1.1577
X1.083 Y1.1938
X1.0808 Y1.2299
X1.0793 Y1.266
X1.0781 Y1.3022
X1.0773 Y1.3384
X1.0767 Y1.3745
X1.0762 Y1.4107
X1.0759 Y1.4469
X1.0757 Y1.4831
X1.0755 Y1.5193
X1.0753 Y1.5916
X1.0751 Y1.7002
Y1.7725
X1.075 Y2.1705
Y2.2067
X1.0763 Y2.2157
X1.0827 Y2.2326
X1.1043 Y2.2616
X1.1342 Y2.2821
X1.1673 Y2.2966
X1.2019 Y2.3071
X1.2373 Y2.3147
X1.273 Y2.3202
X1.309 Y2.3242
X1.3451 Y2.3271
X1.3812 Y2.3292
X1.4173 Y2.3307
X1.4535 Y2.3319
X1.4897 Y2.3327
X1.5259 Y2.3333
X1.562 Y2.3338
X1.5982 Y2.3341
X1.6344 Y2.3343
X1.6706 Y2.3345
X1.7429 Y2.3347
X1.8515 Y2.3349
X2.0686 Y2.335
X2.2133
X2.2304 Y2.3292
X2.26 Y2.3083
X2.2808 Y2.2787
X2.2957 Y2.2458
X2.3064 Y2.2112
X2.3142 Y2.1759
X2.3198 Y2.1401
X2.3239 Y2.1042
X2.3269 Y2.0681
X2.329 Y2.032
X2.3306 Y1.9958
X2.3318 Y1.9597
X2.3327 Y1.9235
X2.3333 Y1.8873
X2.3337 Y1.8511
X2.3341 Y1.815
X2.3343 Y1.7788
X2.3345 Y1.7426
X2.3347 Y1.6702
X2.3349 Y1.5617
X2.335 Y1.3446
Y1.1999
X2.3307 Y1.1823
X2.3209 Y1.1671
X2.2957 Y1.1412
X2.2645 Y1.1228
X2.2308 Y1.1097
X2.1959 Y1.1002
X2.1603 Y1.0934
X2.1245 Y1.0884
X2.0885 Y1.0848
X2.0524 Y1.0822
X2.0163 Y1.0802
X1.9801 Y1.0788
X1.944 Y1.0778
X1.9078 Y1.0771
X1.8716 Y1.0765
X1.8354 Y1.0761
X1.7992 Y1.0758
X1.7631 Y1.0756
X1.7269 Y1.0754
X1.6545 Y1.0752
X1.546 Y1.0751
X1.347 Y1.075
X1.3298 Y1.0806
X1.3001 Y1.1013
X1.2792 Y1.1309
X1.2643 Y1.1638
X1.2536 Y1.1984
X1.2458 Y1.2337
X1.2402 Y1.2695
X1.2361 Y1.3054
X1.2331 Y1.3415
X1.231 Y1.3776
X1.2294 Y1.4137
X1.2282 Y1.4499
X1.2273 Y1.4861
X1.2267 Y1.5223
X1.2263 Y1.5584
X1.2259 Y1.5946
X1.2257 Y1.6308
X1.2255 Y1.667
X1.2253 Y1.7393
X1.2251 Y1.8479
X1.225 Y2.0559
X1.2261 Y2.0649
X1.2324 Y2.0819
X1.2537 Y2.1111
X1.2835 Y2.1316
X1.3166 Y2.1463
X1.3512 Y2.1569
X1.3866 Y2.1645
X1.4223 Y2.17
X1.4583 Y2.1741
X1.4943 Y2.177
X1.5304 Y2.1791
X1.5666 Y2.1807
X1.6028 Y2.1819
X1.6389 Y2.1827
X1.6751 Y2.1833
X1.7113 Y2.1838
X1.7475 Y2.1841
X1.7836 Y2.1843
X1.8198 Y2.1845
X1.8922 Y2.1847
X2.0007 Y2.1849
X2.055
X2.064 Y2.1842
X2.0811 Y2.1783
X2.1105 Y2.1572
X2.1313 Y2.1276
X2.1461 Y2.0945
X2.1567 Y2.06
X2.1644 Y2.0246
X2.1699 Y1.9888
X2.174 Y1.9529
X2.1769 Y1.9168
X2.1791 Y1.8807
X2.1807 Y1.8446
X2.1818 Y1.8084
X2.1827 Y1.7722
X2.1833 Y1.7361
X2.1838 Y1.6999
X2.1841 Y1.6637
X2.1843 Y1.6275
X2.1845 Y1.5913
X2.1847 Y1.519
X2.1849 Y1.4104
Y1.3562
X2.1843 Y1.3471
X2.1787 Y1.3299
X2.158 Y1.3003
X2.1285 Y1.2793
X2.0955 Y1.2644
X2.061 Y1.2537
X2.0256 Y1.2459
X1.9899 Y1.2402
X1.954 Y1.2361
X1.9179 Y1.2331
X1.8818 Y1.231
X1.8456 Y1.2294
X1.8095 Y1.2282
X1.7733 Y1.2273
X1.7371 Y1.2267
X1.7009 Y1.2263
X1.6648 Y1.2259
X1.6286 Y1.2257
X1.5924 Y1.2255
X1.52 Y1.2253
X1.5019 Y1.2252
X1.493 Y1.2268
X1.4763 Y1.2337
X1.4476 Y1.2557
X1.4274 Y1.2857
X1.4129 Y1.3189
X1.4026 Y1.3535
X1.3951 Y1.3889
X1.3897 Y1.4247
X1.3857 Y1.4607
X1.3828 Y1.4968
X1.3807 Y1.5329
X1.3792 Y1.569
X1.3781 Y1.6052
X1.3773 Y1.6414
X1.3767 Y1.6775
X1.3762 Y1.7137
X1.3759 Y1.7499
X1.3757 Y1.7861
X1.3755 Y1.8223
X1.3753 Y1.8946
X1.3752 Y1.9127
X1.3807 Y1.93
X1.4013 Y1.9597
X1.4308 Y1.9806
X1.4638 Y1.9956
X1.4983 Y2.0063
X1.5337 Y2.0141
X1.5694 Y2.0197
X1.6054 Y2.0238
X1.6414 Y2.0268
X1.6775 Y2.029
X1.7137 Y2.0306
X1.7498 Y2.0318
X1.786 Y2.0326
X1.8222 Y2.0333
X1.8584 Y2.0337
X1.8945 Y2.0341
X1.9126 Y2.0342
X1.9299 Y2.0289
X1.9597 Y2.0083
X1.9806 Y1.9788
X1.9956 Y1.9458
X2.0064 Y1.9113
X2.0141 Y1.8759
X2.0198 Y1.8402
X2.0239 Y1.8043
X2.0268 Y1.7682
X2.029 Y1.7321
X2.0306 Y1.6959
X2.0318 Y1.6598
X2.0327 Y1.6236
X2.0333 Y1.5874
X2.0337 Y1.5512
X2.0341 Y1.5151
X2.0342 Y1.497
X2.0287 Y1.4798
X2.0079 Y1.4501
X1.9784 Y1.4292
X1.9454 Y1.4143
X1.9109 Y1.4036
X1.8755 Y1.3958
X1.8398 Y1.3902
X1.8038 Y1.3861
X1.7678 Y1.3831
X1.7317 Y1.381
X1.6955 Y1.3794
X1.6593 Y1.3782
X1.6503 Y1.378
X1.6415 Y1.3799
X1.6249 Y1.3871
X1.5965 Y1.4096
X1.5766 Y1.4398
X1.5623 Y1.4731
X1.5521 Y1.5078
X1.5448 Y1.5432
X1.5394 Y1.579
X1.5355 Y1.615
X1.5327 Y1.651
X1.5337 Y1.6691
X1.5349 Y1.6967
X1.5362 Y1.7328
X1.5366 Y1.7509
X1.5368 Y1.7599
X1.5389 Y1.7687
X1.5474 Y1.7847
X1.5723 Y1.811
X1.6039 Y1.8286
X1.6379 Y1.8408
X1.6731 Y1.8495
X1.7087 Y1.8556
X1.7446 Y1.86
X1.7627 Y1.8616
X1.767 Y1.8605
X1.7837 Y1.8535
X1.8108 Y1.8295
X1.8287 Y1.798
X1.841 Y1.764
X1.8496 Y1.7289
X1.8558 Y1.6932
X1.8601 Y1.6573
X1.8609 Y1.6483
X1.8594 Y1.6394
X1.8573 Y1.6354
X1.8475 Y1.6201
X1.8213 Y1.5952
X1.8173 Y1.5931
X1.8011 Y1.5851
X1.7927 Y1.5817
X1.7885 Y1.5801
X1.7842 Y1.5786
X1.7797 Y1.5779
X1.7752 Y1.578
X1.7708 Y1.5789
X1.7666 Y1.5806
X1.7628 Y1.5831
X1.7495 Y1.5954
X1.741 Y1.6113
X1.7392 Y1.6155
X1.7376 Y1.6197
G3 X1.7129 Y1.6349 R0.025
G1 X1.709 Y1.6346 Z0.0003
X1.7052 Y1.6343 Z0.0012
X1.7016 Y1.6341 Z0.0027
X1.6982 Y1.6338 Z0.0048
X1.6953 Y1.6336 Z0.0073
X1.6927 Y1.6335 Z0.0103
X1.6907 Y1.6333 Z0.0137
X1.6892 Y1.6332 Z0.0173
X1.6883 Z0.0211
X1.688 Y1.6331 Z0.025
G0 Z0.6

G53 G0 Z0.
M30
