(TIVAR_ADAPTIVE_HOLE)
(MACHINE)
(  VENDOR: BANTAM TOOLS)
(  MODEL: EXPLORER CNC MILLING MACHINE)
(  DESCRIPTION: BANTAM TOOLS EXPLORER CNC MILLING MACHINE)
(T2 D=0.25 CR=0. - ZMIN=-0.125 - FLAT END MILL)
G0 G90 G94 G17
G20
G53 G0 Z0.

(2D ADAPTIVE2)
T2
M3 S12000
G90 G94 G17
G55
G0 X1.4919 Y1.4848
Z0.6
G0 Z0.2
Z0.1
G1 X1.4983 Y1.4792 Z0.0997 F7.3
X1.5052 Y1.4741 Z0.0994
X1.5123 Y1.4696 Z0.0991
X1.5198 Y1.4655 Z0.0988
X1.5276 Y1.4619 Z0.0985
X1.5355 Y1.4589 Z0.0982
X1.5437 Y1.4565 Z0.0979
X1.552 Y1.4546 Z0.0976
X1.5604 Y1.4533 Z0.0973
X1.5689 Y1.4526 Z0.097
X1.5774 Y1.4525 Z0.0967
X1.586 Y1.453 Z0.0964
X1.5944 Y1.454 Z0.0961
X1.6028 Y1.4557 Z0.0958
X1.611 Y1.4579 Z0.0955
X1.619 Y1.4607 Z0.0952
X1.6269 Y1.4641 Z0.0949
X1.6345 Y1.4679 Z0.0946
X1.6417 Y1.4723 Z0.0943
X1.6487 Y1.4773 Z0.094
X1.6553 Y1.4826 Z0.0938
X1.6616 Y1.4884 Z0.0935
X1.6674 Y1.4947 Z0.0932
X1.6727 Y1.5013 Z0.0929
X1.6776 Y1.5083 Z0.0926
X1.682 Y1.5156 Z0.0923
X1.6859 Y1.5232 Z0.092
X1.6892 Y1.531 Z0.0917
X1.692 Y1.5391 Z0.0914
X1.6942 Y1.5473 Z0.0911
X1.6958 Y1.5556 Z0.0908
X1.6968 Y1.5641 Z0.0905
X1.6973 Y1.5726 Z0.0902
X1.6972 Y1.5811 Z0.0899
X1.6964 Y1.5896 Z0.0896
X1.6951 Y1.598 Z0.0893
X1.6932 Y1.6063 Z0.089
X1.6908 Y1.6144 Z0.0887
X1.6877 Y1.6224 Z0.0884
X1.6842 Y1.6301 Z0.0881
X1.6801 Y1.6376 Z0.0878
X1.6755 Y1.6447 Z0.0875
X1.6704 Y1.6515 Z0.0872
X1.6648 Y1.658 Z0.0869
X1.6588 Y1.664 Z0.0866
X1.6524 Y1.6697 Z0.0863
X1.6457 Y1.6748 Z0.086
X1.6385 Y1.6795 Z0.0857
X1.6311 Y1.6837 Z0.0854
X1.6234 Y1.6873 Z0.0851
X1.6155 Y1.6904 Z0.0848
X1.6074 Y1.6929 Z0.0845
X1.5991 Y1.6949 Z0.0842
X1.5907 Y1.6963 Z0.0839
X1.5822 Y1.6971 Z0.0836
X1.5737 Y1.6973 Z0.0833
X1.5653 Y1.6969 Z0.083
X1.5568 Y1.696 Z0.0827
X1.5484 Y1.6944 Z0.0824
X1.5402 Y1.6923 Z0.0821
X1.5322 Y1.6896 Z0.0818
X1.5243 Y1.6863 Z0.0815
X1.5167 Y1.6826 Z0.0812
X1.5094 Y1.6782 Z0.081
X1.5023 Y1.6734 Z0.0807
X1.4957 Y1.6682 Z0.0804
X1.4894 Y1.6624 Z0.0801
X1.4835 Y1.6563 Z0.0798
X1.4781 Y1.6497 Z0.0795
X1.4732 Y1.6428 Z0.0792
X1.4687 Y1.6356 Z0.0789
X1.4648 Y1.628 Z0.0786
X1.4613 Y1.6203 Z0.0783
X1.4585 Y1.6123 Z0.078
X1.4562 Y1.6041 Z0.0777
X1.4544 Y1.5958 Z0.0774
X1.4533 Y1.5873 Z0.0771
X1.4527 Y1.5788 Z0.0768
X1.4528 Y1.5703 Z0.0765
X1.4534 Y1.5619 Z0.0762
X1.4546 Y1.5534 Z0.0759
X1.4564 Y1.5451 Z0.0756
X1.4588 Y1.537 Z0.0753
X1.4617 Y1.529 Z0.075
X1.4652 Y1.5213 Z0.0747
X1.4692 Y1.5138 Z0.0744
X1.4737 Y1.5066 Z0.0741
X1.4787 Y1.4997 Z0.0738
X1.4841 Y1.4932 Z0.0735
X1.49 Y1.4871 Z0.0732
X1.4964 Y1.4814 Z0.0729
X1.5031 Y1.4762 Z0.0726
X1.5101 Y1.4715 Z0.0723
X1.5174 Y1.4672 Z0.072
X1.5251 Y1.4635 Z0.0717
X1.5329 Y1.4603 Z0.0714
X1.541 Y1.4577 Z0.0711
X1.5493 Y1.4556 Z0.0708
X1.5576 Y1.4541 Z0.0705
X1.5661 Y1.4532 Z0.0702
X1.5745 Y1.4529 Z0.0699
X1.583 Y1.4532 Z0.0696
X1.5915 Y1.4541 Z0.0693
X1.5999 Y1.4555 Z0.069
X1.6081 Y1.4575 Z0.0687
X1.6162 Y1.4601 Z0.0685
X1.6241 Y1.4633 Z0.0682
X1.6317 Y1.467 Z0.0679
X1.6391 Y1.4712 Z0.0676
X1.6461 Y1.4759 Z0.0673
X1.6528 Y1.4811 Z0.067
X1.6592 Y1.4867 Z0.0667
X1.6651 Y1.4928 Z0.0664
X1.6706 Y1.4993 Z0.0661
X1.6756 Y1.5061 Z0.0658
X1.6801 Y1.5133 Z0.0655
X1.6842 Y1.5208 Z0.0652
X1.6877 Y1.5285 Z0.0649
X1.6906 Y1.5364 Z0.0646
X1.693 Y1.5446 Z0.0643
X1.6948 Y1.5529 Z0.064
X1.6961 Y1.5612 Z0.0637
X1.6967 Y1.5697 Z0.0634
X1.6968 Y1.5782 Z0.0631
X1.6963 Y1.5866 Z0.0628
X1.6952 Y1.5951 Z0.0625
X1.6935 Y1.6034 Z0.0622
X1.6912 Y1.6115 Z0.0619
X1.6884 Y1.6195 Z0.0616
X1.685 Y1.6273 Z0.0613
X1.6811 Y1.6348 Z0.061
X1.6767 Y1.6421 Z0.0607
X1.6718 Y1.649 Z0.0604
X1.6664 Y1.6556 Z0.0601
X1.6606 Y1.6617 Z0.0598
X1.6543 Y1.6675 Z0.0595
X1.6477 Y1.6728 Z0.0592
X1.6407 Y1.6776 Z0.0589
X1.6335 Y1.6819 Z0.0586
X1.6259 Y1.6857 Z0.0583
X1.6181 Y1.689 Z0.058
X1.6101 Y1.6917 Z0.0577
X1.6019 Y1.6938 Z0.0574
X1.5935 Y1.6954 Z0.0571
X1.5851 Y1.6964 Z0.0568
X1.5767 Y1.6968 Z0.0565
X1.5682 Y1.6967 Z0.0562
X1.5598 Y1.6959 Z0.056
X1.5514 Y1.6946 Z0.0557
X1.5431 Y1.6926 Z0.0554
X1.535 Y1.6901 Z0.0551
X1.5271 Y1.6871 Z0.0548
X1.5195 Y1.6835 Z0.0545
X1.5121 Y1.6794 Z0.0542
X1.505 Y1.6747 Z0.0539
X1.4982 Y1.6696 Z0.0536
X1.4918 Y1.6641 Z0.0533
X1.4858 Y1.6581 Z0.053
X1.4803 Y1.6517 Z0.0527
X1.4752 Y1.6449 Z0.0524
X1.4706 Y1.6378 Z0.0521
X1.4664 Y1.6304 Z0.0518
X1.4629 Y1.6227 Z0.0515
X1.4598 Y1.6148 Z0.0512
X1.4573 Y1.6067 Z0.0509
X1.4554 Y1.5985 Z0.0506
X1.4541 Y1.5902 Z0.0503
X1.4533 Y1.5817 Z0.05
X1.4532 Y1.5733 Z0.0497
X1.4536 Y1.5648 Z0.0494
X1.4546 Y1.5564 Z0.0491
X1.4562 Y1.5481 Z0.0488
X1.4583 Y1.5399 Z0.0485
X1.4611 Y1.5319 Z0.0482
X1.4643 Y1.5241 Z0.0479
X1.4681 Y1.5165 Z0.0476
X1.4725 Y1.5093 Z0.0473
X1.4773 Y1.5023 Z0.047
X1.4826 Y1.4957 Z0.0467
X1.4883 Y1.4895 Z0.0464
X1.4945 Y1.4837 Z0.0461
X1.501 Y1.4783 Z0.0458
X1.5079 Y1.4734 Z0.0455
X1.5152 Y1.469 Z0.0452
X1.5227 Y1.4651 Z0.0449
X1.5304 Y1.4618 Z0.0446
X1.5384 Y1.459 Z0.0443
X1.5466 Y1.4567 Z0.044
X1.5549 Y1.455 Z0.0438
X1.5632 Y1.4539 Z0.0435
X1.5717 Y1.4534 Z0.0432
X1.5801 Y1.4535 Z0.0429
X1.5886 Y1.4542 Z0.0426
X1.5969 Y1.4554 Z0.0423
X1.6052 Y1.4572 Z0.042
X1.6133 Y1.4596 Z0.0417
X1.6212 Y1.4626 Z0.0414
X1.6289 Y1.4661 Z0.0411
X1.6363 Y1.4701 Z0.0408
X1.6435 Y1.4746 Z0.0405
X1.6503 Y1.4796 Z0.0402
X1.6567 Y1.4851 Z0.0399
X1.6628 Y1.491 Z0.0396
X1.6684 Y1.4973 Z0.0393
X1.6736 Y1.504 Z0.039
X1.6782 Y1.5111 Z0.0387
X1.6824 Y1.5184 Z0.0384
X1.6861 Y1.526 Z0.0381
X1.6892 Y1.5339 Z0.0378
X1.6918 Y1.5419 Z0.0375
X1.6938 Y1.5501 Z0.0372
X1.6953 Y1.5585 Z0.0369
X1.6961 Y1.5669 Z0.0366
X1.6964 Y1.5753 Z0.0363
X1.6961 Y1.5838 Z0.036
X1.6952 Y1.5922 Z0.0357
X1.6937 Y1.6005 Z0.0354
X1.6916 Y1.6087 Z0.0351
X1.689 Y1.6167 Z0.0348
X1.6858 Y1.6245 Z0.0345
X1.6821 Y1.6321 Z0.0342
X1.6779 Y1.6394 Z0.0339
X1.6731 Y1.6464 Z0.0336
X1.6679 Y1.653 Z0.0333
X1.6623 Y1.6593 Z0.033
X1.6562 Y1.6652 Z0.0327
X1.6497 Y1.6706 Z0.0324
X1.6429 Y1.6756 Z0.0321
X1.6358 Y1.6801 Z0.0318
X1.6283 Y1.684 Z0.0315
X1.6206 Y1.6875 Z0.0313
X1.6127 Y1.6904 Z0.031
X1.6046 Y1.6927 Z0.0307
X1.5963 Y1.6945 Z0.0304
X1.5879 Y1.6957 Z0.0301
X1.5795 Y1.6963 Z0.0298
X1.5711 Z0.0295
X1.5627 Y1.6958 Z0.0292
X1.5543 Y1.6946 Z0.0289
X1.546 Y1.6929 Z0.0286
X1.5379 Y1.6906 Z0.0283
X1.53 Y1.6877 Z0.028
X1.5222 Y1.6843 Z0.0277
X1.5148 Y1.6804 Z0.0274
X1.5076 Y1.676 Z0.0271
X1.5007 Y1.6711 Z0.0268
X1.4943 Y1.6657 Z0.0265
X1.4882 Y1.6598 Z0.0262
X1.4825 Y1.6536 Z0.0259
X1.4772 Y1.647 Z0.0256
X1.4725 Y1.64 Z0.0253
X1.4682 Y1.6328 Z0.025
X1.4645 Y1.6252 Z0.0247
X1.4612 Y1.6174 Z0.0244
X1.4586 Y1.6094 Z0.0241
X1.4565 Y1.6012 Z0.0238
X1.4549 Y1.593 Z0.0235
X1.454 Y1.5846 Z0.0232
X1.4536 Y1.5761 Z0.0229
X1.4538 Y1.5677 Z0.0226
X1.4546 Y1.5593 Z0.0223
X1.456 Y1.551 Z0.022
X1.458 Y1.5428 Z0.0217
X1.4605 Y1.5348 Z0.0214
X1.4636 Y1.5269 Z0.0211
X1.4672 Y1.5193 Z0.0208
X1.4714 Y1.5119 Z0.0205
X1.476 Y1.5049 Z0.0202
X1.4811 Y1.4982 Z0.0199
X1.4867 Y1.4919 Z0.0196
X1.4927 Y1.4859 Z0.0193
X1.4991 Y1.4804 Z0.019
X1.5058 Y1.4754 Z0.0188
X1.5129 Y1.4709 Z0.0185
X1.5203 Y1.4668 Z0.0182
X1.5279 Y1.4633 Z0.0179
X1.5358 Y1.4603 Z0.0176
X1.5439 Y1.4579 Z0.0173
X1.5521 Y1.456 Z0.017
X1.5604 Y1.4547 Z0.0167
X1.5688 Y1.454 Z0.0164
X1.5772 Y1.4539 Z0.0161
X1.5856 Y1.4543 Z0.0158
X1.594 Y1.4554 Z0.0155
X1.6023 Y1.457 Z0.0152
X1.6104 Y1.4592 Z0.0149
X1.6184 Y1.462 Z0.0146
X1.6261 Y1.4653 Z0.0143
X1.6336 Y1.4691 Z0.014
X1.6408 Y1.4734 Z0.0137
X1.6477 Y1.4783 Z0.0134
X1.6543 Y1.4836 Z0.0131
X1.6604 Y1.4893 Z0.0128
X1.6662 Y1.4955 Z0.0125
X1.6715 Y1.502 Z0.0122
X1.6763 Y1.5089 Z0.0119
X1.6807 Y1.5161 Z0.0116
X1.6845 Y1.5236 Z0.0113
X1.6878 Y1.5314 Z0.011
X1.6906 Y1.5393 Z0.0107
X1.6927 Y1.5474 Z0.0104
X1.6944 Y1.5557 Z0.0101
X1.6954 Y1.564 Z0.0098
X1.6959 Y1.5724 Z0.0095
X1.6958 Y1.5808 Z0.0092
X1.6951 Y1.5892 Z0.0089
X1.6938 Y1.5975 Z0.0086
X1.6919 Y1.6057 Z0.0083
X1.6895 Y1.6138 Z0.008
X1.6865 Y1.6217 Z0.0077
X1.683 Y1.6293 Z0.0074
X1.679 Y1.6367 Z0.0071
X1.6744 Y1.6438 Z0.0068
X1.6694 Y1.6505 Z0.0065
X1.6639 Y1.6569 Z0.0063
X1.658 Y1.6629 Z0.006
X1.6517 Y1.6685 Z0.0057
X1.645 Y1.6736 Z0.0054
X1.638 Y1.6782 Z0.0051
X1.6306 Y1.6823 Z0.0048
X1.623 Y1.6859 Z0.0045
X1.6152 Y1.689 Z0.0042
X1.6072 Y1.6915 Z0.0039
X1.599 Y1.6935 Z0.0036
X1.5907 Y1.6949 Z0.0033
X1.5824 Y1.6957 Z0.003
X1.574 Y1.6959 Z0.0027
X1.5656 Y1.6956 Z0.0024
X1.5572 Y1.6946 Z0.0021
X1.5489 Y1.6931 Z0.0018
X1.5408 Y1.691 Z0.0015
X1.5328 Y1.6883 Z0.0012
X1.5251 Y1.6851 Z0.0009
X1.5175 Y1.6814 Z0.0006
X1.5103 Y1.6772 Z0.0003
X1.5033 Y1.6724 Z0.
X1.4967 Y1.6672 Z-0.0003
X1.4905 Y1.6615 Z-0.0006
X1.4847 Y1.6555 Z-0.0009
X1.4794 Y1.649 Z-0.0012
X1.4744 Y1.6422 Z-0.0015
X1.47 Y1.635 Z-0.0018
X1.4661 Y1.6276 Z-0.0021
X1.4627 Y1.6199 Z-0.0024
X1.4599 Y1.612 Z-0.0027
X1.4576 Y1.6039 Z-0.003
X1.4559 Y1.5957 Z-0.0033
X1.4547 Y1.5874 Z-0.0036
X1.4542 Y1.579 Z-0.0039
Y1.5706 Z-0.0042
X1.4548 Y1.5622 Z-0.0045
X1.456 Y1.5536 Z-0.0048
X1.4579 Y1.5451 Z-0.0051
X1.4603 Y1.5367 Z-0.0054
X1.4634 Y1.5285 Z-0.0057
X1.4671 Y1.5206 Z-0.006
X1.4713 Y1.513 Z-0.0063
X1.476 Y1.5057 Z-0.0066
X1.4813 Y1.4987 Z-0.0069
X1.487 Y1.4922 Z-0.0072
X1.4932 Y1.4861 Z-0.0076
X1.4999 Y1.4804 Z-0.0079
X1.5069 Y1.4752 Z-0.0082
X1.5143 Y1.4706 Z-0.0085
X1.522 Y1.4665 Z-0.0088
X1.5299 Y1.463 Z-0.0091
X1.5381 Y1.46 Z-0.0094
X1.5465 Y1.4577 Z-0.0097
X1.5551 Y1.4559 Z-0.01
X1.5637 Y1.4548 Z-0.0103
X1.5724 Y1.4543 Z-0.0106
X1.5811 Y1.4545 Z-0.011
X1.5898 Y1.4553 Z-0.0113
X1.5984 Y1.4567 Z-0.0116
X1.6069 Y1.4587 Z-0.0119
X1.6152 Y1.4613 Z-0.0122
X1.6233 Y1.4645 Z-0.0125
X1.6312 Y1.4683 Z-0.0128
X1.6387 Y1.4726 Z-0.0131
X1.6459 Y1.4775 Z-0.0134
X1.6528 Y1.4829 Z-0.0137
X1.6592 Y1.4888 Z-0.014
X1.6652 Y1.4951 Z-0.0144
X1.6707 Y1.5018 Z-0.0147
X1.6758 Y1.5089 Z-0.015
X1.6803 Y1.5164 Z-0.0153
X1.6842 Y1.5241 Z-0.0156
X1.6876 Y1.5321 Z-0.0159
X1.6904 Y1.5404 Z-0.0162
X1.6926 Y1.5488 Z-0.0165
X1.6942 Y1.5574 Z-0.0168
X1.6951 Y1.566 Z-0.0171
X1.6954 Y1.5747 Z-0.0174
X1.6951 Y1.5834 Z-0.0178
X1.6942 Y1.5921 Z-0.0181
X1.6927 Y1.6007 Z-0.0184
X1.6905 Y1.6091 Z-0.0187
X1.6877 Y1.6173 Z-0.019
X1.6844 Y1.6254 Z-0.0193
X1.6804 Y1.6332 Z-0.0196
X1.676 Y1.6406 Z-0.0199
X1.671 Y1.6477 Z-0.0202
X1.6655 Y1.6545 Z-0.0205
X1.6595 Y1.6608 Z-0.0208
X1.6531 Y1.6667 Z-0.0212
X1.6463 Y1.6721 Z-0.0215
X1.6391 Y1.677 Z-0.0218
X1.6315 Y1.6813 Z-0.0221
X1.6237 Y1.6851 Z-0.0224
X1.6156 Y1.6884 Z-0.0227
X1.6074 Y1.691 Z-0.023
X1.5989 Y1.693 Z-0.0233
X1.5903 Y1.6945 Z-0.0236
X1.5817 Y1.6953 Z-0.0239
X1.573 Y1.6954 Z-0.0242
X1.5643 Y1.695 Z-0.0246
X1.5557 Y1.6939 Z-0.0249
X1.5471 Y1.6922 Z-0.0252
X1.5387 Y1.6899 Z-0.0255
X1.5305 Y1.687 Z-0.0258
X1.5226 Y1.6835 Z-0.0261
X1.5149 Y1.6794 Z-0.0264
X1.5075 Y1.6748 Z-0.0267
X1.5005 Y1.6697 Z-0.027
X1.4939 Y1.664 Z-0.0273
X1.4876 Y1.658 Z-0.0276
X1.4819 Y1.6514 Z-0.028
X1.4766 Y1.6445 Z-0.0283
X1.4719 Y1.6372 Z-0.0286
X1.4676 Y1.6296 Z-0.0289
X1.464 Y1.6218 Z-0.0292
X1.4609 Y1.6136 Z-0.0295
X1.4584 Y1.6053 Z-0.0298
X1.4565 Y1.5968 Z-0.0301
X1.4553 Y1.5882 Z-0.0304
X1.4546 Y1.5796 Z-0.0307
Y1.5709 Z-0.031
X1.4552 Y1.5622 Z-0.0314
X1.4565 Y1.5536 Z-0.0317
X1.4583 Y1.5451 Z-0.032
X1.4608 Y1.5368 Z-0.0323
X1.4639 Y1.5287 Z-0.0326
X1.4675 Y1.5208 Z-0.0329
X1.4717 Y1.5132 Z-0.0332
X1.4764 Y1.5059 Z-0.0335
X1.4817 Y1.499 Z-0.0338
X1.4874 Y1.4925 Z-0.0341
X1.4936 Y1.4864 Z-0.0344
X1.5002 Y1.4807 Z-0.0348
X1.5072 Y1.4756 Z-0.0351
X1.5146 Y1.471 Z-0.0354
X1.5222 Y1.4669 Z-0.0357
X1.5302 Y1.4634 Z-0.036
X1.5384 Y1.4605 Z-0.0363
X1.5467 Y1.4581 Z-0.0366
X1.5552 Y1.4564 Z-0.0369
X1.5638 Y1.4553 Z-0.0372
X1.5725 Y1.4548 Z-0.0375
X1.5812 Y1.455 Z-0.0378
X1.5898 Y1.4557 Z-0.0382
X1.5984 Y1.4571 Z-0.0385
X1.6068 Y1.4591 Z-0.0388
X1.6151 Y1.4617 Z-0.0391
X1.6232 Y1.4649 Z-0.0394
X1.631 Y1.4687 Z-0.0397
X1.6385 Y1.473 Z-0.04
X1.6457 Y1.4779 Z-0.0403
X1.6525 Y1.4833 Z-0.0406
X1.6589 Y1.4891 Z-0.0409
X1.6649 Y1.4954 Z-0.0412
X1.6704 Y1.5021 Z-0.0416
X1.6754 Y1.5092 Z-0.0419
X1.6799 Y1.5166 Z-0.0422
X1.6838 Y1.5244 Z-0.0425
X1.6872 Y1.5324 Z-0.0428
X1.69 Y1.5406 Z-0.0431
X1.6921 Y1.549 Z-0.0434
X1.6937 Y1.5575 Z-0.0437
X1.6946 Y1.5661 Z-0.044
X1.695 Y1.5748 Z-0.0443
X1.6947 Y1.5835 Z-0.0446
X1.6937 Y1.5921 Z-0.045
X1.6922 Y1.6006 Z-0.0453
X1.69 Y1.609 Z-0.0456
X1.6873 Y1.6172 Z-0.0459
X1.6839 Y1.6252 Z-0.0462
X1.68 Y1.633 Z-0.0465
X1.6756 Y1.6404 Z-0.0468
X1.6706 Y1.6475 Z-0.0471
X1.6651 Y1.6542 Z-0.0474
X1.6591 Y1.6605 Z-0.0477
X1.6528 Y1.6663 Z-0.048
X1.646 Y1.6717 Z-0.0484
X1.6388 Y1.6766 Z-0.0487
X1.6313 Y1.6809 Z-0.049
X1.6235 Y1.6847 Z-0.0493
X1.6154 Y1.6879 Z-0.0496
X1.6072 Y1.6906 Z-0.0499
X1.5988 Y1.6926 Z-0.0502
X1.5902 Y1.694 Z-0.0505
X1.5816 Y1.6948 Z-0.0508
X1.5729 Y1.695 Z-0.0511
X1.5643 Y1.6945 Z-0.0514
X1.5557 Y1.6934 Z-0.0518
X1.5472 Y1.6917 Z-0.0521
X1.5388 Y1.6894 Z-0.0524
X1.5306 Y1.6865 Z-0.0527
X1.5227 Y1.683 Z-0.053
X1.5151 Y1.679 Z-0.0533
X1.5077 Y1.6744 Z-0.0536
X1.5007 Y1.6693 Z-0.0539
X1.4941 Y1.6637 Z-0.0542
X1.488 Y1.6576 Z-0.0545
X1.4822 Y1.6511 Z-0.0548
X1.477 Y1.6442 Z-0.0552
X1.4722 Y1.637 Z-0.0555
X1.468 Y1.6294 Z-0.0558
X1.4644 Y1.6216 Z-0.0561
X1.4613 Y1.6135 Z-0.0564
X1.4589 Y1.6052 Z-0.0567
X1.457 Y1.5967 Z-0.057
X1.4557 Y1.5882 Z-0.0573
X1.4551 Y1.5795 Z-0.0576
Y1.5709 Z-0.0579
X1.4557 Y1.5622 Z-0.0582
X1.457 Y1.5537 Z-0.0586
X1.4588 Y1.5452 Z-0.0589
X1.4613 Y1.5369 Z-0.0592
X1.4643 Y1.5288 Z-0.0595
X1.4679 Y1.521 Z-0.0598
X1.4721 Y1.5134 Z-0.0601
X1.4769 Y1.5061 Z-0.0604
X1.4821 Y1.4992 Z-0.0607
X1.4878 Y1.4927 Z-0.061
X1.494 Y1.4867 Z-0.0613
X1.5005 Y1.4811 Z-0.0616
X1.5075 Y1.476 Z-0.062
X1.5148 Y1.4714 Z-0.0623
X1.5225 Y1.4673 Z-0.0626
X1.5304 Y1.4638 Z-0.0629
X1.5385 Y1.4609 Z-0.0632
X1.5468 Y1.4586 Z-0.0635
X1.5553 Y1.4569 Z-0.0638
X1.5639 Y1.4558 Z-0.0641
X1.5725 Y1.4553 Z-0.0644
X1.5812 Y1.4554 Z-0.0647
X1.5898 Y1.4562 Z-0.065
X1.5983 Y1.4576 Z-0.0654
X1.6067 Y1.4596 Z-0.0657
X1.615 Y1.4622 Z-0.066
X1.623 Y1.4654 Z-0.0663
X1.6308 Y1.4692 Z-0.0666
X1.6383 Y1.4735 Z-0.0669
X1.6454 Y1.4783 Z-0.0672
X1.6522 Y1.4837 Z-0.0675
X1.6586 Y1.4895 Z-0.0678
X1.6646 Y1.4958 Z-0.0681
X1.6701 Y1.5025 Z-0.0684
X1.675 Y1.5095 Z-0.0688
X1.6795 Y1.5169 Z-0.0691
X1.6834 Y1.5246 Z-0.0694
X1.6868 Y1.5326 Z-0.0697
X1.6895 Y1.5408 Z-0.07
X1.6917 Y1.5491 Z-0.0703
X1.6932 Y1.5576 Z-0.0706
X1.6942 Y1.5662 Z-0.0709
X1.6945 Y1.5748 Z-0.0712
X1.6942 Y1.5835 Z-0.0715
X1.6933 Y1.592 Z-0.0718
X1.6917 Y1.6005 Z-0.0721
X1.6896 Y1.6089 Z-0.0725
X1.6868 Y1.6171 Z-0.0728
X1.6835 Y1.6251 Z-0.0731
X1.6796 Y1.6328 Z-0.0734
X1.6751 Y1.6402 Z-0.0737
X1.6702 Y1.6472 Z-0.074
X1.6647 Y1.6539 Z-0.0743
X1.6588 Y1.6602 Z-0.0746
X1.6524 Y1.666 Z-0.0749
X1.6456 Y1.6714 Z-0.0752
X1.6385 Y1.6762 Z-0.0755
X1.631 Y1.6805 Z-0.0759
X1.6232 Y1.6843 Z-0.0762
X1.6152 Y1.6875 Z-0.0765
X1.607 Y1.6901 Z-0.0768
X1.5986 Y1.6921 Z-0.0771
X1.5901 Y1.6935 Z-0.0774
X1.5815 Y1.6943 Z-0.0777
X1.5729 Y1.6945 Z-0.078
X1.5643 Y1.694 Z-0.0783
X1.5557 Y1.6929 Z-0.0786
X1.5472 Y1.6913 Z-0.0789
X1.5389 Y1.6889 Z-0.0793
X1.5308 Y1.6861 Z-0.0796
X1.5229 Y1.6826 Z-0.0799
X1.5153 Y1.6785 Z-0.0802
X1.508 Y1.674 Z-0.0805
X1.501 Y1.6689 Z-0.0808
X1.4944 Y1.6633 Z-0.0811
X1.4883 Y1.6573 Z-0.0814
X1.4826 Y1.6508 Z-0.0817
X1.4773 Y1.6439 Z-0.082
X1.4726 Y1.6367 Z-0.0823
X1.4684 Y1.6292 Z-0.0827
X1.4648 Y1.6213 Z-0.083
X1.4618 Y1.6133 Z-0.0833
X1.4593 Y1.605 Z-0.0836
X1.4574 Y1.5966 Z-0.0839
X1.4562 Y1.588 Z-0.0842
X1.4556 Y1.5794 Z-0.0845
Y1.5708 Z-0.0848
X1.4562 Y1.5622 Z-0.0851
X1.4574 Y1.5537 Z-0.0854
X1.4593 Y1.5453 Z-0.0857
X1.4617 Y1.537 Z-0.0861
X1.4648 Y1.529 Z-0.0864
X1.4684 Y1.5211 Z-0.0867
X1.4725 Y1.5136 Z-0.087
X1.4772 Y1.5064 Z-0.0873
X1.4825 Y1.4995 Z-0.0876
X1.4881 Y1.493 Z-0.0879
X1.4943 Y1.487 Z-0.0882
X1.5009 Y1.4814 Z-0.0885
X1.5078 Y1.4763 Z-0.0888
X1.5151 Y1.4717 Z-0.0891
X1.5227 Y1.4677 Z-0.0895
X1.5306 Y1.4642 Z-0.0898
X1.5387 Y1.4613 Z-0.0901
X1.547 Y1.459 Z-0.0904
X1.5554 Y1.4573 Z-0.0907
X1.564 Y1.4562 Z-0.091
X1.5726 Y1.4558 Z-0.0913
X1.5812 Y1.4559 Z-0.0916
X1.5898 Y1.4567 Z-0.0919
X1.5983 Y1.4581 Z-0.0922
X1.6067 Y1.4601 Z-0.0925
X1.6149 Y1.4627 Z-0.0929
X1.6229 Y1.4658 Z-0.0932
X1.6306 Y1.4696 Z-0.0935
X1.6381 Y1.4739 Z-0.0938
X1.6452 Y1.4787 Z-0.0941
X1.652 Y1.4841 Z-0.0944
X1.6583 Y1.4899 Z-0.0947
X1.6642 Y1.4961 Z-0.095
X1.6697 Y1.5028 Z-0.0953
X1.6747 Y1.5098 Z-0.0956
X1.6791 Y1.5172 Z-0.0959
X1.683 Y1.5248 Z-0.0963
X1.6863 Y1.5328 Z-0.0966
X1.6891 Y1.5409 Z-0.0969
X1.6912 Y1.5493 Z-0.0972
X1.6928 Y1.5577 Z-0.0975
X1.6937 Y1.5663 Z-0.0978
X1.694 Y1.5749 Z-0.0981
X1.6937 Y1.5835 Z-0.0984
X1.6928 Y1.592 Z-0.0987
X1.6913 Y1.6005 Z-0.099
X1.6891 Y1.6088 Z-0.0993
X1.6864 Y1.617 Z-0.0997
X1.683 Y1.6249 Z-0.1
X1.6791 Y1.6326 Z-0.1003
X1.6747 Y1.64 Z-0.1006
X1.6698 Y1.647 Z-0.1009
X1.6643 Y1.6537 Z-0.1012
X1.6584 Y1.6599 Z-0.1015
X1.6521 Y1.6657 Z-0.1018
X1.6453 Y1.671 Z-0.1021
X1.6382 Y1.6759 Z-0.1024
X1.6308 Y1.6802 Z-0.1027
X1.623 Y1.6839 Z-0.1031
X1.615 Y1.6871 Z-0.1034
X1.6068 Y1.6897 Z-0.1037
X1.5985 Y1.6917 Z-0.104
X1.59 Y1.6931 Z-0.1043
X1.5814 Y1.6939 Z-0.1046
X1.5729 Y1.694 Z-0.1049
X1.5643 Y1.6936 Z-0.1052
X1.5557 Y1.6925 Z-0.1055
X1.5473 Y1.6908 Z-0.1058
X1.539 Y1.6885 Z-0.1061
X1.5309 Y1.6856 Z-0.1065
X1.5231 Y1.6821 Z-0.1068
X1.5155 Y1.6781 Z-0.1071
X1.5082 Y1.6735 Z-0.1074
X1.5013 Y1.6685 Z-0.1077
X1.4947 Y1.6629 Z-0.108
X1.4886 Y1.6569 Z-0.1083
X1.4829 Y1.6504 Z-0.1086
X1.4777 Y1.6436 Z-0.1089
X1.473 Y1.6364 Z-0.1092
X1.4688 Y1.6289 Z-0.1095
X1.4652 Y1.6211 Z-0.1099
X1.4622 Y1.6131 Z-0.1102
X1.4597 Y1.6048 Z-0.1105
X1.4579 Y1.5965 Z-0.1108
X1.4567 Y1.588 Z-0.1111
X1.456 Y1.5794 Z-0.1114
Y1.5708 Z-0.1117
X1.4567 Y1.5622 Z-0.112
X1.4579 Y1.5538 Z-0.1123
X1.4597 Y1.5454 Z-0.1126
X1.4622 Y1.5371 Z-0.1129
X1.4652 Y1.5291 Z-0.1133
X1.4688 Y1.5213 Z-0.1136
X1.473 Y1.5138 Z-0.1139
X1.4777 Y1.5066 Z-0.1142
X1.4829 Y1.4998 Z-0.1145
X1.4885 Y1.4933 Z-0.1148
X1.4946 Y1.4873 Z-0.1151
X1.5012 Y1.4818 Z-0.1154
X1.5081 Y1.4767 Z-0.1157
X1.5154 Y1.4721 Z-0.116
X1.523 Y1.4681 Z-0.1163
X1.5308 Y1.4646 Z-0.1167
X1.5389 Y1.4617 Z-0.117
X1.5472 Y1.4595 Z-0.1173
X1.5556 Y1.4578 Z-0.1176
X1.5641 Y1.4567 Z-0.1179
X1.5727 Y1.4562 Z-0.1182
X1.5812 Y1.4564 Z-0.1185
X1.5898 Y1.4571 Z-0.1188
X1.5982 Y1.4585 Z-0.1191
X1.6066 Y1.4605 Z-0.1194
X1.6147 Y1.4631 Z-0.1197
X1.6227 Y1.4663 Z-0.1201
X1.6304 Y1.47 Z-0.1204
X1.6379 Y1.4743 Z-0.1207
X1.645 Y1.4791 Z-0.121
X1.6517 Y1.4844 Z-0.1213
X1.658 Y1.4902 Z-0.1216
X1.6639 Y1.4964 Z-0.1219
X1.6693 Y1.5031 Z-0.1222
X1.6743 Y1.5101 Z-0.1225
X1.6787 Y1.5174 Z-0.1228
X1.6826 Y1.5251 Z-0.1231
X1.6859 Y1.533 Z-0.1235
X1.6886 Y1.5411 Z-0.1238
X1.6908 Y1.5494 Z-0.1241
X1.6923 Y1.5579 Z-0.1244
X1.6933 Y1.5664 Z-0.1247
X1.6936 Y1.5749 Z-0.125
G3 X1.5748 Y1.6937 R0.1188
X1.4561 Y1.5749 R0.1188
X1.5748 Y1.4562 R0.1188
X1.6936 Y1.5749 R0.1188
G1 X1.6937 Y1.584 F22.
X1.6999 Y1.6196
X1.702 Y1.6253
X1.7035 Y1.6311
X1.7043 Y1.637
X1.7047 Y1.643
X1.7045 Y1.6493
X1.7037 Y1.656
X1.7024 Y1.6631
X1.7003 Y1.6705
X1.6975 Y1.6781
X1.6939 Y1.6859
X1.6895 Y1.6937
X1.6842 Y1.7016
X1.6781 Y1.7093
X1.671 Y1.7168
X1.6631 Y1.724
X1.6543 Y1.7308
X1.6447 Y1.737
X1.6344 Y1.7426
X1.6233 Y1.7475
X1.6116 Y1.7516
X1.5993 Y1.7548
X1.5865 Y1.7571
X1.5734 Y1.7583
X1.5599 Y1.7585
X1.5463 Y1.7576
X1.5327 Y1.7556
X1.5191 Y1.7525
X1.5056 Y1.7482
X1.4924 Y1.7428
X1.4796 Y1.7363
X1.4672 Y1.7288
X1.4554 Y1.7202
X1.4443 Y1.7107
X1.4339 Y1.7002
X1.4244 Y1.6889
X1.4157 Y1.6768
X1.408 Y1.664
X1.4014 Y1.6506
X1.3958 Y1.6367
X1.3914 Y1.6223
X1.3881 Y1.6076
X1.386 Y1.5927
X1.3852 Y1.5776
X1.3855 Y1.5625
X1.387 Y1.5474
X1.3898 Y1.5325
X1.3937 Y1.5178
X1.3988 Y1.5035
X1.4051 Y1.4897
X1.4124 Y1.4763
X1.4208 Y1.4636
X1.4302 Y1.4517
X1.4405 Y1.4405
X1.4517 Y1.4301
X1.4637 Y1.4207
X1.4764 Y1.4123
X1.4898 Y1.4049
X1.5037 Y1.3987
X1.5181 Y1.3935
X1.5328 Y1.3895
X1.5478 Y1.3868
X1.563 Y1.3852
X1.5782 Y1.3848
X1.5935 Y1.3857
X1.6086 Y1.3878
X1.6235 Y1.3911
X1.6381 Y1.3956
X1.6523 Y1.4013
X1.666 Y1.4081
X1.6791 Y1.4159
X1.6915 Y1.4248
X1.7032 Y1.4346
X1.714 Y1.4454
X1.7239 Y1.457
X1.7329 Y1.4693
X1.7429 Y1.4857
X1.7588 Y1.5171
X1.7686 Y1.5409
X1.7752 Y1.5618
X1.7796 Y1.5809
X1.7823 Y1.5991
X1.7835 Y1.6167
X1.7833 Y1.6338
X1.7817 Y1.6505
X1.7788 Y1.6668
X1.7747 Y1.6827
X1.7693 Y1.6982
X1.7626 Y1.7133
X1.7547 Y1.7279
X1.7456 Y1.742
X1.7353 Y1.7553
X1.7238 Y1.768
X1.7113 Y1.7798
X1.6976 Y1.7907
X1.6829 Y1.8006
X1.6672 Y1.8094
X1.6507 Y1.8171
X1.6333 Y1.8234
X1.6153 Y1.8285
X1.5967 Y1.8321
X1.5776 Y1.8342
X1.5582 Y1.8348
X1.5386 Y1.8338
X1.519 Y1.8313
X1.4995 Y1.8271
X1.4803 Y1.8213
X1.4614 Y1.814
X1.4431 Y1.8051
X1.4254 Y1.7947
X1.4086 Y1.7829
X1.3926 Y1.7696
X1.3777 Y1.7551
X1.3639 Y1.7393
X1.3514 Y1.7225
X1.3403 Y1.7046
X1.3306 Y1.6858
X1.3224 Y1.6662
X1.3158 Y1.646
X1.3108 Y1.6253
X1.3075 Y1.6042
X1.3059 Y1.5828
X1.306 Y1.5614
X1.3079 Y1.54
X1.3114 Y1.5188
X1.3167 Y1.498
X1.3236 Y1.4776
X1.3321 Y1.4578
X1.3422 Y1.4387
X1.3538 Y1.4206
X1.3668 Y1.4033
X1.3812 Y1.3872
X1.3969 Y1.3723
X1.4137 Y1.3587
X1.4315 Y1.3464
X1.4503 Y1.3357
X1.4698 Y1.3264
X1.4901 Y1.3188
X1.5109 Y1.3128
X1.5321 Y1.3085
X1.5536 Y1.306
X1.5753 Y1.3051
X1.5969 Y1.306
X1.6184 Y1.3087
X1.6396 Y1.313
X1.6604 Y1.319
X1.6807 Y1.3267
X1.7003 Y1.336
X1.719 Y1.3469
X1.7369 Y1.3592
X1.7543 Y1.3733
X1.7731 Y1.3914
X1.7909 Y1.4114
X1.8075 Y1.4335
X1.8225 Y1.4571
X1.8352 Y1.4813
X1.8458 Y1.5059
X1.8541 Y1.5306
X1.8602 Y1.5553
X1.8643 Y1.58
X1.8663 Y1.6045
X1.8664 Y1.6288
X1.8645 Y1.6527
X1.8608 Y1.6763
X1.8552 Y1.6994
X1.8477 Y1.7219
X1.8385 Y1.7437
X1.8276 Y1.7648
X1.815 Y1.7849
X1.8007 Y1.804
X1.7849 Y1.8221
X1.7676 Y1.8389
X1.7488 Y1.8544
X1.7287 Y1.8684
X1.7073 Y1.8809
X1.6849 Y1.8918
X1.6614 Y1.9008
X1.6371 Y1.908
X1.612 Y1.9133
X1.5865 Y1.9166
X1.5606 Y1.9178
X1.5345 Y1.9169
X1.5083 Y1.9139
X1.4823 Y1.9088
X1.4567 Y1.9016
X1.4315 Y1.8923
X1.4071 Y1.881
X1.3835 Y1.8676
X1.361 Y1.8523
X1.3396 Y1.8352
X1.3197 Y1.8164
X1.3012 Y1.7959
X1.2844 Y1.7739
X1.2693 Y1.7506
X1.2561 Y1.7261
X1.2449 Y1.7005
X1.2358 Y1.6741
X1.2288 Y1.6469
X1.224 Y1.6192
X1.2214 Y1.5912
X1.2211 Y1.563
X1.2231 Y1.5348
X1.2273 Y1.5069
X1.2337 Y1.4793
X1.2424 Y1.4524
X1.2532 Y1.4262
X1.266 Y1.4009
X1.2809 Y1.3767
X1.2977 Y1.3538
X1.3162 Y1.3323
X1.3365 Y1.3123
X1.3582 Y1.2941
X1.3814 Y1.2776
X1.4059 Y1.263
X1.4314 Y1.2505
X1.4579 Y1.24
X1.4851 Y1.2317
X1.5129 Y1.2256
X1.5411 Y1.2217
X1.5696 Y1.2202
X1.598 Y1.2209
X1.6264 Y1.2239
X1.6544 Y1.2291
X1.6819 Y1.2366
X1.7087 Y1.2463
X1.7348 Y1.2582
X1.7607 Y1.2726
X1.7863 Y1.2896
X1.8111 Y1.3092
X1.8348 Y1.3312
X1.8571 Y1.3554
X1.8774 Y1.3815
X1.8956 Y1.4092
X1.9114 Y1.4381
X1.9248 Y1.468
X1.9356 Y1.4985
X1.9439 Y1.5296
X1.9462 Y1.5421
X1.9465 Y1.5438
X1.9467 Y1.5456
X1.9469 Y1.5474
X1.949 Y1.5709
Y1.5791
X1.9439 Y1.6366
X1.9434 Y1.6407
X1.9424 Y1.6448
X1.9292 Y1.6941
X1.9269 Y1.7023
X1.9237 Y1.7096
X1.9073 Y1.7448
X1.9041 Y1.7515
X1.8991 Y1.7611
X1.8952 Y1.7679
X1.8662 Y1.8092
X1.8602 Y1.8172
X1.817 Y1.8604
X1.8088 Y1.8666
X1.7677 Y1.8954
X1.7609 Y1.8993
X1.7513 Y1.9043
X1.7431 Y1.9082
X1.7093 Y1.9239
X1.7021 Y1.9271
X1.6938 Y1.9294
X1.6446 Y1.9426
X1.6405 Y1.9436
X1.6364 Y1.9441
X1.5789 Y1.9492
X1.5707
X1.5132 Y1.9441
X1.5091 Y1.9436
X1.505 Y1.9426
X1.4558 Y1.9294
X1.4476 Y1.9271
X1.4403 Y1.9239
X1.4051 Y1.9075
X1.3983 Y1.9043
X1.3887 Y1.8993
X1.3819 Y1.8954
X1.3406 Y1.8665
X1.3326 Y1.8604
X1.2894 Y1.8172
X1.2832 Y1.809
X1.2544 Y1.7679
X1.2505 Y1.7611
X1.2455 Y1.7515
X1.2416 Y1.7433
X1.2259 Y1.7096
X1.2227 Y1.7023
X1.2204 Y1.6941
X1.2072 Y1.6448
X1.2062 Y1.6407
X1.2057 Y1.6366
X1.2006 Y1.5791
Y1.5709
X1.2057 Y1.5134
X1.2062 Y1.5093
X1.2072 Y1.5052
X1.2204 Y1.4559
X1.2227 Y1.4477
X1.2259 Y1.4404
X1.2423 Y1.4052
X1.2455 Y1.3985
X1.2505 Y1.3889
X1.2544 Y1.3821
X1.2834 Y1.3407
X1.2894 Y1.3328
X1.3326 Y1.2896
X1.3408 Y1.2834
X1.3819 Y1.2546
X1.3887 Y1.2507
X1.3983 Y1.2457
X1.4065 Y1.2418
X1.4403 Y1.2261
X1.4476 Y1.2229
X1.4558 Y1.2206
X1.505 Y1.2074
X1.5091 Y1.2064
X1.5132 Y1.2059
X1.5707 Y1.2008
X1.5789
X1.6364 Y1.2059
X1.6405 Y1.2064
X1.6446 Y1.2074
X1.6938 Y1.2206
X1.7021 Y1.2229
X1.7093 Y1.2261
X1.7445 Y1.2425
X1.7513 Y1.2457
X1.7609 Y1.2507
X1.7677 Y1.2546
X1.809 Y1.2835
X1.817 Y1.2896
X1.8602 Y1.3328
X1.8664 Y1.341
X1.8952 Y1.3821
X1.8991 Y1.3889
X1.9041 Y1.3985
X1.908 Y1.4067
X1.9237 Y1.4404
X1.9269 Y1.4477
X1.9292 Y1.4559
X1.9424 Y1.5052
X1.9434 Y1.5093
X1.9439 Y1.5134
X1.9469 Y1.5474
G3 X1.9314 Y1.5719 R0.025
G1 X1.9277 Y1.5734 Z-0.1247
X1.9242 Y1.5748 Z-0.1238
X1.9209 Y1.5762 Z-0.1223
X1.9178 Y1.5774 Z-0.1202
X1.915 Y1.5785 Z-0.1177
X1.9126 Y1.5795 Z-0.1147
X1.9107 Y1.5803 Z-0.1113
X1.9093 Y1.5808 Z-0.1077
X1.9085 Y1.5812 Z-0.1039
X1.9082 Y1.5813 Z-0.1
G0 Z0.6

G53 G0 Z0.
M30
