(ADAPTIVE0.075)
(MACHINE)
(  VENDOR: BANTAM TOOLS)
(  MODEL: EXPLORER CNC MILLING MACHINE)
(  DESCRIPTION: BANTAM TOOLS EXPLORER CNC MILLING MACHINE)
(T2 D=0.25 CR=0. - ZMIN=0. - FLAT END MILL)
G0 G90 G94 G17
G20
G53 G0 Z0.

(2DADAPTIVE_.075OPT_LOAD 2)
T2
M3 S12000
G90 G94 G17
G55
G0 X-0.0258 Y-0.2861
Z0.6
G0 Z0.2
Z0.05
G1 Z0.025 F40.
X-0.0257 Y-0.2858 Z0.0211
X-0.0255 Y-0.2849 Z0.0173
X-0.0251 Y-0.2834 Z0.0137
X-0.0246 Y-0.2814 Z0.0103
X-0.024 Y-0.279 Z0.0073
X-0.0232 Y-0.2761 Z0.0048
X-0.0224 Y-0.2728 Z0.0027
X-0.0215 Y-0.2693 Z0.0012
X-0.0205 Y-0.2656 Z0.0003
X-0.0196 Y-0.2618 Z0.
G3 X0. Y-0.1257 R0.6382
G1 Y-0.1216
X-0.0145 Y-0.0885
X-0.025 Y-0.0539
X-0.0326 Y-0.0185
X-0.0379 Y0.0173
X-0.0416 Y0.0533
X-0.0442 Y0.0894
X-0.046 Y0.1255
X-0.0473 Y0.1617
X-0.0481 Y0.1979
X-0.0487 Y0.234
X-0.0491 Y0.2702
X-0.0494 Y0.3064
X-0.0496 Y0.3426
X-0.0497 Y0.3788
X-0.0499 Y0.4511
X-0.05 Y0.5958
Y1.6451
Y1.8622
Y3.3095
X-0.046 Y3.3271
X-0.0307 Y3.3599
X-0.0061 Y3.3865
X0.0237 Y3.4069
X0.0565 Y3.4222
X0.0909 Y3.4334
X0.1262 Y3.4414
X0.1619 Y3.4471
X0.1979 Y3.4511
X0.234 Y3.4538
X0.2701 Y3.4558
X0.3063 Y3.4571
X0.3424 Y3.458
X0.3786 Y3.4586
X0.4148 Y3.4591
X0.451 Y3.4594
X0.4872 Y3.4596
X0.5233 Y3.4597
X0.5957 Y3.4599
X0.7404 Y3.46
X1.6088
X2.4048
X3.3093
X3.327 Y3.456
X3.3598 Y3.4408
X3.3864 Y3.4163
X3.4069 Y3.3864
X3.4222 Y3.3536
X3.4333 Y3.3192
X3.4414 Y3.2839
X3.4471 Y3.2482
X3.451 Y3.2122
X3.4538 Y3.1762
X3.4558 Y3.14
X3.4571 Y3.1039
X3.458 Y3.0677
X3.4586 Y3.0315
X3.4591 Y2.9954
X3.4594 Y2.9592
X3.4596 Y2.923
X3.4597 Y2.8868
X3.4599 Y2.8145
X3.46 Y2.6697
Y2.4526
Y0.4626
Y0.1008
X3.456 Y0.0832
X3.4409 Y0.0503
X3.4164 Y0.0237
X3.3866 Y0.0032
X3.3538 Y-0.0121
X3.3194 Y-0.0233
X3.2841 Y-0.0313
X3.2484 Y-0.037
X3.2124 Y-0.041
X3.1763 Y-0.0438
X3.1402 Y-0.0457
X3.104 Y-0.0471
X3.0679 Y-0.048
X3.0317 Y-0.0486
X2.9955 Y-0.0491
X2.9593 Y-0.0494
X2.9231 Y-0.0496
X2.887 Y-0.0497
X2.8146 Y-0.0499
X2.6699 Y-0.05
X1.9101
X0.1914
X0.1736 Y-0.0467
X0.1399 Y-0.0334
X0.1117 Y-0.0108
X0.0893 Y0.0176
X0.072 Y0.0494
X0.059 Y0.0831
X0.0494 Y0.118
X0.0424 Y0.1535
X0.0373 Y0.1893
X0.0337 Y0.2253
X0.0311 Y0.2614
X0.0293 Y0.2976
X0.028 Y0.3337
X0.0271 Y0.3699
X0.0265 Y0.4061
X0.026 Y0.4423
X0.0257 Y0.4784
X0.0255 Y0.5146
X0.0253 Y0.5508
X0.0252 Y0.6232
X0.0251 Y0.7317
X0.025 Y1.0573
Y2.1428
Y3.1921
X0.0295 Y3.228
X0.0443 Y3.261
X0.0669 Y3.2893
X0.0947 Y3.3124
X0.1259 Y3.3307
X0.1592 Y3.3449
X0.1938 Y3.3556
X0.229 Y3.3637
X0.2647 Y3.3696
X0.3007 Y3.3739
X0.3367 Y3.3771
X0.3728 Y3.3794
X0.409 Y3.381
X0.4451 Y3.3822
X0.4813 Y3.383
X0.5175 Y3.3836
X0.5537 Y3.384
X0.5898 Y3.3843
X0.626 Y3.3845
X0.6622 Y3.3846
X0.7346 Y3.3848
X0.8431 Y3.3849
X0.8793 Y3.385
X1.3497
X2.8693
X3.1949
X3.2307 Y3.3796
X3.2634 Y3.3641
X3.2913 Y3.341
X3.314 Y3.3129
X3.332 Y3.2815
X3.3458 Y3.248
X3.3564 Y3.2134
X3.3642 Y3.1781
X3.37 Y3.1424
X3.3742 Y3.1065
X3.3773 Y3.0704
X3.3795 Y3.0343
X3.3811 Y2.9981
X3.3822 Y2.962
X3.383 Y2.9258
X3.3836 Y2.8896
X3.384 Y2.8534
X3.3843 Y2.8173
X3.3845 Y2.7811
X3.3847 Y2.7449
X3.3848 Y2.6725
X3.3849 Y2.564
X3.385 Y2.2384
Y1.8042
Y0.2122
X3.3787 Y0.1765
X3.3625 Y0.1442
X3.3389 Y0.1167
X3.3104 Y0.0944
X3.2788 Y0.0768
X3.2453 Y0.0632
X3.2106 Y0.0529
X3.1752 Y0.0453
X3.1395 Y0.0396
X3.1036 Y0.0355
X3.0675 Y0.0325
X3.0314 Y0.0304
X2.9952 Y0.0288
X2.9591 Y0.0277
X2.9229 Y0.0269
X2.8867 Y0.0264
X2.8505 Y0.026
X2.8144 Y0.0257
X2.7782 Y0.0255
X2.742 Y0.0253
X2.6696 Y0.0252
X2.5611 Y0.0251
X2.2354 Y0.025
X1.0776
X0.3178
X0.2816 Y0.0253
X0.2468 Y0.035
X0.2157 Y0.0535
X0.1894 Y0.0784
X0.168 Y0.1076
X0.1511 Y0.1396
X0.138 Y0.1733
X0.128 Y0.2081
X0.1205 Y0.2435
X0.1149 Y0.2792
X0.1108 Y0.3152
X0.1078 Y0.3512
X0.1056 Y0.3873
X0.1041 Y0.4235
X0.1029 Y0.4596
X0.1021 Y0.4958
X0.1015 Y0.532
X0.1011 Y0.5682
X0.1008 Y0.6043
X0.1005 Y0.6405
X0.1004 Y0.6767
X0.1002 Y0.7491
X0.1001 Y0.8576
X0.1 Y1.1109
Y1.1471
Y3.1009
X0.1047 Y3.1368
X0.1184 Y3.1703
X0.1394 Y3.1998
X0.1658 Y3.2245
X0.1959 Y3.2446
X0.2283 Y3.2605
X0.2623 Y3.273
X0.2972 Y3.2825
X0.3327 Y3.2897
X0.3685 Y3.2951
X0.4044 Y3.2991
X0.4405 Y3.302
X0.4766 Y3.3042
X0.5128 Y3.3058
X0.5489 Y3.307
X0.5851 Y3.3078
X0.6213 Y3.3084
X0.6574 Y3.3089
X0.6936 Y3.3092
X0.7298 Y3.3094
X0.766 Y3.3096
X0.8383 Y3.3098
X0.9469 Y3.3099
X1.2002 Y3.31
X2.0324
X3.0816
X3.1178 Y3.3094
X3.1528 Y3.3003
X3.1846 Y3.2829
X3.2118 Y3.2591
X3.2343 Y3.2308
X3.2524 Y3.1995
X3.2667 Y3.1662
X3.2776 Y3.1317
X3.286 Y3.0965
X3.2923 Y3.0609
X3.297 Y3.025
X3.3005 Y2.989
X3.3031 Y2.9529
X3.305 Y2.9168
X3.3064 Y2.8806
X3.3074 Y2.8445
X3.3081 Y2.8083
X3.3086 Y2.7721
X3.309 Y2.7359
X3.3093 Y2.6998
X3.3095 Y2.6636
X3.3096 Y2.6274
X3.3098 Y2.555
X3.3099 Y2.4827
X3.31 Y2.2656
Y0.4927
Y0.3118
X3.3059 Y0.2758
X3.2928 Y0.2421
X3.2723 Y0.2123
X3.2462 Y0.1872
X3.2164 Y0.1667
X3.184 Y0.1505
X3.1501 Y0.1378
X3.1153 Y0.1281
X3.0798 Y0.1208
X3.0441 Y0.1153
X3.0081 Y0.1112
X2.9721 Y0.1081
X2.936 Y0.1059
X2.8998 Y0.1043
X2.8637 Y0.1031
X2.8275 Y0.1022
X2.7913 Y0.1016
X2.7551 Y0.1012
X2.719 Y0.1008
X2.6828 Y0.1006
X2.6466 Y0.1004
X2.5742 Y0.1002
X2.4657 Y0.1001
X2.2486 Y0.1
X1.5973
X0.4033
X0.3672 Y0.1014
X0.3324 Y0.1113
X0.3009 Y0.1292
X0.2738 Y0.1532
X0.2514 Y0.1816
X0.2334 Y0.213
X0.2192 Y0.2463
X0.2082 Y0.2807
X0.1997 Y0.3159
X0.1933 Y0.3515
X0.1885 Y0.3874
X0.1849 Y0.4234
X0.1823 Y0.4595
X0.1803 Y0.4956
X0.1789 Y0.5318
X0.1778 Y0.5679
X0.177 Y0.6041
X0.1765 Y0.6403
X0.1761 Y0.6765
X0.1758 Y0.7126
X0.1756 Y0.7488
X0.1754 Y0.785
X0.1752 Y0.8574
X0.1751 Y0.9659
X0.175 Y1.2192
Y2.775
Y2.9921
X0.1757 Y3.0283
X0.1833 Y3.0636
X0.1989 Y3.0963
X0.2211 Y3.1249
X0.2482 Y3.1489
X0.2785 Y3.1685
X0.3111 Y3.1842
X0.3452 Y3.1966
X0.3801 Y3.2061
X0.4155 Y3.2134
X0.4513 Y3.2189
X0.4872 Y3.2231
X0.5232 Y3.2262
X0.5594 Y3.2285
X0.5955 Y3.2302
X0.6317 Y3.2315
X0.6678 Y3.2325
X0.704 Y3.2331
X0.7402 Y3.2336
X0.7764 Y3.234
X0.8125 Y3.2343
X0.8487 Y3.2345
X0.9211 Y3.2347
X1.0296 Y3.2349
X1.2105 Y3.235
X1.8256
X2.9834
X3.0196 Y3.2349
X3.0554 Y3.2292
X3.0888 Y3.2154
X3.1184 Y3.1946
X3.1436 Y3.1686
X3.1642 Y3.1389
X3.1808 Y3.1068
X3.1939 Y3.073
X3.2041 Y3.0383
X3.2119 Y3.003
X3.2178 Y2.9673
X3.2222 Y2.9314
X3.2256 Y2.8953
X3.228 Y2.8592
X3.2299 Y2.8231
X3.2312 Y2.787
X3.2323 Y2.7508
X3.233 Y2.7146
X3.2335 Y2.6784
X3.2339 Y2.6423
X3.2342 Y2.6061
X3.2344 Y2.5699
X3.2346 Y2.5337
X3.2348 Y2.4614
X3.2349 Y2.3528
X3.235 Y2.0995
Y0.5437
Y0.399
X3.2312 Y0.363
X3.2192 Y0.3288
X3.2 Y0.2982
X3.1751 Y0.272
X3.1461 Y0.2502
X3.1145 Y0.2327
X3.0811 Y0.2189
X3.0465 Y0.2081
X3.0113 Y0.1998
X2.9757 Y0.1935
X2.9398 Y0.1887
X2.9038 Y0.1851
X2.8677 Y0.1825
X2.8316 Y0.1805
X2.7954 Y0.179
X2.7593 Y0.1779
X2.7231 Y0.1772
X2.6869 Y0.1766
X2.6507 Y0.1761
X2.6146 Y0.1758
X2.5784 Y0.1756
X2.5422 Y0.1754
X2.4698 Y0.1752
X2.3613 Y0.1751
X2.1442 Y0.175
X1.4929
X0.516
X0.4798 Y0.1751
X0.4438 Y0.1782
X0.4093 Y0.1893
X0.3782 Y0.2077
X0.3514 Y0.232
X0.3291 Y0.2605
X0.311 Y0.2918
X0.2965 Y0.325
X0.2853 Y0.3594
X0.2766 Y0.3945
X0.2699 Y0.4301
X0.2648 Y0.4659
X0.261 Y0.5019
X0.2582 Y0.538
X0.256 Y0.5741
X0.2544 Y0.6102
X0.2533 Y0.6464
X0.2524 Y0.6826
X0.2518 Y0.7187
X0.2513 Y0.7549
X0.2509 Y0.7911
X0.2507 Y0.8273
X0.2505 Y0.8634
X0.2503 Y0.9358
X0.2501 Y1.0444
X0.25 Y1.2615
Y2.8896
X0.2501 Y2.9258
X0.2533 Y2.9619
X0.2641 Y2.9964
X0.2821 Y3.0277
X0.306 Y3.0549
X0.3342 Y3.0776
X0.3652 Y3.0962
X0.3982 Y3.111
X0.4325 Y3.1227
X0.4675 Y3.1318
X0.503 Y3.1388
X0.5388 Y3.1441
X0.5748 Y3.1481
X0.6108 Y3.1512
X0.6469 Y3.1534
X0.6831 Y3.1551
X0.7192 Y3.1564
X0.7554 Y3.1573
X0.7916 Y3.158
X0.8277 Y3.1586
X0.8639 Y3.1589
X0.9001 Y3.1592
X0.9363 Y3.1594
X0.9725 Y3.1596
X1.0448 Y3.1598
X1.1534 Y3.1599
X1.3705 Y3.16
X2.2388
X2.9263
X2.9623 Y3.1567
X2.9968 Y3.1459
X3.0281 Y3.1277
X3.0552 Y3.1037
X3.0779 Y3.0756
X3.0965 Y3.0445
X3.1113 Y3.0115
X3.1229 Y2.9772
X3.132 Y2.9422
X3.1389 Y2.9067
X3.1442 Y2.8709
X3.1482 Y2.8349
X3.1512 Y2.7989
X3.1535 Y2.7627
X3.1552 Y2.7266
X3.1564 Y2.6904
X3.1574 Y2.6543
X3.1581 Y2.6181
X3.1586 Y2.5819
X3.1589 Y2.5457
X3.1592 Y2.5096
X3.1594 Y2.4734
X3.1596 Y2.4372
X3.1598 Y2.3648
X3.1599 Y2.2563
X3.16 Y2.003
Y1.9668
Y0.5196
Y0.4834
X3.1566 Y0.4473
X3.1456 Y0.4129
X3.1274 Y0.3816
X3.1034 Y0.3545
X3.0752 Y0.3318
X3.0441 Y0.3134
X3.0111 Y0.2986
X2.9768 Y0.287
X2.9418 Y0.278
X2.9063 Y0.271
X2.8705 Y0.2658
X2.8345 Y0.2618
X2.7985 Y0.2588
X2.7624 Y0.2565
X2.7262 Y0.2548
X2.6901 Y0.2536
X2.6539 Y0.2526
X2.6177 Y0.2519
X2.5815 Y0.2514
X2.5454 Y0.251
X2.5092 Y0.2508
X2.473 Y0.2506
X2.4006 Y0.2503
X2.2921 Y0.2501
X2.1112 Y0.25
X0.7724
X0.5915
X0.5553 Y0.2502
X0.5194 Y0.2546
X0.4853 Y0.2665
X0.4544 Y0.2854
X0.4278 Y0.3099
X0.4056 Y0.3385
X0.3875 Y0.3698
X0.373 Y0.403
X0.3616 Y0.4373
X0.3527 Y0.4724
X0.3459 Y0.5079
X0.3407 Y0.5437
X0.3368 Y0.5797
X0.3338 Y0.6157
X0.3315 Y0.6518
X0.3299 Y0.688
X0.3286 Y0.7242
X0.3277 Y0.7603
X0.327 Y0.7965
X0.3265 Y0.8327
X0.3261 Y0.8689
X0.3258 Y0.905
X0.3256 Y0.9412
X0.3254 Y0.9774
X0.3252 Y1.0498
X0.3251 Y1.1583
X0.325 Y1.3754
Y1.9181
Y2.8227
X0.3255 Y2.8589
X0.3311 Y2.8946
X0.3443 Y2.9283
X0.3643 Y2.9585
X0.3895 Y2.9844
X0.4184 Y3.0061
X0.45 Y3.0238
X0.4833 Y3.0379
X0.5178 Y3.049
X0.5529 Y3.0576
X0.5885 Y3.0643
X0.6243 Y3.0694
X0.6603 Y3.0733
X0.6963 Y3.0762
X0.7324 Y3.0784
X0.7686 Y3.0801
X0.8047 Y3.0814
X0.8409 Y3.0823
X0.8771 Y3.083
X0.9133 Y3.0835
X0.9495 Y3.0839
X0.9856 Y3.0842
X1.0218 Y3.0844
X1.058 Y3.0846
X1.1304 Y3.0848
X1.2389 Y3.0849
X1.2751
X1.5645 Y3.085
X2.8309
X2.8671 Y3.0839
X2.9025 Y3.0765
X2.9355 Y3.0617
X2.9648 Y3.0404
X2.9898 Y3.0143
X3.0105 Y2.9846
X3.0273 Y2.9526
X3.0407 Y2.919
X3.0512 Y2.8843
X3.0594 Y2.8491
X3.0656 Y2.8135
X3.0704 Y2.7776
X3.0741 Y2.7416
X3.0768 Y2.7055
X3.0789 Y2.6694
X3.0805 Y2.6332
X3.0816 Y2.5971
X3.0825 Y2.5609
X3.0831 Y2.5247
X3.0836 Y2.4886
X3.084 Y2.4524
X3.0842 Y2.4162
X3.0844 Y2.38
X3.0847 Y2.3076
X3.0849 Y2.1991
X3.085 Y2.0182
Y0.788
Y0.5709
X3.0828 Y0.5348
X3.0738 Y0.4998
X3.0573 Y0.4675
X3.0349 Y0.4392
X3.0078 Y0.4151
X2.9776 Y0.3953
X2.9451 Y0.3793
X2.9112 Y0.3667
X2.8764 Y0.3567
X2.8411 Y0.349
X2.8054 Y0.3431
X2.7695 Y0.3386
X2.7334 Y0.3352
X2.6973 Y0.3326
X2.6612 Y0.3307
X2.6251 Y0.3292
X2.5889 Y0.3281
X2.5527 Y0.3273
X2.5166 Y0.3267
X2.4804 Y0.3263
X2.4442 Y0.3259
X2.408 Y0.3257
X2.3718 Y0.3255
X2.2995 Y0.3253
X2.1909 Y0.3251
X2.01 Y0.325
X1.4311
X0.6713
X0.6351 Y0.3253
X0.5992 Y0.3295
X0.5649 Y0.3411
X0.5338 Y0.3596
X0.5068 Y0.3837
X0.4841 Y0.4119
X0.4655 Y0.4429
X0.4506 Y0.4759
X0.4388 Y0.5101
X0.4296 Y0.5451
X0.4224 Y0.5805
X0.4169 Y0.6163
X0.4127 Y0.6522
X0.4096 Y0.6883
X0.4072 Y0.7244
X0.4054 Y0.7605
X0.404 Y0.7967
X0.403 Y0.8328
X0.4022 Y0.869
X0.4016 Y0.9052
X0.4012 Y0.9414
X0.4009 Y0.9775
X0.4007 Y1.0137
X0.4005 Y1.0499
X0.4003 Y1.1223
X0.4001 Y1.2308
X0.4 Y1.4117
Y2.7143
Y2.7505
X0.401 Y2.7866
X0.4079 Y2.8222
X0.4221 Y2.8554
X0.4427 Y2.8852
X0.4684 Y2.9107
X0.4976 Y2.9319
X0.5294 Y2.9492
X0.5628 Y2.9631
X0.5973 Y2.974
X0.6325 Y2.9826
X0.6681 Y2.9892
X0.7039 Y2.9942
X0.7399 Y2.9981
X0.7759 Y3.0011
X0.812 Y3.0033
X0.8482 Y3.005
X0.8843 Y3.0062
X0.9205 Y3.0072
X0.9567 Y3.0079
X0.9929 Y3.0084
X1.029 Y3.0088
X1.0652 Y3.0091
X1.1014 Y3.0094
X1.1376 Y3.0095
X1.2099 Y3.0097
X1.3185 Y3.0099
X1.5356 Y3.01
X2.7296
X2.7658 Y3.0099
X2.8018 Y3.0069
X2.8366 Y2.9969
X2.8685 Y2.9799
X2.8965 Y2.9569
X2.9202 Y2.9296
X2.9397 Y2.8991
X2.9555 Y2.8666
X2.9681 Y2.8326
X2.978 Y2.7978
X2.9856 Y2.7624
X2.9915 Y2.7268
X2.996 Y2.6909
X2.9995 Y2.6548
X3.0021 Y2.6188
X3.0041 Y2.5826
X3.0056 Y2.5465
X3.0067 Y2.5103
X3.0075 Y2.4741
X3.0082 Y2.438
X3.0086 Y2.4018
X3.009 Y2.3656
X3.0092 Y2.3294
X3.0094 Y2.2932
X3.0097 Y2.2209
X3.0099 Y2.1123
X3.01 Y1.9314
Y0.9907
Y0.6651
X3.0094 Y0.6289
X3.0036 Y0.5932
X2.9906 Y0.5594
X2.9708 Y0.5291
X2.9458 Y0.5029
X2.9171 Y0.481
X2.8856 Y0.4631
X2.8524 Y0.4487
X2.8181 Y0.4374
X2.783 Y0.4285
X2.7475 Y0.4216
X2.7117 Y0.4164
X2.6757 Y0.4123
X2.6396 Y0.4093
X2.6035 Y0.407
X2.5674 Y0.4052
X2.5312 Y0.4039
X2.4951 Y0.4029
X2.4589 Y0.4022
X2.4227 Y0.4016
X2.3865 Y0.4012
X2.3504 Y0.4009
X2.3142 Y0.4007
X2.278 Y0.4005
X2.2056 Y0.4003
X2.0971 Y0.4001
X1.88 Y0.4
X1.482
X0.7584
X0.7222 Y0.4001
X0.6861 Y0.4028
X0.6512 Y0.4123
X0.6191 Y0.429
X0.5908 Y0.4516
X0.5668 Y0.4787
X0.5469 Y0.5089
X0.5308 Y0.5413
X0.518 Y0.5751
X0.5079 Y0.6099
X0.5001 Y0.6452
X0.494 Y0.6809
X0.4894 Y0.7168
X0.4859 Y0.7528
X0.4832 Y0.7889
X0.4811 Y0.825
X0.4796 Y0.8611
X0.4784 Y0.8973
X0.4776 Y0.9335
X0.4769 Y0.9696
X0.4764 Y1.0058
X0.4761 Y1.042
X0.4758 Y1.0782
X0.4756 Y1.1144
X0.4753 Y1.1867
X0.4751 Y1.2953
X0.475 Y1.4762
Y1.5124
Y2.6702
X0.4759 Y2.7064
X0.4821 Y2.742
X0.4956 Y2.7756
X0.5156 Y2.8057
X0.5407 Y2.8318
X0.5696 Y2.8536
X0.6011 Y2.8714
X0.6343 Y2.8858
X0.6686 Y2.8971
X0.7037 Y2.906
X0.7392 Y2.9129
X0.775 Y2.9182
X0.811 Y2.9223
X0.847 Y2.9254
X0.8831 Y2.9278
X0.9193 Y2.9296
X0.9554 Y2.9309
X0.9916 Y2.9319
X1.0278 Y2.9327
X1.0639 Y2.9333
X1.1001 Y2.9337
X1.1363 Y2.934
X1.1725 Y2.9343
X1.2087 Y2.9345
X1.281 Y2.9347
X1.3896 Y2.9349
X1.5705 Y2.935
X2.6559
X2.6921 Y2.9347
X2.7281 Y2.9311
X2.7627 Y2.9205
X2.7943 Y2.9029
X2.8221 Y2.8797
X2.8455 Y2.8521
X2.8649 Y2.8215
X2.8805 Y2.7889
X2.893 Y2.7549
X2.9028 Y2.7201
X2.9104 Y2.6847
X2.9163 Y2.649
X2.9208 Y2.6131
X2.9243 Y2.5771
X2.9269 Y2.541
X2.9289 Y2.5049
X2.9304 Y2.4688
X2.9316 Y2.4326
X2.9324 Y2.3964
X2.9331 Y2.3603
X2.9336 Y2.3241
X2.9339 Y2.2879
X2.9342 Y2.2517
X2.9344 Y2.2155
X2.9347 Y2.1432
X2.9349 Y2.0346
X2.935 Y1.8537
Y0.7683
X2.9349 Y0.7321
X2.9333 Y0.6959
X2.9256 Y0.6606
X2.9107 Y0.6276
X2.8895 Y0.5983
X2.8634 Y0.5732
X2.8339 Y0.5523
X2.802 Y0.5352
X2.7685 Y0.5216
X2.734 Y0.5108
X2.6988 Y0.5023
X2.6632 Y0.4958
X2.6274 Y0.4908
X2.5914 Y0.4869
X2.5553 Y0.484
X2.5192 Y0.4818
X2.4831 Y0.4801
X2.4469 Y0.4788
X2.4107 Y0.4779
X2.3746 Y0.4771
X2.3384 Y0.4766
X2.3022 Y0.4762
X2.266 Y0.4759
X2.2298 Y0.4757
X2.1937 Y0.4755
X2.1213 Y0.4753
X2.0128 Y0.4751
X1.7957 Y0.475
X0.9273
X0.8188
X0.7826 Y0.4757
X0.7468 Y0.4813
X0.713 Y0.4941
X0.6824 Y0.5135
X0.656 Y0.5382
X0.6337 Y0.5667
X0.6155 Y0.5979
X0.6008 Y0.631
X0.5891 Y0.6652
X0.58 Y0.7002
X0.5729 Y0.7357
X0.5674 Y0.7715
X0.5632 Y0.8074
X0.5599 Y0.8435
X0.5575 Y0.8796
X0.5557 Y0.9157
X0.5542 Y0.9519
X0.5532 Y0.988
X0.5524 Y1.0242
X0.5518 Y1.0604
X0.5513 Y1.0965
X0.551 Y1.1327
X0.5508 Y1.1689
X0.5506 Y1.2051
X0.5503 Y1.2775
X0.5501 Y1.386
X0.55 Y1.5669
Y2.2182
Y2.58
X0.5502 Y2.6162
X0.554 Y2.6522
X0.5647 Y2.6867
X0.5823 Y2.7183
X0.6056 Y2.7461
X0.6331 Y2.7696
X0.6636 Y2.789
X0.6962 Y2.8048
X0.7301 Y2.8173
X0.7649 Y2.8272
X0.8002 Y2.8349
X0.8359 Y2.8409
X0.8718 Y2.8455
X0.9078 Y2.849
X0.9439 Y2.8517
X0.98 Y2.8537
X1.0162 Y2.8553
X1.0523 Y2.8564
X1.0885 Y2.8573
X1.1247 Y2.858
X1.1609 Y2.8585
X1.1971 Y2.8589
X1.2332 Y2.8592
X1.2694 Y2.8594
X1.3418 Y2.8596
X1.4141 Y2.8598
X1.5589 Y2.8599
X1.9207 Y2.86
X2.0292
X2.572
X2.6081 Y2.8599
X2.6442 Y2.8573
X2.6793 Y2.8482
X2.7116 Y2.8321
X2.7403 Y2.81
X2.7647 Y2.7833
X2.7851 Y2.7534
X2.8016 Y2.7212
X2.8148 Y2.6875
X2.8252 Y2.6528
X2.8334 Y2.6176
X2.8397 Y2.582
X2.8446 Y2.5461
X2.8483 Y2.5101
X2.8512 Y2.4741
X2.8533 Y2.4379
X2.855 Y2.4018
X2.8562 Y2.3656
X2.8572 Y2.3295
X2.8579 Y2.2933
X2.8584 Y2.2571
X2.8588 Y2.2209
X2.8591 Y2.1848
X2.8593 Y2.1486
X2.8595 Y2.1124
X2.8597 Y2.04
X2.8599 Y1.9315
X2.86 Y1.7506
Y1.5697
Y0.846
X2.8599 Y0.8098
X2.8584 Y0.7737
X2.8509 Y0.7383
X2.8362 Y0.7052
X2.8154 Y0.6757
X2.7896 Y0.6503
X2.7603 Y0.6291
X2.7285 Y0.6118
X2.6951 Y0.5979
X2.6606 Y0.5869
X2.6255 Y0.5782
X2.5899 Y0.5716
X2.5541 Y0.5664
X2.5182 Y0.5624
X2.4821 Y0.5594
X2.446 Y0.5571
X2.4098 Y0.5554
X2.3737 Y0.554
X2.3375 Y0.553
X2.3013 Y0.5523
X2.2652 Y0.5517
X2.229 Y0.5513
X2.1928 Y0.551
X2.1566 Y0.5507
X2.1204 Y0.5505
X2.0481 Y0.5503
X1.9395 Y0.5501
X1.7586 Y0.55
X0.9264
X0.8903 Y0.5501
X0.8541 Y0.5511
X0.8185 Y0.5577
X0.785 Y0.5714
X0.7549 Y0.5914
X0.7289 Y0.6166
X0.7071 Y0.6455
X0.6893 Y0.6769
X0.6749 Y0.7101
X0.6635 Y0.7445
X0.6545 Y0.7795
X0.6476 Y0.815
X0.6422 Y0.8508
X0.6381 Y0.8868
X0.6349 Y0.9228
X0.6325 Y0.9589
X0.6306 Y0.995
X0.6293 Y1.0312
X0.6282 Y1.0674
X0.6274 Y1.1035
X0.6268 Y1.1397
X0.6264 Y1.1759
X0.626 Y1.2121
X0.6258 Y1.2483
X0.6256 Y1.2844
X0.6253 Y1.3568
X0.6251 Y1.4653
Y1.5377
X0.625 Y1.8272
Y2.4784
Y2.5146
X0.6258 Y2.5508
X0.6315 Y2.5865
X0.6443 Y2.6204
X0.6636 Y2.651
X0.6882 Y2.6775
X0.7167 Y2.6999
X0.7478 Y2.7182
X0.7808 Y2.7331
X0.815 Y2.7449
X0.85 Y2.7542
X0.8854 Y2.7614
X0.9212 Y2.767
X0.9571 Y2.7713
X0.9931 Y2.7746
X1.0292 Y2.7771
X1.0654 Y2.7791
X1.1015 Y2.7805
X1.1377 Y2.7816
X1.1739 Y2.7824
X1.21 Y2.7831
X1.2462 Y2.7836
X1.2824 Y2.7839
X1.3186 Y2.7842
X1.3548 Y2.7844
X1.4271 Y2.7847
X1.4995 Y2.7848
X1.6442 Y2.7849
X2.006 Y2.785
X2.5126
X2.5487 Y2.7843
X2.5845 Y2.779
X2.6185 Y2.7666
X2.6493 Y2.7476
X2.6761 Y2.7233
X2.6987 Y2.695
X2.7173 Y2.664
X2.7323 Y2.6311
X2.7443 Y2.5969
X2.7537 Y2.562
X2.7611 Y2.5266
X2.7667 Y2.4908
X2.7711 Y2.4549
X2.7745 Y2.4189
X2.777 Y2.3828
X2.779 Y2.3467
X2.7804 Y2.3105
X2.7816 Y2.2744
X2.7824 Y2.2382
X2.7831 Y2.202
X2.7835 Y2.1658
X2.7839 Y2.1296
X2.7842 Y2.0935
X2.7844 Y2.0573
X2.7847 Y1.9849
Y1.9487
X2.7849 Y1.8402
X2.785 Y1.6231
Y0.8995
X2.7844 Y0.8633
X2.7795 Y0.8274
X2.7676 Y0.7933
X2.7489 Y0.7623
X2.7248 Y0.7353
X2.6968 Y0.7125
X2.6659 Y0.6936
X2.633 Y0.6784
X2.5989 Y0.6663
X2.564 Y0.6567
X2.5286 Y0.6493
X2.4929 Y0.6435
X2.457 Y0.6391
X2.421 Y0.6357
X2.3849 Y0.6331
X2.3488 Y0.6311
X2.3126 Y0.6296
X2.2765 Y0.6285
X2.2403 Y0.6276
X2.2041 Y0.627
X2.1679 Y0.6265
X2.1317 Y0.6261
X2.0956 Y0.6258
X2.0594 Y0.6256
X1.987 Y0.6254
X1.9147 Y0.6252
X1.7699 Y0.6251
X1.4081 Y0.625
X0.9739
X0.9378 Y0.6257
X0.9019 Y0.6308
X0.8678 Y0.6429
X0.8369 Y0.6617
X0.81 Y0.6858
X0.7872 Y0.7139
X0.7684 Y0.7449
X0.7533 Y0.7777
X0.7412 Y0.8118
X0.7317 Y0.8468
X0.7243 Y0.8822
X0.7185 Y0.9179
X0.7141 Y0.9538
X0.7107 Y0.9898
X0.7081 Y1.0259
X0.7061 Y1.062
X0.7046 Y1.0982
X0.7035 Y1.1344
X0.7026 Y1.1705
X0.702 Y1.2067
X0.7015 Y1.2429
X0.7011 Y1.2791
X0.7008 Y1.3152
X0.7006 Y1.3514
X0.7004 Y1.4238
X0.7003 Y1.46
X0.7001 Y1.5685
X0.7 Y1.7856
Y2.4007
Y2.4369
X0.7007 Y2.473
X0.7061 Y2.5088
X0.7185 Y2.5428
X0.7375 Y2.5736
X0.7617 Y2.6005
X0.79 Y2.6231
X0.821 Y2.6418
X0.8538 Y2.6569
X0.888 Y2.6689
X0.9229 Y2.6783
X0.9583 Y2.6857
X0.994 Y2.6915
X1.03 Y2.6959
X1.066 Y2.6993
X1.1021 Y2.7019
X1.1382 Y2.7038
X1.1743 Y2.7053
X1.2105 Y2.7065
X1.2467 Y2.7073
X1.2829 Y2.708
X1.319 Y2.7085
X1.3552 Y2.7089
X1.3914 Y2.7091
X1.4276 Y2.7094
X1.4999 Y2.7096
X1.5723 Y2.7098
X1.717 Y2.7099
X2.0427 Y2.71
X2.4045
X2.4407 Y2.7099
X2.4768 Y2.709
X2.5125 Y2.703
X2.5462 Y2.6898
X2.5767 Y2.6703
X2.603 Y2.6455
X2.6252 Y2.6169
X2.6435 Y2.5857
X2.6582 Y2.5527
X2.67 Y2.5184
X2.6792 Y2.4834
X2.6864 Y2.448
X2.692 Y2.4122
X2.6963 Y2.3763
X2.6996 Y2.3403
X2.7021 Y2.3042
X2.704 Y2.2681
X2.7055 Y2.2319
X2.7066 Y2.1957
X2.7074 Y2.1596
X2.7081 Y2.1234
X2.7085 Y2.0872
X2.7089 Y2.051
X2.7092 Y2.0148
X2.7094 Y1.9787
X2.7096 Y1.9063
X2.7098 Y1.8339
X2.7099 Y1.7254
X2.71 Y1.4721
Y1.0018
X2.7099 Y0.9656
X2.7087 Y0.9294
X2.702 Y0.8939
X2.6881 Y0.8604
X2.668 Y0.8304
X2.6427 Y0.8044
X2.6138 Y0.7827
X2.5824 Y0.7648
X2.5492 Y0.7504
X2.5149 Y0.739
X2.4798 Y0.73
X2.4443 Y0.7229
X2.4085 Y0.7175
X2.3726 Y0.7133
X2.3366 Y0.7101
X2.3005 Y0.7077
X2.2643 Y0.7058
X2.2282 Y0.7044
X2.192 Y0.7033
X2.1558 Y0.7025
X2.1197 Y0.7019
X2.0835 Y0.7014
X2.0473 Y0.7011
X2.0111 Y0.7008
X1.9749 Y0.7006
X1.9026 Y0.7003
X1.794 Y0.7001
X1.6131 Y0.7
X1.0704
X1.0342 Y0.7001
X0.9981 Y0.702
X0.9628 Y0.7101
X0.9299 Y0.7251
X0.9006 Y0.7463
X0.8754 Y0.7723
X0.8543 Y0.8017
X0.8371 Y0.8335
X0.8233 Y0.867
X0.8123 Y0.9014
X0.8036 Y0.9366
X0.7969 Y0.9721
X0.7917 Y1.0079
X0.7877 Y1.0439
X0.7847 Y1.08
X0.7823 Y1.1161
X0.7806 Y1.1522
X0.7792 Y1.1884
X0.7782 Y1.2245
X0.7774 Y1.2607
X0.7768 Y1.2969
X0.7764 Y1.3331
X0.776 Y1.3692
X0.7758 Y1.4054
X0.7756 Y1.4416
X0.7753 Y1.514
X0.7751 Y1.6225
X0.775 Y1.8034
Y1.9843
Y2.3461
X0.7752 Y2.3823
X0.7781 Y2.4184
X0.7875 Y2.4533
X0.8038 Y2.4856
X0.826 Y2.5142
X0.8527 Y2.5386
X0.8826 Y2.559
X0.9148 Y2.5755
X0.9484 Y2.5888
X0.9831 Y2.5994
X1.0183 Y2.6076
X1.0539 Y2.614
X1.0897 Y2.619
X1.1257 Y2.6228
X1.1618 Y2.6257
X1.1979 Y2.628
X1.234 Y2.6297
X1.2702 Y2.631
X1.3064 Y2.632
X1.3425 Y2.6327
X1.3787 Y2.6333
X1.4149 Y2.6337
X1.4511 Y2.634
X1.4873 Y2.6343
X1.5234 Y2.6344
X1.5958 Y2.6347
X1.7043 Y2.6349
X1.8853 Y2.635
X2.2471
X2.3556
X2.3918 Y2.6345
X2.4277 Y2.6302
X2.4621 Y2.619
X2.4935 Y2.601
X2.521 Y2.5774
X2.5443 Y2.5498
X2.5637 Y2.5192
X2.5793 Y2.4866
X2.5919 Y2.4527
X2.6018 Y2.4179
X2.6095 Y2.3825
X2.6155 Y2.3468
X2.6201 Y2.3109
X2.6237 Y2.2749
X2.6264 Y2.2389
X2.6285 Y2.2027
X2.6301 Y2.1666
X2.6313 Y2.1304
X2.6322 Y2.0943
X2.6329 Y2.0581
X2.6334 Y2.0219
X2.6338 Y1.9857
X2.6341 Y1.9495
X2.6343 Y1.9134
X2.6345 Y1.8772
X2.6347 Y1.8048
X2.6349 Y1.6963
X2.635 Y1.5154
Y1.0812
Y1.045
X2.634 Y1.0088
X2.6279 Y0.9732
X2.6148 Y0.9394
X2.5953 Y0.909
X2.5706 Y0.8825
X2.5421 Y0.8602
X2.5109 Y0.8419
X2.4779 Y0.8271
X2.4437 Y0.8154
X2.4087 Y0.8061
X2.3732 Y0.7988
X2.3375 Y0.7932
X2.3016 Y0.7889
X2.2656 Y0.7856
X2.2295 Y0.783
X2.1933 Y0.7811
X2.1572 Y0.7796
X2.121 Y0.7785
X2.0848 Y0.7776
X2.0487 Y0.777
X2.0125 Y0.7765
X1.9763 Y0.7761
X1.9401 Y0.7759
X1.9039 Y0.7756
X1.8316 Y0.7754
X1.7592 Y0.7752
X1.6145 Y0.7751
X1.2889 Y0.775
X1.1441
X1.1079 Y0.7752
X1.0718 Y0.7774
X1.0366 Y0.7857
X1.0039 Y0.8011
X0.9747 Y0.8225
X0.9497 Y0.8486
X0.9288 Y0.8782
X0.9117 Y0.9101
X0.898 Y0.9436
X0.8871 Y0.9781
X0.8785 Y1.0132
X0.8719 Y1.0488
X0.8667 Y1.0846
X0.8627 Y1.1205
X0.8597 Y1.1566
X0.8573 Y1.1927
X0.8556 Y1.2288
X0.8542 Y1.265
X0.8532 Y1.3012
X0.8524 Y1.3373
X0.8518 Y1.3735
X0.8514 Y1.4097
X0.851 Y1.4459
X0.8508 Y1.4821
X0.8506 Y1.5182
X0.8503 Y1.5906
X0.8501 Y1.6992
X0.85 Y1.8801
Y2.2781
X0.8504 Y2.3142
X0.8545 Y2.3502
X0.8654 Y2.3847
X0.8829 Y2.4163
X0.9061 Y2.4441
X0.9335 Y2.4677
X0.964 Y2.4873
X0.9965 Y2.5032
X1.0304 Y2.5159
X1.0651 Y2.526
X1.1004 Y2.5338
X1.1361 Y2.54
X1.172 Y2.5447
X1.208 Y2.5483
X1.244 Y2.5511
X1.2801 Y2.5533
X1.3163 Y2.5549
X1.3525 Y2.5561
X1.3886 Y2.5571
X1.4248 Y2.5578
X1.461 Y2.5583
X1.4972 Y2.5587
X1.5333 Y2.559
X1.5695 Y2.5593
X1.6057 Y2.5595
X1.6781 Y2.5597
X1.7866 Y2.5599
X1.9675 Y2.56
X2.257
X2.2932 Y2.5599
X2.3293 Y2.5586
X2.3649 Y2.5519
X2.3983 Y2.5382
X2.4284 Y2.5181
X2.4545 Y2.493
X2.4764 Y2.4642
X2.4943 Y2.4328
X2.5088 Y2.3996
X2.5204 Y2.3653
X2.5295 Y2.3303
X2.5366 Y2.2948
X2.5421 Y2.2591
X2.5464 Y2.2231
X2.5496 Y2.1871
X2.5521 Y2.151
X2.554 Y2.1149
X2.5555 Y2.0787
X2.5566 Y2.0426
X2.5574 Y2.0064
X2.558 Y1.9702
X2.5585 Y1.934
X2.5589 Y1.8979
X2.5592 Y1.8617
X2.5594 Y1.8255
X2.5596 Y1.7531
X2.5598 Y1.6808
X2.5599 Y1.536
X2.56 Y1.4637
Y1.138
X2.5598 Y1.1019
X2.5567 Y1.0658
X2.547 Y1.0309
X2.5305 Y0.9987
X2.5082 Y0.9703
X2.4814 Y0.946
X2.4514 Y0.9258
X2.4192 Y0.9093
X2.3855 Y0.896
X2.3509 Y0.8855
X2.3156 Y0.8773
X2.28 Y0.8709
X2.2442 Y0.866
X2.2082 Y0.8622
X2.1721 Y0.8593
X2.136 Y0.857
X2.0999 Y0.8553
X2.0637 Y0.854
X2.0275 Y0.8531
X1.9914 Y0.8523
X1.9552 Y0.8518
X1.919 Y0.8513
X1.8828 Y0.851
X1.8466 Y0.8508
X1.8105 Y0.8506
X1.7381 Y0.8503
X1.6296 Y0.8501
X1.4486 Y0.85
X1.2316
X1.1954
X1.1592 Y0.8511
X1.1235 Y0.8572
X1.0898 Y0.8702
X1.0594 Y0.8898
X1.0329 Y0.9145
X1.0106 Y0.943
X0.9923 Y0.9742
X0.9774 Y1.0072
X0.9656 Y1.0414
X0.9563 Y1.0763
X0.949 Y1.1118
X0.9434 Y1.1475
X0.939 Y1.1834
X0.9357 Y1.2195
X0.9331 Y1.2556
X0.9312 Y1.2917
X0.9297 Y1.3278
X0.9285 Y1.364
X0.9277 Y1.4002
X0.927 Y1.4364
X0.9265 Y1.4725
X0.9262 Y1.5087
X0.9259 Y1.5449
X0.9257 Y1.5811
X0.9254 Y1.6534
X0.9252 Y1.7258
X0.9251 Y1.8705
X0.925 Y2.16
Y2.1962
X0.9253 Y2.2324
X0.9283 Y2.2684
X0.9378 Y2.3033
X0.9543 Y2.3355
X0.9766 Y2.3641
X1.0033 Y2.3885
X1.0332 Y2.4088
X1.0654 Y2.4253
X1.099 Y2.4386
X1.1336 Y2.4492
X1.1689 Y2.4574
X1.2045 Y2.4639
X1.2403 Y2.4688
X1.2763 Y2.4727
X1.3124 Y2.4756
X1.3485 Y2.4779
X1.3846 Y2.4796
X1.4208 Y2.4809
X1.4569 Y2.4819
X1.4931 Y2.4826
X1.5293 Y2.4832
X1.5655 Y2.4837
X1.6016 Y2.484
X1.6378 Y2.4842
X1.674 Y2.4844
X1.7464 Y2.4847
X1.8549 Y2.4849
X2.0358 Y2.485
X2.1806
X2.2167 Y2.4849
X2.2529 Y2.4838
X2.2885 Y2.4772
X2.322 Y2.4636
X2.3522 Y2.4438
X2.3785 Y2.4188
X2.4005 Y2.3901
X2.4186 Y2.3588
X2.4333 Y2.3257
X2.4449 Y2.2915
X2.4541 Y2.2565
X2.4613 Y2.221
X2.4668 Y2.1852
X2.4711 Y2.1493
X2.4744 Y2.1133
X2.477 Y2.0772
X2.4789 Y2.0411
X2.4804 Y2.0049
X2.4815 Y1.9688
X2.4823 Y1.9326
X2.483 Y1.8964
X2.4835 Y1.8602
X2.4838 Y1.824
X2.4841 Y1.7879
X2.4843 Y1.7517
X2.4846 Y1.6793
X2.4848 Y1.607
X2.4849 Y1.4622
Y1.426
X2.485 Y1.209
X2.4846 Y1.1728
X2.4808 Y1.1368
X2.4703 Y1.1022
X2.453 Y1.0704
X2.4301 Y1.0424
X2.4029 Y1.0186
X2.3726 Y0.9988
X2.3401 Y0.9827
X2.3063 Y0.9698
X2.2716 Y0.9596
X2.2363 Y0.9516
X2.2007 Y0.9454
X2.1648 Y0.9406
X2.1288 Y0.9369
X2.0928 Y0.9341
X2.0567 Y0.9319
X2.0205 Y0.9302
X1.9844 Y0.929
X1.9482 Y0.928
X1.912 Y0.9273
X1.8758 Y0.9267
X1.8397 Y0.9263
X1.8035 Y0.926
X1.7673 Y0.9257
X1.7311 Y0.9256
X1.6587 Y0.9253
X1.5502 Y0.9251
X1.3693 Y0.925
X1.2969
X1.2607 Y0.9252
X1.2246 Y0.9271
X1.1893 Y0.9351
X1.1564 Y0.9501
X1.127 Y0.9711
X1.1016 Y0.997
X1.0805 Y1.0263
X1.0631 Y1.0581
X1.0491 Y1.0914
X1.038 Y1.1259
X1.0293 Y1.161
X1.0225 Y1.1965
X1.0172 Y1.2323
X1.0131 Y1.2683
X1.01 Y1.3043
X1.0076 Y1.3404
X1.0058 Y1.3765
X1.0044 Y1.4127
X1.0033 Y1.4489
X1.0025 Y1.485
X1.0019 Y1.5212
X1.0014 Y1.5574
X1.0011 Y1.5936
X1.0008 Y1.6298
X1.0006 Y1.6659
X1.0004 Y1.7383
X1.0002 Y1.8468
X1. Y2.0278
Y2.1001
X1.0001 Y2.1363
X1.0009 Y2.1725
X1.0065 Y2.2082
X1.019 Y2.2422
X1.0381 Y2.2729
X1.0624 Y2.2997
X1.0906 Y2.3223
X1.1216 Y2.341
X1.1545 Y2.3562
X1.1886 Y2.3682
X1.2235 Y2.3778
X1.2589 Y2.3852
X1.2946 Y2.391
X1.3305 Y2.3955
X1.3665 Y2.3989
X1.4026 Y2.4016
X1.4387 Y2.4036
X1.4749 Y2.4051
X1.5111 Y2.4063
X1.5472 Y2.4072
X1.5834 Y2.4079
X1.6196 Y2.4084
X1.6558 Y2.4088
X1.6919 Y2.4091
X1.7281 Y2.4093
X1.7643 Y2.4095
X1.8367 Y2.4097
X1.909 Y2.4098
X2.0538 Y2.4099
X2.1261 Y2.41
X2.1623 Y2.4096
X2.1983 Y2.4058
X2.2329 Y2.3952
X2.2646 Y2.3779
X2.2926 Y2.3549
X2.3164 Y2.3277
X2.3362 Y2.2974
X2.3523 Y2.2649
X2.3651 Y2.2311
X2.3753 Y2.1964
X2.3833 Y2.1611
X2.3896 Y2.1255
X2.3944 Y2.0896
X2.3981 Y2.0536
X2.4009 Y2.0176
X2.4031 Y1.9815
X2.4048 Y1.9453
X2.406 Y1.9092
X2.407 Y1.873
X2.4077 Y1.8368
X2.4083 Y1.8006
X2.4087 Y1.7645
X2.409 Y1.7283
X2.4092 Y1.6921
X2.4094 Y1.6559
X2.4097 Y1.5835
X2.4099 Y1.475
X2.41 Y1.2941
X2.4099 Y1.2579
X2.4074 Y1.2218
X2.3989 Y1.1867
X2.3834 Y1.154
X2.3618 Y1.1249
X2.3357 Y1.0999
X2.3061 Y1.079
X2.2742 Y1.0619
X2.2408 Y1.0482
X2.2063 Y1.0373
X2.1711 Y1.0287
X2.1355 Y1.022
X2.0997 Y1.0168
X2.0638 Y1.0128
X2.0277 Y1.0098
X1.9916 Y1.0074
X1.9555 Y1.0057
X1.9193 Y1.0043
X1.8832 Y1.0033
X1.847 Y1.0025
X1.8108 Y1.0019
X1.7746 Y1.0014
X1.7384 Y1.0011
X1.7023 Y1.0008
X1.6661 Y1.0006
X1.5937 Y1.0004
X1.4852 Y1.0002
X1.3766 Y1.0001
X1.3404
X1.3043 Y1.0016
X1.2688 Y1.0088
X1.2355 Y1.0229
X1.2056 Y1.0433
X1.1798 Y1.0686
X1.158 Y1.0975
X1.1402 Y1.129
X1.1258 Y1.1622
X1.1144 Y1.1965
X1.1054 Y1.2316
X1.0983 Y1.267
X1.0928 Y1.3028
X1.0886 Y1.3388
X1.0854 Y1.3748
X1.0829 Y1.4109
X1.081 Y1.447
X1.0796 Y1.4832
X1.0785 Y1.5193
X1.0776 Y1.5555
X1.077 Y1.5917
X1.0765 Y1.6279
X1.0761 Y1.664
X1.0759 Y1.7002
X1.0757 Y1.7364
X1.0754 Y1.8088
X1.0752 Y1.8811
X1.0751 Y1.9897
Y2.0259
Y2.062
X1.076 Y2.0982
X1.0818 Y2.1339
X1.0945 Y2.1678
X1.1137 Y2.1985
X1.1381 Y2.2252
X1.1664 Y2.2477
X1.1974 Y2.2663
X1.2303 Y2.2814
X1.2645 Y2.2934
X1.2994 Y2.3029
X1.3348 Y2.3103
X1.3705 Y2.3161
X1.4064 Y2.3205
X1.4424 Y2.324
X1.4785 Y2.3266
X1.5146 Y2.3286
X1.5508 Y2.3301
X1.587 Y2.3313
X1.6231 Y2.3322
X1.6593 Y2.3329
X1.6955 Y2.3334
X1.7317 Y2.3338
X1.7678 Y2.3341
X1.804 Y2.3343
X1.8402 Y2.3345
X1.9126 Y2.3347
X2.0211 Y2.3349
X2.0573
X2.0935 Y2.3343
X2.1293 Y2.3293
X2.1635 Y2.3175
X2.1947 Y2.2992
X2.2219 Y2.2754
X2.245 Y2.2475
X2.2641 Y2.2168
X2.2796 Y2.1841
X2.292 Y2.1501
X2.3018 Y2.1152
X2.3094 Y2.0799
X2.3154 Y2.0442
X2.32 Y2.0083
X2.3236 Y1.9723
X2.3263 Y1.9362
X2.3284 Y1.9001
X2.33 Y1.8639
X2.3312 Y1.8278
X2.3321 Y1.7916
X2.3328 Y1.7554
X2.3333 Y1.7193
X2.3337 Y1.6831
X2.334 Y1.6469
X2.3343 Y1.6107
X2.3345 Y1.5745
X2.3346 Y1.5384
X2.3348 Y1.466
X2.3349 Y1.3936
Y1.3574
X2.3345 Y1.3213
X2.3303 Y1.2853
X2.3194 Y1.2508
X2.3019 Y1.2192
X2.2787 Y1.1914
X2.2513 Y1.1678
X2.2209 Y1.1482
X2.1884 Y1.1322
X2.1546 Y1.1195
X2.1198 Y1.1094
X2.0845 Y1.1014
X2.0489 Y1.0953
X2.013 Y1.0905
X1.977 Y1.0868
X1.9409 Y1.084
X1.9048 Y1.0819
X1.8687 Y1.0802
X1.8325 Y1.079
X1.7963 Y1.078
X1.7602 Y1.0773
X1.724 Y1.0767
X1.6878 Y1.0763
X1.6516 Y1.076
X1.6154 Y1.0757
X1.5793 Y1.0756
X1.5069 Y1.0753
X1.4345 Y1.0752
X1.3983 Y1.0755
X1.3624 Y1.0793
X1.3277 Y1.0898
X1.2959 Y1.107
X1.2679 Y1.1299
X1.244 Y1.1571
X1.2242 Y1.1874
X1.2081 Y1.2197
X1.1951 Y1.2535
X1.1849 Y1.2882
X1.1769 Y1.3235
X1.1706 Y1.3591
X1.1658 Y1.395
X1.162 Y1.431
X1.1592 Y1.4671
X1.157 Y1.5032
X1.1553 Y1.5393
X1.154 Y1.5755
X1.1531 Y1.6116
X1.1523 Y1.6478
X1.1518 Y1.684
X1.1513 Y1.7202
X1.151 Y1.7564
X1.1508 Y1.7925
X1.1506 Y1.8287
X1.1503 Y1.9011
X1.1502 Y1.9734
X1.1504 Y2.0096
X1.1539 Y2.0456
X1.164 Y2.0804
X1.1809 Y2.1124
X1.2036 Y2.1406
X1.2306 Y2.1647
X1.2607 Y2.1847
X1.293 Y2.2011
X1.3267 Y2.2142
X1.3613 Y2.2246
X1.3966 Y2.2327
X1.4322 Y2.2391
X1.4681 Y2.244
X1.504 Y2.2478
X1.5401 Y2.2507
X1.5762 Y2.2529
X1.6124 Y2.2546
X1.6485 Y2.2559
X1.6847 Y2.2569
X1.7209 Y2.2576
X1.757 Y2.2582
X1.7932 Y2.2586
X1.8294 Y2.259
X1.8656 Y2.2592
X1.9018 Y2.2594
X1.938 Y2.2596
X1.9741 Y2.2597
X2.0103 Y2.2594
X2.0463 Y2.2558
X2.081 Y2.2457
X2.113 Y2.2286
X2.1411 Y2.2059
X2.1652 Y2.1789
X2.1851 Y2.1487
X2.2014 Y2.1164
X2.2145 Y2.0826
X2.2248 Y2.048
X2.2329 Y2.0127
X2.2392 Y1.9771
X2.2441 Y1.9412
X2.2479 Y1.9052
X2.2507 Y1.8692
X2.253 Y1.8331
X2.2546 Y1.7969
X2.2559 Y1.7608
X2.2569 Y1.7246
X2.2577 Y1.6884
X2.2582 Y1.6522
X2.2587 Y1.6161
X2.259 Y1.5799
X2.2592 Y1.5437
X2.2594 Y1.5075
X2.2596 Y1.4713
X2.2597 Y1.4351
X2.2593 Y1.399
X2.2557 Y1.363
X2.2454 Y1.3283
X2.2282 Y1.2964
X2.2054 Y1.2683
X2.1783 Y1.2444
X2.1481 Y1.2245
X2.1157 Y1.2083
X2.082 Y1.1953
X2.0473 Y1.1851
X2.012 Y1.177
X1.9764 Y1.1707
X1.9405 Y1.1658
X1.9045 Y1.1621
X1.8685 Y1.1592
X1.8323 Y1.157
X1.7962 Y1.1553
X1.76 Y1.1541
X1.7239 Y1.1531
X1.6877 Y1.1523
X1.6515 Y1.1518
X1.6153 Y1.1513
X1.5792 Y1.151
X1.543 Y1.1508
X1.5068 Y1.1506
X1.4706 Y1.151
X1.4347 Y1.1552
X1.4002 Y1.1662
X1.3687 Y1.1839
X1.3409 Y1.2071
X1.3174 Y1.2346
X1.2979 Y1.2651
X1.282 Y1.2976
X1.2693 Y1.3315
X1.2592 Y1.3662
X1.2514 Y1.4015
X1.2452 Y1.4372
X1.2405 Y1.473
X1.2368 Y1.509
X1.234 Y1.5451
X1.2318 Y1.5812
X1.2302 Y1.6174
X1.229 Y1.6535
X1.228 Y1.6897
X1.2273 Y1.7259
X1.2267 Y1.7621
X1.2263 Y1.7982
X1.226 Y1.8344
X1.2258 Y1.8706
X1.2256 Y1.9068
X1.2261 Y1.943
X1.2309 Y1.9788
X1.2427 Y2.013
X1.2609 Y2.0443
X1.2847 Y2.0716
X1.3125 Y2.0947
X1.3432 Y2.1138
X1.3759 Y2.1294
X1.4099 Y2.1418
X1.4447 Y2.1516
X1.4801 Y2.1593
X1.5158 Y2.1653
X1.5516 Y2.1699
X1.5876 Y2.1735
X1.6237 Y2.1762
X1.6598 Y2.1783
X1.696 Y2.1799
X1.7321 Y2.1811
X1.7683 Y2.1821
X1.8045 Y2.1828
X1.8407 Y2.1833
X1.8769 Y2.1837
X1.913 Y2.184
X1.9492 Y2.1832
X1.9849 Y2.1773
X2.0187 Y2.1645
X2.0493 Y2.1451
X2.0759 Y2.1206
X2.0983 Y2.0922
X2.1168 Y2.0611
X2.1317 Y2.0281
X2.1437 Y1.994
X2.1531 Y1.959
X2.1605 Y1.9236
X2.1662 Y1.8879
X2.1706 Y1.852
X2.174 Y1.816
X2.1766 Y1.7799
X2.1786 Y1.7437
X2.1802 Y1.7076
X2.1813 Y1.6714
X2.1822 Y1.6353
X2.1829 Y1.5991
X2.1834 Y1.5629
X2.1838 Y1.5267
X2.184 Y1.4905
X2.1826 Y1.4544
X2.1755 Y1.4189
X2.1615 Y1.3856
X2.1411 Y1.3557
X2.1158 Y1.3298
X2.0868 Y1.3081
X2.0553 Y1.2903
X2.0221 Y1.2759
X1.9878 Y1.2645
X1.9528 Y1.2554
X1.9173 Y1.2484
X1.8815 Y1.2429
X1.8456 Y1.2387
X1.8096 Y1.2354
X1.7735 Y1.233
X1.7373 Y1.231
X1.7012 Y1.2296
X1.665 Y1.2285
X1.6288 Y1.2277
X1.5927 Y1.227
X1.5565 Y1.2267
X1.5204 Y1.2291
X1.4853 Y1.2378
X1.4527 Y1.2536
X1.4238 Y1.2753
X1.399 Y1.3017
X1.3783 Y1.3313
X1.3613 Y1.3633
X1.3477 Y1.3968
X1.3369 Y1.4314
X1.3284 Y1.4665
X1.3218 Y1.5021
X1.3167 Y1.5379
X1.3128 Y1.5739
X1.3097 Y1.61
X1.3074 Y1.6461
X1.3056 Y1.6822
X1.3043 Y1.7184
X1.3032 Y1.7545
X1.3025 Y1.7907
X1.3019 Y1.8269
Y1.8631
X1.3057 Y1.899
X1.3163 Y1.9336
X1.3338 Y1.9653
X1.3569 Y1.9932
X1.3842 Y2.0169
X1.4146 Y2.0366
X1.447 Y2.0525
X1.4809 Y2.0653
X1.5156 Y2.0755
X1.5509 Y2.0834
X1.5866 Y2.0896
X1.6224 Y2.0944
X1.6584 Y2.0981
X1.6945 Y2.1009
X1.7306 Y2.1031
X1.7667 Y2.1047
X1.8029 Y2.106
X1.8391 Y2.1069
X1.8753 Y2.1065
X1.911 Y2.1007
X1.9447 Y2.0877
X1.9753 Y2.0683
X2.0018 Y2.0436
X2.0241 Y2.0151
X2.0424 Y1.984
X2.0573 Y1.951
X2.0691 Y1.9168
X2.0784 Y1.8818
X2.0857 Y1.8464
X2.0914 Y1.8106
X2.0958 Y1.7747
X2.0992 Y1.7387
X2.1017 Y1.7026
X2.1037 Y1.6665
X2.1052 Y1.6303
X2.1064 Y1.5942
X2.107 Y1.558
X2.1052 Y1.5219
X2.0969 Y1.4867
X2.0815 Y1.4539
X2.06 Y1.4248
X2.0338 Y1.3998
X2.0043 Y1.379
X1.9724 Y1.3619
X1.9389 Y1.3482
X1.9044 Y1.3373
X1.8692 Y1.3287
X1.8336 Y1.3221
X1.7978 Y1.3169
X1.7619 Y1.3129
X1.7258 Y1.3098
X1.6897 Y1.3075
X1.6536 Y1.3057
X1.6174 Y1.305
X1.5815 Y1.3091
X1.5471 Y1.3204
X1.5157 Y1.3384
X1.4883 Y1.3621
X1.4652 Y1.3899
X1.446 Y1.4205
X1.4304 Y1.4532
X1.418 Y1.4872
X1.4082 Y1.522
X1.4005 Y1.5574
X1.3946 Y1.5931
X1.39 Y1.629
X1.3864 Y1.665
X1.3837 Y1.701
X1.3816 Y1.7372
X1.3801 Y1.7733
X1.3811 Y1.8095
X1.3885 Y1.8449
X1.403 Y1.878
X1.4239 Y1.9076
X1.4497 Y1.933
X1.4789 Y1.9543
X1.5106 Y1.9717
X1.544 Y1.9858
X1.5784 Y1.9969
X1.6135 Y2.0056
X1.649 Y2.0125
X1.6848 Y2.0178
X1.7208 Y2.0218
X1.7568 Y2.0249
X1.793 Y2.0266
X1.829 Y2.023
X1.8634 Y2.012
X1.8948 Y1.994
X1.9223 Y1.9704
X1.9454 Y1.9426
X1.9646 Y1.9119
X1.98 Y1.8792
X1.9924 Y1.8452
X2.0021 Y1.8104
X2.0097 Y1.775
X2.0157 Y1.7393
X2.0202 Y1.7034
X2.0237 Y1.6674
X2.0261 Y1.6313
X2.0253 Y1.5951
X2.0172 Y1.5598
X2.0019 Y1.5271
X1.9803 Y1.498
X1.954 Y1.4732
X1.9243 Y1.4525
X1.8922 Y1.4357
X1.8587 Y1.4222
X1.8241 Y1.4115
X1.7889 Y1.4031
X1.7533 Y1.3965
X1.7175 Y1.3916
X1.6814 Y1.3894
X1.6455 Y1.3941
X1.6116 Y1.4068
X1.5812 Y1.4264
X1.555 Y1.4513
X1.533 Y1.48
X1.515 Y1.5114
X1.5005 Y1.5446
X1.4891 Y1.5789
X1.48 Y1.614
X1.473 Y1.6495
X1.4676 Y1.6852
X1.4645 Y1.7213
X1.4677 Y1.7573
X1.4788 Y1.7918
X1.4971 Y1.823
X1.521 Y1.8501
X1.5491 Y1.873
X1.58 Y1.8917
X1.6129 Y1.9069
X1.6476 Y1.9169
X1.6829 Y1.9248
X1.7187 Y1.9302
X1.7549 Y1.9284
X1.7894 Y1.9178
X1.8206 Y1.8994
X1.8474 Y1.8751
X1.8698 Y1.8466
X1.888 Y1.8154
X1.9026 Y1.7823
X1.9142 Y1.748
X1.923 Y1.7129
X1.9273 Y1.677
X1.9225 Y1.6411
X1.9089 Y1.6076
X1.8881 Y1.578
X1.862 Y1.553
X1.8323 Y1.5323
X1.8002 Y1.5156
X1.7662 Y1.5033
X1.7301 Y1.5007
X1.6949 Y1.509
X1.6631 Y1.5264
X1.6359 Y1.5502
X1.6134 Y1.5785
X1.5951 Y1.6098
X1.5817 Y1.6434
X1.5782 Y1.6794
X1.5861 Y1.7147
X1.6036 Y1.7463
X1.6282 Y1.7729
X1.6439 Y1.7819
X1.6613 Y1.7868
X1.6658 Y1.787
X1.6839
X1.7195 Y1.7801
X1.7352 Y1.7713
X1.7419 Y1.7652
X1.7479 Y1.7584
X1.7504 Y1.7546
X1.7527 Y1.7508
G3 X1.7796 Y1.7399 R0.025
G1 X1.7834 Y1.7409 Z0.0003
X1.7871 Y1.7417 Z0.0012
X1.7906 Y1.7426 Z0.0027
X1.7939 Y1.7434 Z0.0048
X1.7968 Y1.7441 Z0.0073
X1.7993 Y1.7447 Z0.0103
X1.8013 Y1.7451 Z0.0137
X1.8027 Y1.7455 Z0.0173
X1.8036 Y1.7457 Z0.0211
X1.8039 Y1.7458 Z0.025
G0 Z0.6

G53 G0 Z0.
M30
