(AL20250618)
(MACHINE)
(  VENDOR: BANTAM TOOLS)
(  MODEL: EXPLORER CNC MILLING MACHINE)
(  DESCRIPTION: BANTAM TOOLS EXPLORER CNC MILLING MACHINE)
(T1 D=6.35 CR=0. - ZMIN=-0.01 - FLAT END MILL)
G0 G90 G94 G17
G21
M5
G53 G0 Z0.

(FACE4)
T1
M3 S15000
G90 G94 G17
G55
G0 X113.369 Y-45.181
Z15.
G0 Z5.
G1 Z0.63 F592.
X113.361 Z0.531 F2526.
X113.338 Z0.434
X113.3 Z0.342
X113.248 Z0.257
X113.183 Z0.181
X113.107 Z0.116
X113.022 Z0.064
X112.93 Z0.026
X112.833 Z0.003
X112.734 Z-0.005
X112.659
X-3.185 F1777.
G2 X-4.143 Y-44.223 R0.958
X-3.185 Y-43.266 R0.958
G1 X112.659
G3 X113.617 Y-42.308 R0.958
X112.659 Y-41.35 R0.958
G1 X-3.185
G2 X-4.143 Y-40.392 R0.958
X-3.185 Y-39.434 R0.958
G1 X112.659
G3 X113.617 Y-38.476 R0.958
X112.659 Y-37.519 R0.958
G1 X-3.185
G2 X-4.143 Y-36.561 R0.958
X-3.185 Y-35.603 R0.958
G1 X112.659
G3 X113.617 Y-34.645 R0.958
X112.659 Y-33.687 R0.958
G1 X-3.185
G2 X-4.143 Y-32.729 R0.958
X-3.185 Y-31.772 R0.958
G1 X112.659
G3 X113.617 Y-30.814 R0.958
X112.659 Y-29.856 R0.958
G1 X-3.185
G2 X-4.143 Y-28.898 R0.958
X-3.185 Y-27.94 R0.958
G1 X112.659
G3 X113.617 Y-26.982 R0.958
X112.659 Y-26.024 R0.958
G1 X-3.185
G2 X-4.143 Y-25.067 R0.958
X-3.185 Y-24.109 R0.958
G1 X112.659
G3 X113.617 Y-23.151 R0.958
X112.659 Y-22.193 R0.958
G1 X-3.185
G2 X-4.143 Y-21.235 R0.958
X-3.185 Y-20.277 R0.958
G1 X112.659
G3 X113.617 Y-19.32 R0.958
X112.659 Y-18.362 R0.958
G1 X-3.185
G2 X-4.143 Y-17.404 R0.958
X-3.185 Y-16.446 R0.958
G1 X112.659
G3 X113.617 Y-15.488 R0.958
X112.659 Y-14.53 R0.958
G1 X-3.185
G2 X-4.143 Y-13.573 R0.958
X-3.185 Y-12.615 R0.958
G1 X112.659
G3 X113.617 Y-11.657 R0.958
X112.659 Y-10.699 R0.958
G1 X-3.185
G2 X-4.143 Y-9.741 R0.958
X-3.185 Y-8.783 R0.958
G1 X112.659
G3 X113.617 Y-7.825 R0.958
X112.659 Y-6.868 R0.958
G1 X-3.185
G2 X-4.143 Y-5.91 R0.958
X-3.185 Y-4.952 R0.958
G1 X112.659
G3 X113.617 Y-3.994 R0.958
X112.659 Y-3.036 R0.958
G1 X-3.185
X-3.284 Z0.003 F2526.
X-3.381 Z0.026
X-3.473 Z0.064
X-3.558 Z0.116
X-3.634 Z0.181
X-3.699 Z0.257
X-3.751 Z0.342
X-3.789 Z0.434
X-3.812 Z0.531
X-3.82 Z0.63
G0 Z5.
X-3.895 Y-45.181
G1 Z0.625 F592.
X-3.887 Z0.526 F2526.
X-3.864 Z0.429
X-3.826 Z0.337
X-3.774 Z0.252
X-3.709 Z0.176
X-3.633 Z0.111
X-3.548 Z0.059
X-3.456 Z0.021
X-3.359 Z-0.002
X-3.26 Z-0.01
X-3.185
X112.659 F1777.
G3 X113.617 Y-44.223 R0.958
X112.659 Y-43.266 R0.958
G1 X-3.185
G2 X-4.143 Y-42.308 R0.958
X-3.185 Y-41.35 R0.958
G1 X112.659
G3 X113.617 Y-40.392 R0.958
X112.659 Y-39.434 R0.958
G1 X-3.185
G2 X-4.143 Y-38.476 R0.958
X-3.185 Y-37.519 R0.958
G1 X112.659
G3 X113.617 Y-36.561 R0.958
X112.659 Y-35.603 R0.958
G1 X-3.185
G2 X-4.143 Y-34.645 R0.958
X-3.185 Y-33.687 R0.958
G1 X112.659
G3 X113.617 Y-32.729 R0.958
X112.659 Y-31.772 R0.958
G1 X-3.185
G2 X-4.143 Y-30.814 R0.958
X-3.185 Y-29.856 R0.958
G1 X112.659
G3 X113.617 Y-28.898 R0.958
X112.659 Y-27.94 R0.958
G1 X-3.185
G2 X-4.143 Y-26.982 R0.958
X-3.185 Y-26.024 R0.958
G1 X112.659
G3 X113.617 Y-25.067 R0.958
X112.659 Y-24.109 R0.958
G1 X-3.185
G2 X-4.143 Y-23.151 R0.958
X-3.185 Y-22.193 R0.958
G1 X112.659
G3 X113.617 Y-21.235 R0.958
X112.659 Y-20.277 R0.958
G1 X-3.185
G2 X-4.143 Y-19.32 R0.958
X-3.185 Y-18.362 R0.958
G1 X112.659
G3 X113.617 Y-17.404 R0.958
X112.659 Y-16.446 R0.958
G1 X-3.185
G2 X-4.143 Y-15.488 R0.958
X-3.185 Y-14.53 R0.958
G1 X112.659
G3 X113.617 Y-13.573 R0.958
X112.659 Y-12.615 R0.958
G1 X-3.185
G2 X-4.143 Y-11.657 R0.958
X-3.185 Y-10.699 R0.958
G1 X112.659
G3 X113.617 Y-9.741 R0.958
X112.659 Y-8.783 R0.958
G1 X-3.185
G2 X-4.143 Y-7.825 R0.958
X-3.185 Y-6.868 R0.958
G1 X112.659
G3 X113.617 Y-5.91 R0.958
X112.659 Y-4.952 R0.958
G1 X-3.185
G2 X-4.143 Y-3.994 R0.958
X-3.185 Y-3.036 R0.958
G1 X112.659
X112.758 Z-0.002 F2526.
X112.855 Z0.021
X112.947 Z0.059
X113.032 Z0.111
X113.108 Z0.176
X113.173 Z0.252
X113.225 Z0.337
X113.263 Z0.429
X113.286 Z0.526
X113.294 Z0.625
G0 Z15.

G53 G0 Z0.
M30
