(ELI20250618)
(MACHINE)
(  VENDOR: BANTAM TOOLS)
(  MODEL: EXPLORER CNC MILLING MACHINE)
(  DESCRIPTION: BANTAM TOOLS EXPLORER CNC MILLING MACHINE)
(T1 D=6.35 CR=0. - ZMIN=-3. - FLAT END MILL)
G0 G90 G94 G17
G21
M5
G53 G0 Z0.

(2D ADAPTIVE3)
T1
M3 S10000
G90 G94 G17
G55
G0 X-0.655 Y-51.228
Z15.
G0 Z5.
Z0.27
G1 Z-0.365 F2526.
X-0.653 Y-51.22 Z-0.464
X-0.647 Y-51.198 Z-0.561
X-0.638 Y-51.161 Z-0.653
X-0.625 Y-51.11 Z-0.738
X-0.609 Y-51.048 Z-0.814
X-0.59 Y-50.974 Z-0.879
X-0.569 Y-50.892 Z-0.931
X-0.546 Y-50.803 Z-0.969
X-0.522 Y-50.709 Z-0.992
X-0.497 Y-50.613 Z-1.
G3 X0. Y-47.156 R16.211
G1 Y-47.006 F1016.
X-0.182 Y-46.112
X-0.313 Y-45.21
X-0.406 Y-44.303
X-0.473 Y-43.394
X-0.52 Y-42.483
X-0.554 Y-41.572
X-0.577 Y-40.66
X-0.594 Y-39.749
X-0.606 Y-38.837
X-0.615 Y-37.925
X-0.621 Y-37.013
X-0.625 Y-36.102
X-0.63 Y-34.278
X-0.633 Y-31.542
X-0.635 Y-25.16
Y-2.82
X-0.511 Y-2.382
X-0.057 Y-1.591
X0.625 Y-0.985
X1.418 Y-0.535
X2.267 Y-0.205
X3.147 Y0.035
X4.043 Y0.207
X4.946 Y0.331
X5.854 Y0.419
X6.763 Y0.482
X7.674 Y0.527
X8.585 Y0.558
X9.497 Y0.581
X10.408 Y0.597
X11.32 Y0.608
X12.232 Y0.616
X13.144 Y0.621
X14.056 Y0.625
X15.879 Y0.63
X18.615 Y0.633
X24.997 Y0.635
X54.175
X104.325
X106.605
X107.047 Y0.526
X107.848 Y0.089
X108.462 Y-0.584
X108.92 Y-1.373
X109.255 Y-2.221
X109.499 Y-3.1
X109.674 Y-3.994
X109.8 Y-4.897
X109.89 Y-5.805
X109.953 Y-6.714
X109.999 Y-7.625
X110.031 Y-8.536
X110.054 Y-9.448
X110.07 Y-10.36
X110.081 Y-11.271
X110.089 Y-12.183
X110.095 Y-13.095
X110.099 Y-14.007
X110.104 Y-15.83
X110.107 Y-18.566
X110.109 Y-24.948
Y-40.905
X110.087 Y-41.132
X109.975 Y-41.574
X109.516 Y-42.362
X108.832 Y-42.965
X108.038 Y-43.413
X107.188 Y-43.742
X106.308 Y-43.98
X105.412 Y-44.152
X104.509 Y-44.275
X103.601 Y-44.362
X102.691 Y-44.425
X101.781 Y-44.469
X100.869 Y-44.501
X99.958 Y-44.523
X99.046 Y-44.539
X98.134 Y-44.55
X97.223 Y-44.558
X96.311 Y-44.563
X95.399 Y-44.567
X93.575 Y-44.572
X90.84 Y-44.575
X83.545 Y-44.577
X56.191
X6.041
X5.585
X5.141 Y-44.473
X4.329 Y-44.059
X3.694 Y-43.405
X3.213 Y-42.63
X2.856 Y-41.791
X2.593 Y-40.918
X2.401 Y-40.026
X2.262 Y-39.125
X2.161 Y-38.219
X2.089 Y-37.31
X2.037 Y-36.4
X1.999 Y-35.489
X1.972 Y-34.577
X1.953 Y-33.666
X1.939 Y-32.754
X1.93 Y-31.842
X1.923 Y-30.931
X1.918 Y-30.019
X1.914 Y-29.107
X1.91 Y-27.283
X1.907 Y-24.548
X1.905 Y-17.253
Y-6.312
X1.972 Y-5.861
X2.273 Y-5.
X2.826 Y-4.275
X3.531 Y-3.696
X4.324 Y-3.247
X5.169 Y-2.903
X6.043 Y-2.644
X6.934 Y-2.45
X7.834 Y-2.305
X8.74 Y-2.199
X9.648 Y-2.12
X10.558 Y-2.062
X11.469 Y-2.019
X12.38 Y-1.988
X13.292 Y-1.966
X14.203 Y-1.949
X15.115 Y-1.937
X16.027 Y-1.928
X16.939 Y-1.922
X17.85 Y-1.917
X19.674 Y-1.911
X22.41 Y-1.907
X27.88 Y-1.905
X60.706
X103.561
X104.426 Y-2.193
X105.158 Y-2.736
X105.745 Y-3.435
X106.201 Y-4.224
X106.55 Y-5.066
X106.814 Y-5.939
X107.012 Y-6.829
X107.159 Y-7.729
X107.269 Y-8.634
X107.349 Y-9.542
X107.408 Y-10.452
X107.452 Y-11.363
X107.484 Y-12.274
X107.507 Y-13.186
X107.524 Y-14.097
X107.536 Y-15.009
X107.545 Y-15.921
X107.552 Y-16.833
X107.556 Y-17.745
X107.562 Y-19.568
X107.567 Y-22.304
X107.569 Y-27.774
Y-37.804
X107.367 Y-38.693
X106.874 Y-39.461
X106.207 Y-40.083
X105.436 Y-40.569
X104.604 Y-40.942
X103.737 Y-41.225
X102.85 Y-41.438
X101.952 Y-41.596
X101.048 Y-41.713
X100.141 Y-41.8
X99.231 Y-41.864
X98.32 Y-41.911
X97.409 Y-41.945
X96.498 Y-41.97
X95.586 Y-41.988
X94.674 Y-42.002
X93.763 Y-42.011
X92.851 Y-42.018
X91.939 Y-42.024
X91.027 Y-42.027
X89.204 Y-42.032
X86.468 Y-42.035
X80.085 Y-42.037
X39.054
X8.964
X8.512 Y-41.976
X7.646 Y-41.692
X6.91 Y-41.154
X6.318 Y-40.46
X5.855 Y-39.675
X5.499 Y-38.835
X5.229 Y-37.964
X5.026 Y-37.075
X4.874 Y-36.176
X4.761 Y-35.272
X4.677 Y-34.364
X4.616 Y-33.454
X4.57 Y-32.543
X4.536 Y-31.632
X4.512 Y-30.721
X4.494 Y-29.809
X4.481 Y-28.897
X4.471 Y-27.985
X4.464 Y-27.074
X4.459 Y-26.162
X4.455 Y-25.25
X4.45 Y-23.426
X4.447 Y-20.691
X4.445 Y-14.308
Y-8.837
X4.698 Y-7.962
X5.196 Y-7.197
X5.856 Y-6.569
X6.618 Y-6.067
X7.441 Y-5.675
X8.301 Y-5.372
X9.183 Y-5.141
X10.078 Y-4.966
X10.98 Y-4.833
X11.886 Y-4.734
X12.795 Y-4.66
X13.705 Y-4.604
X14.616 Y-4.563
X15.528 Y-4.532
X16.439 Y-4.509
X17.351 Y-4.493
X18.262 Y-4.48
X19.174 Y-4.471
X20.086 Y-4.464
X20.998 Y-4.459
X22.821 Y-4.453
X25.557 Y-4.448
X30.116 Y-4.446
X38.322 Y-4.445
X88.472
X100.326
X101.226 Y-4.586
X102.035 Y-5.007
X102.711 Y-5.619
X103.254 Y-6.351
X103.681 Y-7.157
X104.011 Y-8.007
X104.264 Y-8.883
X104.456 Y-9.774
X104.601 Y-10.674
X104.711 Y-11.58
X104.792 Y-12.488
X104.853 Y-13.397
X104.899 Y-14.308
X104.933 Y-15.219
X104.958 Y-16.131
X104.977 Y-17.042
X104.99 Y-17.954
X105.001 Y-18.866
X105.008 Y-19.778
X105.014 Y-20.689
X105.018 Y-21.601
X105.023 Y-23.425
X105.027 Y-26.16
X105.029 Y-31.631
Y-34.367
X105.017 Y-35.278
X104.714 Y-36.138
X104.179 Y-36.877
X103.496 Y-37.481
X102.721 Y-37.96
X101.889 Y-38.333
X101.023 Y-38.62
X100.138 Y-38.839
X99.241 Y-39.005
X98.338 Y-39.13
X97.431 Y-39.224
X96.522 Y-39.294
X95.612 Y-39.347
X94.701 Y-39.386
X93.79 Y-39.415
X92.878 Y-39.436
X91.966 Y-39.452
X91.055 Y-39.464
X90.143 Y-39.473
X89.231 Y-39.479
X88.319 Y-39.484
X86.496 Y-39.49
X83.76 Y-39.494
X79.201 Y-39.496
X50.935 Y-39.497
X11.727
X10.828 Y-39.347
X10.019 Y-38.925
X9.34 Y-38.316
X8.793 Y-37.587
X8.362 Y-36.783
X8.028 Y-35.935
X7.771 Y-35.06
X7.575 Y-34.17
X7.427 Y-33.27
X7.315 Y-32.365
X7.231 Y-31.457
X7.168 Y-30.547
X7.121 Y-29.637
X7.086 Y-28.726
X7.06 Y-27.814
X7.04 Y-26.903
X7.026 Y-25.991
X7.015 Y-25.079
X7.007 Y-24.167
X7.001 Y-23.256
X6.997 Y-22.344
X6.992 Y-20.52
X6.988 Y-17.785
X6.985 Y-12.314
X7.003 Y-11.402
X7.289 Y-10.537
X7.803 Y-9.783
X8.468 Y-9.159
X9.229 Y-8.658
X10.051 Y-8.264
X10.91 Y-7.957
X11.791 Y-7.721
X12.685 Y-7.541
X13.586 Y-7.403
X14.492 Y-7.299
X15.4 Y-7.221
X16.31 Y-7.161
X17.221 Y-7.117
X18.132 Y-7.084
X19.044 Y-7.059
X19.955 Y-7.04
X20.867 Y-7.026
X21.779 Y-7.015
X22.691 Y-7.008
X23.602 Y-7.002
X24.514 Y-6.997
X26.338 Y-6.992
X29.073 Y-6.988
X34.544 Y-6.985
X36.368
X86.517
X97.459
X98.366 Y-7.082
X99.2 Y-7.449
X99.912 Y-8.018
X100.494 Y-8.721
X100.958 Y-9.506
X101.322 Y-10.342
X101.603 Y-11.209
X101.819 Y-12.095
X101.984 Y-12.992
X102.109 Y-13.895
X102.204 Y-14.802
X102.276 Y-15.711
X102.329 Y-16.621
X102.37 Y-17.532
X102.4 Y-18.443
X102.423 Y-19.355
X102.44 Y-20.266
X102.452 Y-21.178
X102.462 Y-22.09
X102.469 Y-23.002
X102.474 Y-23.913
X102.481 Y-25.737
X102.484 Y-27.561
X102.488 Y-31.208
Y-32.12
X102.335 Y-33.019
X101.92 Y-33.83
X101.318 Y-34.515
X100.595 Y-35.071
X99.797 Y-35.512
X98.952 Y-35.856
X98.08 Y-36.122
X97.192 Y-36.326
X96.293 Y-36.481
X95.389 Y-36.6
X94.482 Y-36.689
X93.572 Y-36.756
X92.662 Y-36.807
X91.751 Y-36.845
X90.839 Y-36.873
X89.928 Y-36.895
X89.016 Y-36.91
X88.104 Y-36.922
X87.193 Y-36.931
X86.281 Y-36.938
X85.369 Y-36.943
X83.545 Y-36.949
X80.81 Y-36.954
X76.251 Y-36.956
X42.514 Y-36.957
X14.248
X13.359 Y-36.754
X12.565 Y-36.305
X11.899 Y-35.682
X11.359 Y-34.948
X10.931 Y-34.142
X10.597 Y-33.294
X10.339 Y-32.419
X10.141 Y-31.529
X9.99 Y-30.63
X9.875 Y-29.726
X9.788 Y-28.818
X9.722 Y-27.909
X9.673 Y-26.998
X9.636 Y-26.087
X9.608 Y-25.176
X9.587 Y-24.264
X9.571 Y-23.352
X9.559 Y-22.441
X9.551 Y-21.529
X9.544 Y-20.617
X9.539 Y-19.705
X9.533 Y-17.882
X9.531 Y-16.97
X9.528 Y-15.146
X9.529 Y-14.234
X9.753 Y-13.351
X10.213 Y-12.564
X10.843 Y-11.904
X11.581 Y-11.369
X12.388 Y-10.944
X13.236 Y-10.61
X14.111 Y-10.352
X15.001 Y-10.153
X15.9 Y-10.
X16.804 Y-9.884
X17.712 Y-9.796
X18.621 Y-9.729
X19.531 Y-9.679
X20.442 Y-9.641
X21.354 Y-9.612
X22.265 Y-9.59
X23.177 Y-9.574
X24.089 Y-9.562
X25. Y-9.552
X25.912 Y-9.545
X26.824 Y-9.54
X28.648 Y-9.534
X30.471 Y-9.53
X34.119 Y-9.526
X43.237 Y-9.525
X55.09
X94.298
X95.21 Y-9.529
X96.096 Y-9.744
X96.886 Y-10.2
X97.551 Y-10.824
X98.09 Y-11.559
X98.518 Y-12.364
X98.854 Y-13.212
X99.115 Y-14.086
X99.315 Y-14.975
X99.469 Y-15.874
X99.586 Y-16.778
X99.675 Y-17.686
X99.743 Y-18.595
X99.794 Y-19.505
X99.832 Y-20.416
X99.861 Y-21.328
X99.883 Y-22.239
X99.9 Y-23.151
X99.912 Y-24.063
X99.921 Y-24.974
X99.928 Y-25.886
X99.934 Y-26.798
X99.94 Y-28.622
X99.943 Y-29.533
X99.772 Y-30.429
X99.351 Y-31.238
X98.749 Y-31.922
X98.028 Y-32.481
X97.233 Y-32.927
X96.39 Y-33.276
X95.52 Y-33.547
X94.632 Y-33.756
X93.735 Y-33.916
X92.831 Y-34.038
X91.924 Y-34.131
X91.015 Y-34.202
X90.105 Y-34.255
X89.194 Y-34.295
X88.282 Y-34.326
X87.371 Y-34.348
X86.459 Y-34.366
X85.548 Y-34.378
X84.636 Y-34.388
X83.724 Y-34.395
X82.812 Y-34.401
X81.9 Y-34.405
X80.077 Y-34.41
X77.341 Y-34.414
X71.87 Y-34.417
X63.664
X17.162
X16.257 Y-34.301
X15.425 Y-33.929
X14.712 Y-33.361
X14.126 Y-32.662
X13.656 Y-31.881
X13.286 Y-31.047
X12.998 Y-30.182
X12.775 Y-29.298
X12.604 Y-28.403
X12.473 Y-27.5
X12.373 Y-26.594
X12.298 Y-25.685
X12.24 Y-24.775
X12.197 Y-23.864
X12.164 Y-22.953
X12.14 Y-22.042
X12.121 Y-21.13
X12.107 Y-20.218
X12.097 Y-19.307
X12.089 Y-18.395
X12.083 Y-17.483
X12.121 Y-16.572
X12.414 Y-15.709
X12.927 Y-14.954
X13.587 Y-14.326
X14.344 Y-13.818
X15.163 Y-13.416
X16.018 Y-13.1
X16.897 Y-12.856
X17.789 Y-12.667
X18.689 Y-12.523
X19.594 Y-12.412
X20.502 Y-12.328
X21.411 Y-12.264
X22.322 Y-12.215
X23.233 Y-12.178
X24.144 Y-12.15
X25.056 Y-12.129
X25.968 Y-12.113
X26.879 Y-12.101
X27.791 Y-12.092
X28.703 Y-12.086
X29.615 Y-12.08
X31.438 Y-12.074
X34.174 Y-12.069
X38.733 Y-12.066
X44.204 Y-12.065
X91.618
X92.53 Y-12.066
X93.422 Y-12.256
X94.225 Y-12.688
X94.904 Y-13.296
X95.459 Y-14.019
X95.903 Y-14.815
X96.253 Y-15.658
X96.525 Y-16.528
X96.735 Y-17.415
X96.897 Y-18.313
X97.02 Y-19.216
X97.114 Y-20.123
X97.186 Y-21.032
X97.241 Y-21.942
X97.282 Y-22.853
X97.313 Y-23.764
X97.337 Y-24.676
X97.355 Y-25.587
X97.368 Y-26.499
X97.324 Y-27.41
X97.02 Y-28.269
X96.502 Y-29.02
X95.836 Y-29.642
X95.075 Y-30.145
X94.255 Y-30.543
X93.398 Y-30.855
X92.518 Y-31.096
X91.626 Y-31.283
X90.725 Y-31.426
X89.82 Y-31.535
X88.912 Y-31.618
X88.002 Y-31.681
X87.092 Y-31.729
X86.181 Y-31.765
X85.269 Y-31.793
X84.358 Y-31.814
X83.446 Y-31.829
X82.534 Y-31.841
X81.623 Y-31.85
X80.711 Y-31.857
X79.799 Y-31.862
X77.975 Y-31.868
X75.24 Y-31.873
X70.681 Y-31.876
X64.298 Y-31.877
X19.619
X18.721 Y-31.721
X17.903 Y-31.319
X17.205 Y-30.732
X16.632 Y-30.023
X16.173 Y-29.235
X15.811 Y-28.398
X15.528 Y-27.531
X15.31 Y-26.646
X15.142 Y-25.75
X15.013 Y-24.847
X14.914 Y-23.941
X14.839 Y-23.032
X14.782 Y-22.122
X14.739 Y-21.211
X14.706 Y-20.3
X14.686 Y-19.388
X14.904 Y-18.503
X15.358 Y-17.712
X15.982 Y-17.047
X16.716 Y-16.506
X17.519 Y-16.074
X18.365 Y-15.734
X19.238 Y-15.469
X20.126 Y-15.265
X21.024 Y-15.107
X21.928 Y-14.987
X22.835 Y-14.895
X23.744 Y-14.825
X24.655 Y-14.771
X25.565 Y-14.731
X26.477 Y-14.7
X27.388 Y-14.677
X28.3 Y-14.659
X29.212 Y-14.646
X30.123 Y-14.636
X31.035 Y-14.628
X31.947 Y-14.623
X32.859 Y-14.618
X34.682 Y-14.613
X37.418 Y-14.608
X41.977 Y-14.606
X53.83 Y-14.605
X89.391
X90.302 Y-14.646
X91.167 Y-14.934
X91.926 Y-15.439
X92.561 Y-16.094
X93.074 Y-16.847
X93.483 Y-17.662
X93.804 Y-18.516
X94.053 Y-19.393
X94.246 Y-20.284
X94.394 Y-21.184
X94.508 Y-22.089
X94.595 Y-22.996
X94.661 Y-23.906
X94.654 Y-24.817
X94.372 Y-25.685
X93.864 Y-26.442
X93.205 Y-27.072
X92.449 Y-27.581
X91.631 Y-27.984
X90.775 Y-28.3
X89.897 Y-28.544
X89.005 Y-28.733
X88.105 Y-28.878
X87.2 Y-28.988
X86.292 Y-29.072
X85.382 Y-29.137
X84.472 Y-29.185
X83.561 Y-29.222
X82.649 Y-29.25
X81.738 Y-29.272
X80.826 Y-29.288
X79.914 Y-29.3
X79.002 Y-29.309
X78.091 Y-29.316
X77.179 Y-29.321
X75.355 Y-29.328
X73.532 Y-29.332
X69.884 Y-29.335
X60.766 Y-29.337
X44.354
X22.47
X21.562 Y-29.257
X20.713 Y-28.925
X19.974 Y-28.39
X19.362 Y-27.715
X18.867 Y-26.949
X18.474 Y-26.126
X18.166 Y-25.267
X17.927 Y-24.388
X17.742 Y-23.495
X17.6 Y-22.594
X17.554 Y-21.683
X17.813 Y-20.809
X18.309 Y-20.044
X18.964 Y-19.41
X19.719 Y-18.899
X20.537 Y-18.496
X21.392 Y-18.18
X22.271 Y-17.935
X23.163 Y-17.747
X24.063 Y-17.603
X24.968 Y-17.493
X25.876 Y-17.409
X26.786 Y-17.345
X27.696 Y-17.296
X28.607 Y-17.259
X29.519 Y-17.231
X30.43 Y-17.21
X31.342 Y-17.194
X32.254 Y-17.182
X33.166 Y-17.173
X34.077 Y-17.166
X34.989 Y-17.161
X36.813 Y-17.154
X38.636 Y-17.15
X42.284 Y-17.147
X50.49 Y-17.145
X84.227
X86.962
X87.871 Y-17.218
X88.724 Y-17.54
X89.466 Y-18.07
X90.084 Y-18.741
X90.584 Y-19.503
X90.981 Y-20.324
X91.292 Y-21.181
X91.404 Y-21.623
X91.43 Y-22.078
X91.366 Y-22.53
X91.078 Y-23.395
X90.543 Y-24.134
X89.859 Y-24.736
X89.083 Y-25.215
X88.251 Y-25.589
X87.386 Y-25.878
X86.502 Y-26.099
X85.606 Y-26.269
X84.703 Y-26.397
X83.797 Y-26.495
X82.888 Y-26.569
X81.978 Y-26.625
X81.067 Y-26.667
X80.156 Y-26.699
X79.244 Y-26.723
X78.333 Y-26.742
X77.421 Y-26.755
X76.509 Y-26.766
X75.597 Y-26.773
X74.686 Y-26.779
X73.774 Y-26.784
X71.95 Y-26.789
X69.215 Y-26.794
X64.656 Y-26.796
X52.802 Y-26.797
X51.89
X51.663 Y-26.78
X51.325 Y-26.757
X50.946 Y-26.735
X50.514 Y-26.712
X50.012 Y-26.689
X49.412 Y-26.666
X48.669 Y-26.643
X47.758 Y-26.621
X46.846 Y-26.606
X45.934 Y-26.595
X45.022 Y-26.587
X44.111 Y-26.582
X43.199 Y-26.578
X41.375 Y-26.573
X38.64 Y-26.57
X32.257 Y-26.569
X24.963 Y-26.568
X24.058 Y-26.455
X23.229 Y-26.076
X22.523 Y-25.499
X21.946 Y-24.792
X21.869 Y-24.578
X21.825 Y-24.354
X21.816 Y-24.127
X21.868 Y-23.674
X22.221 Y-22.833
X22.823 Y-22.148
X23.56 Y-21.611
X24.372 Y-21.197
X25.228 Y-20.881
X26.108 Y-20.642
X27.001 Y-20.461
X27.903 Y-20.325
X28.809 Y-20.222
X29.717 Y-20.145
X30.627 Y-20.087
X31.538 Y-20.044
X32.449 Y-20.011
X33.361 Y-19.987
X34.272 Y-19.969
X35.184 Y-19.955
X36.096 Y-19.945
X37.008 Y-19.937
X37.92 Y-19.931
X38.831 Y-19.927
X40.655 Y-19.921
X43.39 Y-19.917
X47.949 Y-19.914
X78.039
X84.422
X84.649 Y-19.937
X84.761 Y-19.956
X84.873 Y-19.979
X85.316 Y-20.086
X85.527 Y-20.172
X85.732 Y-20.272
X85.919 Y-20.402
X86.084 Y-20.559
X86.223 Y-20.74
X86.333 Y-20.939
X86.411 Y-21.154
X86.455 Y-21.377
X86.464 Y-21.605
X86.438 Y-21.832
X86.377 Y-22.052
X86.284 Y-22.259
X86.16 Y-22.451
X86.008 Y-22.62
X85.831 Y-22.765
X85.046 Y-23.228
X84.152 Y-23.408
X83.251 Y-23.549
X82.346 Y-23.659
X81.438 Y-23.744
X80.529 Y-23.81
X79.618 Y-23.861
X78.707 Y-23.901
X77.796 Y-23.931
X76.885 Y-23.954
X75.973 Y-23.972
X75.061 Y-23.985
X74.149 Y-23.995
X73.238 Y-24.003
X72.326 Y-24.009
X71.414 Y-24.014
X69.59 Y-24.02
X66.855 Y-24.025
X62.296 Y-24.028
X55.001
X54.09 Y-24.025
X53.178 Y-24.007
X52.267 Y-23.981
X50.444 Y-23.927
X49.532 Y-23.903
X48.621 Y-23.883
X47.709 Y-23.865
X46.797 Y-23.851
X45.886 Y-23.839
X44.974 Y-23.83
X44.062 Y-23.823
X43.15 Y-23.818
X42.238 Y-23.813
X40.415 Y-23.807
X37.679 Y-23.803
X34.944 Y-23.801
X34.032
X33.123 Y-23.867
X32.212 Y-23.914
X32.098 Y-23.918
X32.024 Y-23.928 F2526.
X31.951 Y-23.947
X31.884 Y-23.982 Z-0.995
X31.818 Y-24.017 Z-0.982
X31.753 Y-24.051 Z-0.959
X31.699 Y-24.111 Z-0.921
X31.649 Y-24.167 Z-0.873
X31.604 Y-24.217 Z-0.814
X31.578 Y-24.276 Z-0.738
X31.558 Y-24.324 Z-0.653
X31.543 Y-24.359 Z-0.561
X31.533 Y-24.38 Z-0.465
X31.53 Y-24.387 Z-0.365
G0 Z5.
X-0.655 Y-51.228
Z-0.73
G1 Z-1.365 F2526.
X-0.653 Y-51.22 Z-1.464
X-0.647 Y-51.198 Z-1.561
X-0.638 Y-51.161 Z-1.653
X-0.625 Y-51.11 Z-1.738
X-0.609 Y-51.048 Z-1.814
X-0.59 Y-50.974 Z-1.879
X-0.569 Y-50.892 Z-1.931
X-0.546 Y-50.803 Z-1.969
X-0.522 Y-50.709 Z-1.992
X-0.497 Y-50.613 Z-2.
G3 X0. Y-47.156 R16.211
G1 Y-47.006 F1016.
X-0.182 Y-46.112
X-0.313 Y-45.21
X-0.406 Y-44.303
X-0.473 Y-43.394
X-0.52 Y-42.483
X-0.554 Y-41.572
X-0.577 Y-40.66
X-0.594 Y-39.749
X-0.606 Y-38.837
X-0.615 Y-37.925
X-0.621 Y-37.013
X-0.625 Y-36.102
X-0.63 Y-34.278
X-0.633 Y-31.542
X-0.635 Y-25.16
Y-2.82
X-0.511 Y-2.382
X-0.057 Y-1.591
X0.625 Y-0.985
X1.418 Y-0.535
X2.267 Y-0.205
X3.147 Y0.035
X4.043 Y0.207
X4.946 Y0.331
X5.854 Y0.419
X6.763 Y0.482
X7.674 Y0.527
X8.585 Y0.558
X9.497 Y0.581
X10.408 Y0.597
X11.32 Y0.608
X12.232 Y0.616
X13.144 Y0.621
X14.056 Y0.625
X15.879 Y0.63
X18.615 Y0.633
X24.997 Y0.635
X54.175
X104.325
X106.605
X107.047 Y0.526
X107.848 Y0.089
X108.462 Y-0.584
X108.92 Y-1.373
X109.255 Y-2.221
X109.499 Y-3.1
X109.674 Y-3.994
X109.8 Y-4.897
X109.89 Y-5.805
X109.953 Y-6.714
X109.999 Y-7.625
X110.031 Y-8.536
X110.054 Y-9.448
X110.07 Y-10.36
X110.081 Y-11.271
X110.089 Y-12.183
X110.095 Y-13.095
X110.099 Y-14.007
X110.104 Y-15.83
X110.107 Y-18.566
X110.109 Y-24.948
Y-40.905
X110.087 Y-41.132
X109.975 Y-41.574
X109.516 Y-42.362
X108.832 Y-42.965
X108.038 Y-43.413
X107.188 Y-43.742
X106.308 Y-43.98
X105.412 Y-44.152
X104.509 Y-44.275
X103.601 Y-44.362
X102.691 Y-44.425
X101.781 Y-44.469
X100.869 Y-44.501
X99.958 Y-44.523
X99.046 Y-44.539
X98.134 Y-44.55
X97.223 Y-44.558
X96.311 Y-44.563
X95.399 Y-44.567
X93.575 Y-44.572
X90.84 Y-44.575
X83.545 Y-44.577
X56.191
X6.041
X5.585
X5.141 Y-44.473
X4.329 Y-44.059
X3.694 Y-43.405
X3.213 Y-42.63
X2.856 Y-41.791
X2.593 Y-40.918
X2.401 Y-40.026
X2.262 Y-39.125
X2.161 Y-38.219
X2.089 Y-37.31
X2.037 Y-36.4
X1.999 Y-35.489
X1.972 Y-34.577
X1.953 Y-33.666
X1.939 Y-32.754
X1.93 Y-31.842
X1.923 Y-30.931
X1.918 Y-30.019
X1.914 Y-29.107
X1.91 Y-27.283
X1.907 Y-24.548
X1.905 Y-17.253
Y-6.312
X1.972 Y-5.861
X2.273 Y-5.
X2.826 Y-4.275
X3.531 Y-3.696
X4.324 Y-3.247
X5.169 Y-2.903
X6.043 Y-2.644
X6.934 Y-2.45
X7.834 Y-2.305
X8.74 Y-2.199
X9.648 Y-2.12
X10.558 Y-2.062
X11.469 Y-2.019
X12.38 Y-1.988
X13.292 Y-1.966
X14.203 Y-1.949
X15.115 Y-1.937
X16.027 Y-1.928
X16.939 Y-1.922
X17.85 Y-1.917
X19.674 Y-1.911
X22.41 Y-1.907
X27.88 Y-1.905
X60.706
X103.561
X104.426 Y-2.193
X105.158 Y-2.736
X105.745 Y-3.435
X106.201 Y-4.224
X106.55 Y-5.066
X106.814 Y-5.939
X107.012 Y-6.829
X107.159 Y-7.729
X107.269 Y-8.634
X107.349 Y-9.542
X107.408 Y-10.452
X107.452 Y-11.363
X107.484 Y-12.274
X107.507 Y-13.186
X107.524 Y-14.097
X107.536 Y-15.009
X107.545 Y-15.921
X107.552 Y-16.833
X107.556 Y-17.745
X107.562 Y-19.568
X107.567 Y-22.304
X107.569 Y-27.774
Y-37.804
X107.367 Y-38.693
X106.874 Y-39.461
X106.207 Y-40.083
X105.436 Y-40.569
X104.604 Y-40.942
X103.737 Y-41.225
X102.85 Y-41.438
X101.952 Y-41.596
X101.048 Y-41.713
X100.141 Y-41.8
X99.231 Y-41.864
X98.32 Y-41.911
X97.409 Y-41.945
X96.498 Y-41.97
X95.586 Y-41.988
X94.674 Y-42.002
X93.763 Y-42.011
X92.851 Y-42.018
X91.939 Y-42.024
X91.027 Y-42.027
X89.204 Y-42.032
X86.468 Y-42.035
X80.085 Y-42.037
X39.054
X8.964
X8.512 Y-41.976
X7.646 Y-41.692
X6.91 Y-41.154
X6.318 Y-40.46
X5.855 Y-39.675
X5.499 Y-38.835
X5.229 Y-37.964
X5.026 Y-37.075
X4.874 Y-36.176
X4.761 Y-35.272
X4.677 Y-34.364
X4.616 Y-33.454
X4.57 Y-32.543
X4.536 Y-31.632
X4.512 Y-30.721
X4.494 Y-29.809
X4.481 Y-28.897
X4.471 Y-27.985
X4.464 Y-27.074
X4.459 Y-26.162
X4.455 Y-25.25
X4.45 Y-23.426
X4.447 Y-20.691
X4.445 Y-14.308
Y-8.837
X4.698 Y-7.962
X5.196 Y-7.197
X5.856 Y-6.569
X6.618 Y-6.067
X7.441 Y-5.675
X8.301 Y-5.372
X9.183 Y-5.141
X10.078 Y-4.966
X10.98 Y-4.833
X11.886 Y-4.734
X12.795 Y-4.66
X13.705 Y-4.604
X14.616 Y-4.563
X15.528 Y-4.532
X16.439 Y-4.509
X17.351 Y-4.493
X18.262 Y-4.48
X19.174 Y-4.471
X20.086 Y-4.464
X20.998 Y-4.459
X22.821 Y-4.453
X25.557 Y-4.448
X30.116 Y-4.446
X38.322 Y-4.445
X88.472
X100.326
X101.226 Y-4.586
X102.035 Y-5.007
X102.711 Y-5.619
X103.254 Y-6.351
X103.681 Y-7.157
X104.011 Y-8.007
X104.264 Y-8.883
X104.456 Y-9.774
X104.601 Y-10.674
X104.711 Y-11.58
X104.792 Y-12.488
X104.853 Y-13.397
X104.899 Y-14.308
X104.933 Y-15.219
X104.958 Y-16.131
X104.977 Y-17.042
X104.99 Y-17.954
X105.001 Y-18.866
X105.008 Y-19.778
X105.014 Y-20.689
X105.018 Y-21.601
X105.023 Y-23.425
X105.027 Y-26.16
X105.029 Y-31.631
Y-34.367
X105.017 Y-35.278
X104.714 Y-36.138
X104.179 Y-36.877
X103.496 Y-37.481
X102.721 Y-37.96
X101.889 Y-38.333
X101.023 Y-38.62
X100.138 Y-38.839
X99.241 Y-39.005
X98.338 Y-39.13
X97.431 Y-39.224
X96.522 Y-39.294
X95.612 Y-39.347
X94.701 Y-39.386
X93.79 Y-39.415
X92.878 Y-39.436
X91.966 Y-39.452
X91.055 Y-39.464
X90.143 Y-39.473
X89.231 Y-39.479
X88.319 Y-39.484
X86.496 Y-39.49
X83.76 Y-39.494
X79.201 Y-39.496
X50.935 Y-39.497
X11.727
X10.828 Y-39.347
X10.019 Y-38.925
X9.34 Y-38.316
X8.793 Y-37.587
X8.362 Y-36.783
X8.028 Y-35.935
X7.771 Y-35.06
X7.575 Y-34.17
X7.427 Y-33.27
X7.315 Y-32.365
X7.231 Y-31.457
X7.168 Y-30.547
X7.121 Y-29.637
X7.086 Y-28.726
X7.06 Y-27.814
X7.04 Y-26.903
X7.026 Y-25.991
X7.015 Y-25.079
X7.007 Y-24.167
X7.001 Y-23.256
X6.997 Y-22.344
X6.992 Y-20.52
X6.988 Y-17.785
X6.985 Y-12.314
X7.003 Y-11.402
X7.289 Y-10.537
X7.803 Y-9.783
X8.468 Y-9.159
X9.229 Y-8.658
X10.051 Y-8.264
X10.91 Y-7.957
X11.791 Y-7.721
X12.685 Y-7.541
X13.586 Y-7.403
X14.492 Y-7.299
X15.4 Y-7.221
X16.31 Y-7.161
X17.221 Y-7.117
X18.132 Y-7.084
X19.044 Y-7.059
X19.955 Y-7.04
X20.867 Y-7.026
X21.779 Y-7.015
X22.691 Y-7.008
X23.602 Y-7.002
X24.514 Y-6.997
X26.338 Y-6.992
X29.073 Y-6.988
X34.544 Y-6.985
X36.368
X86.517
X97.459
X98.366 Y-7.082
X99.2 Y-7.449
X99.912 Y-8.018
X100.494 Y-8.721
X100.958 Y-9.506
X101.322 Y-10.342
X101.603 Y-11.209
X101.819 Y-12.095
X101.984 Y-12.992
X102.109 Y-13.895
X102.204 Y-14.802
X102.276 Y-15.711
X102.329 Y-16.621
X102.37 Y-17.532
X102.4 Y-18.443
X102.423 Y-19.355
X102.44 Y-20.266
X102.452 Y-21.178
X102.462 Y-22.09
X102.469 Y-23.002
X102.474 Y-23.913
X102.481 Y-25.737
X102.484 Y-27.561
X102.488 Y-31.208
Y-32.12
X102.335 Y-33.019
X101.92 Y-33.83
X101.318 Y-34.515
X100.595 Y-35.071
X99.797 Y-35.512
X98.952 Y-35.856
X98.08 Y-36.122
X97.192 Y-36.326
X96.293 Y-36.481
X95.389 Y-36.6
X94.482 Y-36.689
X93.572 Y-36.756
X92.662 Y-36.807
X91.751 Y-36.845
X90.839 Y-36.873
X89.928 Y-36.895
X89.016 Y-36.91
X88.104 Y-36.922
X87.193 Y-36.931
X86.281 Y-36.938
X85.369 Y-36.943
X83.545 Y-36.949
X80.81 Y-36.954
X76.251 Y-36.956
X42.514 Y-36.957
X14.248
X13.359 Y-36.754
X12.565 Y-36.305
X11.899 Y-35.682
X11.359 Y-34.948
X10.931 Y-34.142
X10.597 Y-33.294
X10.339 Y-32.419
X10.141 Y-31.529
X9.99 Y-30.63
X9.875 Y-29.726
X9.788 Y-28.818
X9.722 Y-27.909
X9.673 Y-26.998
X9.636 Y-26.087
X9.608 Y-25.176
X9.587 Y-24.264
X9.571 Y-23.352
X9.559 Y-22.441
X9.551 Y-21.529
X9.544 Y-20.617
X9.539 Y-19.705
X9.533 Y-17.882
X9.531 Y-16.97
X9.528 Y-15.146
X9.529 Y-14.234
X9.753 Y-13.351
X10.213 Y-12.564
X10.843 Y-11.904
X11.581 Y-11.369
X12.388 Y-10.944
X13.236 Y-10.61
X14.111 Y-10.352
X15.001 Y-10.153
X15.9 Y-10.
X16.804 Y-9.884
X17.712 Y-9.796
X18.621 Y-9.729
X19.531 Y-9.679
X20.442 Y-9.641
X21.354 Y-9.612
X22.265 Y-9.59
X23.177 Y-9.574
X24.089 Y-9.562
X25. Y-9.552
X25.912 Y-9.545
X26.824 Y-9.54
X28.648 Y-9.534
X30.471 Y-9.53
X34.119 Y-9.526
X43.237 Y-9.525
X55.09
X94.298
X95.21 Y-9.529
X96.096 Y-9.744
X96.886 Y-10.2
X97.551 Y-10.824
X98.09 Y-11.559
X98.518 Y-12.364
X98.854 Y-13.212
X99.115 Y-14.086
X99.315 Y-14.975
X99.469 Y-15.874
X99.586 Y-16.778
X99.675 Y-17.686
X99.743 Y-18.595
X99.794 Y-19.505
X99.832 Y-20.416
X99.861 Y-21.328
X99.883 Y-22.239
X99.9 Y-23.151
X99.912 Y-24.063
X99.921 Y-24.974
X99.928 Y-25.886
X99.934 Y-26.798
X99.94 Y-28.622
X99.943 Y-29.533
X99.772 Y-30.429
X99.351 Y-31.238
X98.749 Y-31.922
X98.028 Y-32.481
X97.233 Y-32.927
X96.39 Y-33.276
X95.52 Y-33.547
X94.632 Y-33.756
X93.735 Y-33.916
X92.831 Y-34.038
X91.924 Y-34.131
X91.015 Y-34.202
X90.105 Y-34.255
X89.194 Y-34.295
X88.282 Y-34.326
X87.371 Y-34.348
X86.459 Y-34.366
X85.548 Y-34.378
X84.636 Y-34.388
X83.724 Y-34.395
X82.812 Y-34.401
X81.9 Y-34.405
X80.077 Y-34.41
X77.341 Y-34.414
X71.87 Y-34.417
X63.664
X17.162
X16.257 Y-34.301
X15.425 Y-33.929
X14.712 Y-33.361
X14.126 Y-32.662
X13.656 Y-31.881
X13.286 Y-31.047
X12.998 Y-30.182
X12.775 Y-29.298
X12.604 Y-28.403
X12.473 Y-27.5
X12.373 Y-26.594
X12.298 Y-25.685
X12.24 Y-24.775
X12.197 Y-23.864
X12.164 Y-22.953
X12.14 Y-22.042
X12.121 Y-21.13
X12.107 Y-20.218
X12.097 Y-19.307
X12.089 Y-18.395
X12.083 Y-17.483
X12.121 Y-16.572
X12.414 Y-15.709
X12.927 Y-14.954
X13.587 Y-14.326
X14.344 Y-13.818
X15.163 Y-13.416
X16.018 Y-13.1
X16.897 Y-12.856
X17.789 Y-12.667
X18.689 Y-12.523
X19.594 Y-12.412
X20.502 Y-12.328
X21.411 Y-12.264
X22.322 Y-12.215
X23.233 Y-12.178
X24.144 Y-12.15
X25.056 Y-12.129
X25.968 Y-12.113
X26.879 Y-12.101
X27.791 Y-12.092
X28.703 Y-12.086
X29.615 Y-12.08
X31.438 Y-12.074
X34.174 Y-12.069
X38.733 Y-12.066
X44.204 Y-12.065
X91.618
X92.53 Y-12.066
X93.422 Y-12.256
X94.225 Y-12.688
X94.904 Y-13.296
X95.459 Y-14.019
X95.903 Y-14.815
X96.253 Y-15.658
X96.525 Y-16.528
X96.735 Y-17.415
X96.897 Y-18.313
X97.02 Y-19.216
X97.114 Y-20.123
X97.186 Y-21.032
X97.241 Y-21.942
X97.282 Y-22.853
X97.313 Y-23.764
X97.337 Y-24.676
X97.355 Y-25.587
X97.368 Y-26.499
X97.324 Y-27.41
X97.02 Y-28.269
X96.502 Y-29.02
X95.836 Y-29.642
X95.075 Y-30.145
X94.255 Y-30.543
X93.398 Y-30.855
X92.518 Y-31.096
X91.626 Y-31.283
X90.725 Y-31.426
X89.82 Y-31.535
X88.912 Y-31.618
X88.002 Y-31.681
X87.092 Y-31.729
X86.181 Y-31.765
X85.269 Y-31.793
X84.358 Y-31.814
X83.446 Y-31.829
X82.534 Y-31.841
X81.623 Y-31.85
X80.711 Y-31.857
X79.799 Y-31.862
X77.975 Y-31.868
X75.24 Y-31.873
X70.681 Y-31.876
X64.298 Y-31.877
X19.619
X18.721 Y-31.721
X17.903 Y-31.319
X17.205 Y-30.732
X16.632 Y-30.023
X16.173 Y-29.235
X15.811 Y-28.398
X15.528 Y-27.531
X15.31 Y-26.646
X15.142 Y-25.75
X15.013 Y-24.847
X14.914 Y-23.941
X14.839 Y-23.032
X14.782 Y-22.122
X14.739 Y-21.211
X14.706 Y-20.3
X14.686 Y-19.388
X14.904 Y-18.503
X15.358 Y-17.712
X15.982 Y-17.047
X16.716 Y-16.506
X17.519 Y-16.074
X18.365 Y-15.734
X19.238 Y-15.469
X20.126 Y-15.265
X21.024 Y-15.107
X21.928 Y-14.987
X22.835 Y-14.895
X23.744 Y-14.825
X24.655 Y-14.771
X25.565 Y-14.731
X26.477 Y-14.7
X27.388 Y-14.677
X28.3 Y-14.659
X29.212 Y-14.646
X30.123 Y-14.636
X31.035 Y-14.628
X31.947 Y-14.623
X32.859 Y-14.618
X34.682 Y-14.613
X37.418 Y-14.608
X41.977 Y-14.606
X53.83 Y-14.605
X89.391
X90.302 Y-14.646
X91.167 Y-14.934
X91.926 Y-15.439
X92.561 Y-16.094
X93.074 Y-16.847
X93.483 Y-17.662
X93.804 Y-18.516
X94.053 Y-19.393
X94.246 Y-20.284
X94.394 Y-21.184
X94.508 Y-22.089
X94.595 Y-22.996
X94.661 Y-23.906
X94.654 Y-24.817
X94.372 Y-25.685
X93.864 Y-26.442
X93.205 Y-27.072
X92.449 Y-27.581
X91.631 Y-27.984
X90.775 Y-28.3
X89.897 Y-28.544
X89.005 Y-28.733
X88.105 Y-28.878
X87.2 Y-28.988
X86.292 Y-29.072
X85.382 Y-29.137
X84.472 Y-29.185
X83.561 Y-29.222
X82.649 Y-29.25
X81.738 Y-29.272
X80.826 Y-29.288
X79.914 Y-29.3
X79.002 Y-29.309
X78.091 Y-29.316
X77.179 Y-29.321
X75.355 Y-29.328
X73.532 Y-29.332
X69.884 Y-29.335
X60.766 Y-29.337
X44.354
X22.47
X21.562 Y-29.257
X20.713 Y-28.925
X19.974 Y-28.39
X19.362 Y-27.715
X18.867 Y-26.949
X18.474 Y-26.126
X18.166 Y-25.267
X17.927 Y-24.388
X17.742 Y-23.495
X17.6 Y-22.594
X17.554 Y-21.683
X17.813 Y-20.809
X18.309 Y-20.044
X18.964 Y-19.41
X19.719 Y-18.899
X20.537 Y-18.496
X21.392 Y-18.18
X22.271 Y-17.935
X23.163 Y-17.747
X24.063 Y-17.603
X24.968 Y-17.493
X25.876 Y-17.409
X26.786 Y-17.345
X27.696 Y-17.296
X28.607 Y-17.259
X29.519 Y-17.231
X30.43 Y-17.21
X31.342 Y-17.194
X32.254 Y-17.182
X33.166 Y-17.173
X34.077 Y-17.166
X34.989 Y-17.161
X36.813 Y-17.154
X38.636 Y-17.15
X42.284 Y-17.147
X50.49 Y-17.145
X84.227
X86.962
X87.871 Y-17.218
X88.724 Y-17.54
X89.466 Y-18.07
X90.084 Y-18.741
X90.584 Y-19.503
X90.981 Y-20.324
X91.292 Y-21.181
X91.404 Y-21.623
X91.43 Y-22.078
X91.366 Y-22.53
X91.078 Y-23.395
X90.543 Y-24.134
X89.859 Y-24.736
X89.083 Y-25.215
X88.251 Y-25.589
X87.386 Y-25.878
X86.502 Y-26.099
X85.606 Y-26.269
X84.703 Y-26.397
X83.797 Y-26.495
X82.888 Y-26.569
X81.978 Y-26.625
X81.067 Y-26.667
X80.156 Y-26.699
X79.244 Y-26.723
X78.333 Y-26.742
X77.421 Y-26.755
X76.509 Y-26.766
X75.597 Y-26.773
X74.686 Y-26.779
X73.774 Y-26.784
X71.95 Y-26.789
X69.215 Y-26.794
X64.656 Y-26.796
X52.802 Y-26.797
X51.89
X51.663 Y-26.78
X51.325 Y-26.757
X50.946 Y-26.735
X50.514 Y-26.712
X50.012 Y-26.689
X49.412 Y-26.666
X48.669 Y-26.643
X47.758 Y-26.621
X46.846 Y-26.606
X45.934 Y-26.595
X45.022 Y-26.587
X44.111 Y-26.582
X43.199 Y-26.578
X41.375 Y-26.573
X38.64 Y-26.57
X32.257 Y-26.569
X24.963 Y-26.568
X24.058 Y-26.455
X23.229 Y-26.076
X22.523 Y-25.499
X21.946 Y-24.792
X21.869 Y-24.578
X21.825 Y-24.354
X21.816 Y-24.127
X21.868 Y-23.674
X22.221 Y-22.833
X22.823 Y-22.148
X23.56 Y-21.611
X24.372 Y-21.197
X25.228 Y-20.881
X26.108 Y-20.642
X27.001 Y-20.461
X27.903 Y-20.325
X28.809 Y-20.222
X29.717 Y-20.145
X30.627 Y-20.087
X31.538 Y-20.044
X32.449 Y-20.011
X33.361 Y-19.987
X34.272 Y-19.969
X35.184 Y-19.955
X36.096 Y-19.945
X37.008 Y-19.937
X37.92 Y-19.931
X38.831 Y-19.927
X40.655 Y-19.921
X43.39 Y-19.917
X47.949 Y-19.914
X78.039
X84.422
X84.649 Y-19.937
X84.761 Y-19.956
X84.873 Y-19.979
X85.316 Y-20.086
X85.527 Y-20.172
X85.732 Y-20.272
X85.919 Y-20.402
X86.084 Y-20.559
X86.223 Y-20.74
X86.333 Y-20.939
X86.411 Y-21.154
X86.455 Y-21.377
X86.464 Y-21.605
X86.438 Y-21.832
X86.377 Y-22.052
X86.284 Y-22.259
X86.16 Y-22.451
X86.008 Y-22.62
X85.831 Y-22.765
X85.046 Y-23.228
X84.152 Y-23.408
X83.251 Y-23.549
X82.346 Y-23.659
X81.438 Y-23.744
X80.529 Y-23.81
X79.618 Y-23.861
X78.707 Y-23.901
X77.796 Y-23.931
X76.885 Y-23.954
X75.973 Y-23.972
X75.061 Y-23.985
X74.149 Y-23.995
X73.238 Y-24.003
X72.326 Y-24.009
X71.414 Y-24.014
X69.59 Y-24.02
X66.855 Y-24.025
X62.296 Y-24.028
X55.001
X54.09 Y-24.025
X53.178 Y-24.007
X52.267 Y-23.981
X50.444 Y-23.927
X49.532 Y-23.903
X48.621 Y-23.883
X47.709 Y-23.865
X46.797 Y-23.851
X45.886 Y-23.839
X44.974 Y-23.83
X44.062 Y-23.823
X43.15 Y-23.818
X42.238 Y-23.813
X40.415 Y-23.807
X37.679 Y-23.803
X34.944 Y-23.801
X34.032
X33.123 Y-23.867
X32.212 Y-23.914
X32.098 Y-23.918
X32.024 Y-23.928 F2526.
X31.951 Y-23.947
X31.884 Y-23.982 Z-1.995
X31.818 Y-24.017 Z-1.982
X31.753 Y-24.051 Z-1.959
X31.699 Y-24.111 Z-1.921
X31.649 Y-24.167 Z-1.873
X31.604 Y-24.217 Z-1.814
X31.578 Y-24.276 Z-1.738
X31.558 Y-24.324 Z-1.653
X31.543 Y-24.359 Z-1.561
X31.533 Y-24.38 Z-1.465
X31.53 Y-24.387 Z-1.365
G0 Z5.
X-0.655 Y-51.228
Z-1.73
G1 Z-2.365 F2526.
X-0.653 Y-51.22 Z-2.464
X-0.647 Y-51.198 Z-2.561
X-0.638 Y-51.161 Z-2.653
X-0.625 Y-51.11 Z-2.738
X-0.609 Y-51.048 Z-2.814
X-0.59 Y-50.974 Z-2.879
X-0.569 Y-50.892 Z-2.931
X-0.546 Y-50.803 Z-2.969
X-0.522 Y-50.709 Z-2.992
X-0.497 Y-50.613 Z-3.
G3 X0. Y-47.156 R16.211
G1 Y-47.006 F1016.
X-0.182 Y-46.112
X-0.313 Y-45.21
X-0.406 Y-44.303
X-0.473 Y-43.394
X-0.52 Y-42.483
X-0.554 Y-41.572
X-0.577 Y-40.66
X-0.594 Y-39.749
X-0.606 Y-38.837
X-0.615 Y-37.925
X-0.621 Y-37.013
X-0.625 Y-36.102
X-0.63 Y-34.278
X-0.633 Y-31.542
X-0.635 Y-25.16
Y-2.82
X-0.511 Y-2.382
X-0.057 Y-1.591
X0.625 Y-0.985
X1.418 Y-0.535
X2.267 Y-0.205
X3.147 Y0.035
X4.043 Y0.207
X4.946 Y0.331
X5.854 Y0.419
X6.763 Y0.482
X7.674 Y0.527
X8.585 Y0.558
X9.497 Y0.581
X10.408 Y0.597
X11.32 Y0.608
X12.232 Y0.616
X13.144 Y0.621
X14.056 Y0.625
X15.879 Y0.63
X18.615 Y0.633
X24.997 Y0.635
X54.175
X104.325
X106.605
X107.047 Y0.526
X107.848 Y0.089
X108.462 Y-0.584
X108.92 Y-1.373
X109.255 Y-2.221
X109.499 Y-3.1
X109.674 Y-3.994
X109.8 Y-4.897
X109.89 Y-5.805
X109.953 Y-6.714
X109.999 Y-7.625
X110.031 Y-8.536
X110.054 Y-9.448
X110.07 Y-10.36
X110.081 Y-11.271
X110.089 Y-12.183
X110.095 Y-13.095
X110.099 Y-14.007
X110.104 Y-15.83
X110.107 Y-18.566
X110.109 Y-24.948
Y-40.905
X110.087 Y-41.132
X109.975 Y-41.574
X109.516 Y-42.362
X108.832 Y-42.965
X108.038 Y-43.413
X107.188 Y-43.742
X106.308 Y-43.98
X105.412 Y-44.152
X104.509 Y-44.275
X103.601 Y-44.362
X102.691 Y-44.425
X101.781 Y-44.469
X100.869 Y-44.501
X99.958 Y-44.523
X99.046 Y-44.539
X98.134 Y-44.55
X97.223 Y-44.558
X96.311 Y-44.563
X95.399 Y-44.567
X93.575 Y-44.572
X90.84 Y-44.575
X83.545 Y-44.577
X56.191
X6.041
X5.585
X5.141 Y-44.473
X4.329 Y-44.059
X3.694 Y-43.405
X3.213 Y-42.63
X2.856 Y-41.791
X2.593 Y-40.918
X2.401 Y-40.026
X2.262 Y-39.125
X2.161 Y-38.219
X2.089 Y-37.31
X2.037 Y-36.4
X1.999 Y-35.489
X1.972 Y-34.577
X1.953 Y-33.666
X1.939 Y-32.754
X1.93 Y-31.842
X1.923 Y-30.931
X1.918 Y-30.019
X1.914 Y-29.107
X1.91 Y-27.283
X1.907 Y-24.548
X1.905 Y-17.253
Y-6.312
X1.972 Y-5.861
X2.273 Y-5.
X2.826 Y-4.275
X3.531 Y-3.696
X4.324 Y-3.247
X5.169 Y-2.903
X6.043 Y-2.644
X6.934 Y-2.45
X7.834 Y-2.305
X8.74 Y-2.199
X9.648 Y-2.12
X10.558 Y-2.062
X11.469 Y-2.019
X12.38 Y-1.988
X13.292 Y-1.966
X14.203 Y-1.949
X15.115 Y-1.937
X16.027 Y-1.928
X16.939 Y-1.922
X17.85 Y-1.917
X19.674 Y-1.911
X22.41 Y-1.907
X27.88 Y-1.905
X60.706
X103.561
X104.426 Y-2.193
X105.158 Y-2.736
X105.745 Y-3.435
X106.201 Y-4.224
X106.55 Y-5.066
X106.814 Y-5.939
X107.012 Y-6.829
X107.159 Y-7.729
X107.269 Y-8.634
X107.349 Y-9.542
X107.408 Y-10.452
X107.452 Y-11.363
X107.484 Y-12.274
X107.507 Y-13.186
X107.524 Y-14.097
X107.536 Y-15.009
X107.545 Y-15.921
X107.552 Y-16.833
X107.556 Y-17.745
X107.562 Y-19.568
X107.567 Y-22.304
X107.569 Y-27.774
Y-37.804
X107.367 Y-38.693
X106.874 Y-39.461
X106.207 Y-40.083
X105.436 Y-40.569
X104.604 Y-40.942
X103.737 Y-41.225
X102.85 Y-41.438
X101.952 Y-41.596
X101.048 Y-41.713
X100.141 Y-41.8
X99.231 Y-41.864
X98.32 Y-41.911
X97.409 Y-41.945
X96.498 Y-41.97
X95.586 Y-41.988
X94.674 Y-42.002
X93.763 Y-42.011
X92.851 Y-42.018
X91.939 Y-42.024
X91.027 Y-42.027
X89.204 Y-42.032
X86.468 Y-42.035
X80.085 Y-42.037
X39.054
X8.964
X8.512 Y-41.976
X7.646 Y-41.692
X6.91 Y-41.154
X6.318 Y-40.46
X5.855 Y-39.675
X5.499 Y-38.835
X5.229 Y-37.964
X5.026 Y-37.075
X4.874 Y-36.176
X4.761 Y-35.272
X4.677 Y-34.364
X4.616 Y-33.454
X4.57 Y-32.543
X4.536 Y-31.632
X4.512 Y-30.721
X4.494 Y-29.809
X4.481 Y-28.897
X4.471 Y-27.985
X4.464 Y-27.074
X4.459 Y-26.162
X4.455 Y-25.25
X4.45 Y-23.426
X4.447 Y-20.691
X4.445 Y-14.308
Y-8.837
X4.698 Y-7.962
X5.196 Y-7.197
X5.856 Y-6.569
X6.618 Y-6.067
X7.441 Y-5.675
X8.301 Y-5.372
X9.183 Y-5.141
X10.078 Y-4.966
X10.98 Y-4.833
X11.886 Y-4.734
X12.795 Y-4.66
X13.705 Y-4.604
X14.616 Y-4.563
X15.528 Y-4.532
X16.439 Y-4.509
X17.351 Y-4.493
X18.262 Y-4.48
X19.174 Y-4.471
X20.086 Y-4.464
X20.998 Y-4.459
X22.821 Y-4.453
X25.557 Y-4.448
X30.116 Y-4.446
X38.322 Y-4.445
X88.472
X100.326
X101.226 Y-4.586
X102.035 Y-5.007
X102.711 Y-5.619
X103.254 Y-6.351
X103.681 Y-7.157
X104.011 Y-8.007
X104.264 Y-8.883
X104.456 Y-9.774
X104.601 Y-10.674
X104.711 Y-11.58
X104.792 Y-12.488
X104.853 Y-13.397
X104.899 Y-14.308
X104.933 Y-15.219
X104.958 Y-16.131
X104.977 Y-17.042
X104.99 Y-17.954
X105.001 Y-18.866
X105.008 Y-19.778
X105.014 Y-20.689
X105.018 Y-21.601
X105.023 Y-23.425
X105.027 Y-26.16
X105.029 Y-31.631
Y-34.367
X105.017 Y-35.278
X104.714 Y-36.138
X104.179 Y-36.877
X103.496 Y-37.481
X102.721 Y-37.96
X101.889 Y-38.333
X101.023 Y-38.62
X100.138 Y-38.839
X99.241 Y-39.005
X98.338 Y-39.13
X97.431 Y-39.224
X96.522 Y-39.294
X95.612 Y-39.347
X94.701 Y-39.386
X93.79 Y-39.415
X92.878 Y-39.436
X91.966 Y-39.452
X91.055 Y-39.464
X90.143 Y-39.473
X89.231 Y-39.479
X88.319 Y-39.484
X86.496 Y-39.49
X83.76 Y-39.494
X79.201 Y-39.496
X50.935 Y-39.497
X11.727
X10.828 Y-39.347
X10.019 Y-38.925
X9.34 Y-38.316
X8.793 Y-37.587
X8.362 Y-36.783
X8.028 Y-35.935
X7.771 Y-35.06
X7.575 Y-34.17
X7.427 Y-33.27
X7.315 Y-32.365
X7.231 Y-31.457
X7.168 Y-30.547
X7.121 Y-29.637
X7.086 Y-28.726
X7.06 Y-27.814
X7.04 Y-26.903
X7.026 Y-25.991
X7.015 Y-25.079
X7.007 Y-24.167
X7.001 Y-23.256
X6.997 Y-22.344
X6.992 Y-20.52
X6.988 Y-17.785
X6.985 Y-12.314
X7.003 Y-11.402
X7.289 Y-10.537
X7.803 Y-9.783
X8.468 Y-9.159
X9.229 Y-8.658
X10.051 Y-8.264
X10.91 Y-7.957
X11.791 Y-7.721
X12.685 Y-7.541
X13.586 Y-7.403
X14.492 Y-7.299
X15.4 Y-7.221
X16.31 Y-7.161
X17.221 Y-7.117
X18.132 Y-7.084
X19.044 Y-7.059
X19.955 Y-7.04
X20.867 Y-7.026
X21.779 Y-7.015
X22.691 Y-7.008
X23.602 Y-7.002
X24.514 Y-6.997
X26.338 Y-6.992
X29.073 Y-6.988
X34.544 Y-6.985
X36.368
X86.517
X97.459
X98.366 Y-7.082
X99.2 Y-7.449
X99.912 Y-8.018
X100.494 Y-8.721
X100.958 Y-9.506
X101.322 Y-10.342
X101.603 Y-11.209
X101.819 Y-12.095
X101.984 Y-12.992
X102.109 Y-13.895
X102.204 Y-14.802
X102.276 Y-15.711
X102.329 Y-16.621
X102.37 Y-17.532
X102.4 Y-18.443
X102.423 Y-19.355
X102.44 Y-20.266
X102.452 Y-21.178
X102.462 Y-22.09
X102.469 Y-23.002
X102.474 Y-23.913
X102.481 Y-25.737
X102.484 Y-27.561
X102.488 Y-31.208
Y-32.12
X102.335 Y-33.019
X101.92 Y-33.83
X101.318 Y-34.515
X100.595 Y-35.071
X99.797 Y-35.512
X98.952 Y-35.856
X98.08 Y-36.122
X97.192 Y-36.326
X96.293 Y-36.481
X95.389 Y-36.6
X94.482 Y-36.689
X93.572 Y-36.756
X92.662 Y-36.807
X91.751 Y-36.845
X90.839 Y-36.873
X89.928 Y-36.895
X89.016 Y-36.91
X88.104 Y-36.922
X87.193 Y-36.931
X86.281 Y-36.938
X85.369 Y-36.943
X83.545 Y-36.949
X80.81 Y-36.954
X76.251 Y-36.956
X42.514 Y-36.957
X14.248
X13.359 Y-36.754
X12.565 Y-36.305
X11.899 Y-35.682
X11.359 Y-34.948
X10.931 Y-34.142
X10.597 Y-33.294
X10.339 Y-32.419
X10.141 Y-31.529
X9.99 Y-30.63
X9.875 Y-29.726
X9.788 Y-28.818
X9.722 Y-27.909
X9.673 Y-26.998
X9.636 Y-26.087
X9.608 Y-25.176
X9.587 Y-24.264
X9.571 Y-23.352
X9.559 Y-22.441
X9.551 Y-21.529
X9.544 Y-20.617
X9.539 Y-19.705
X9.533 Y-17.882
X9.531 Y-16.97
X9.528 Y-15.146
X9.529 Y-14.234
X9.753 Y-13.351
X10.213 Y-12.564
X10.843 Y-11.904
X11.581 Y-11.369
X12.388 Y-10.944
X13.236 Y-10.61
X14.111 Y-10.352
X15.001 Y-10.153
X15.9 Y-10.
X16.804 Y-9.884
X17.712 Y-9.796
X18.621 Y-9.729
X19.531 Y-9.679
X20.442 Y-9.641
X21.354 Y-9.612
X22.265 Y-9.59
X23.177 Y-9.574
X24.089 Y-9.562
X25. Y-9.552
X25.912 Y-9.545
X26.824 Y-9.54
X28.648 Y-9.534
X30.471 Y-9.53
X34.119 Y-9.526
X43.237 Y-9.525
X55.09
X94.298
X95.21 Y-9.529
X96.096 Y-9.744
X96.886 Y-10.2
X97.551 Y-10.824
X98.09 Y-11.559
X98.518 Y-12.364
X98.854 Y-13.212
X99.115 Y-14.086
X99.315 Y-14.975
X99.469 Y-15.874
X99.586 Y-16.778
X99.675 Y-17.686
X99.743 Y-18.595
X99.794 Y-19.505
X99.832 Y-20.416
X99.861 Y-21.328
X99.883 Y-22.239
X99.9 Y-23.151
X99.912 Y-24.063
X99.921 Y-24.974
X99.928 Y-25.886
X99.934 Y-26.798
X99.94 Y-28.622
X99.943 Y-29.533
X99.772 Y-30.429
X99.351 Y-31.238
X98.749 Y-31.922
X98.028 Y-32.481
X97.233 Y-32.927
X96.39 Y-33.276
X95.52 Y-33.547
X94.632 Y-33.756
X93.735 Y-33.916
X92.831 Y-34.038
X91.924 Y-34.131
X91.015 Y-34.202
X90.105 Y-34.255
X89.194 Y-34.295
X88.282 Y-34.326
X87.371 Y-34.348
X86.459 Y-34.366
X85.548 Y-34.378
X84.636 Y-34.388
X83.724 Y-34.395
X82.812 Y-34.401
X81.9 Y-34.405
X80.077 Y-34.41
X77.341 Y-34.414
X71.87 Y-34.417
X63.664
X17.162
X16.257 Y-34.301
X15.425 Y-33.929
X14.712 Y-33.361
X14.126 Y-32.662
X13.656 Y-31.881
X13.286 Y-31.047
X12.998 Y-30.182
X12.775 Y-29.298
X12.604 Y-28.403
X12.473 Y-27.5
X12.373 Y-26.594
X12.298 Y-25.685
X12.24 Y-24.775
X12.197 Y-23.864
X12.164 Y-22.953
X12.14 Y-22.042
X12.121 Y-21.13
X12.107 Y-20.218
X12.097 Y-19.307
X12.089 Y-18.395
X12.083 Y-17.483
X12.121 Y-16.572
X12.414 Y-15.709
X12.927 Y-14.954
X13.587 Y-14.326
X14.344 Y-13.818
X15.163 Y-13.416
X16.018 Y-13.1
X16.897 Y-12.856
X17.789 Y-12.667
X18.689 Y-12.523
X19.594 Y-12.412
X20.502 Y-12.328
X21.411 Y-12.264
X22.322 Y-12.215
X23.233 Y-12.178
X24.144 Y-12.15
X25.056 Y-12.129
X25.968 Y-12.113
X26.879 Y-12.101
X27.791 Y-12.092
X28.703 Y-12.086
X29.615 Y-12.08
X31.438 Y-12.074
X34.174 Y-12.069
X38.733 Y-12.066
X44.204 Y-12.065
X91.618
X92.53 Y-12.066
X93.422 Y-12.256
X94.225 Y-12.688
X94.904 Y-13.296
X95.459 Y-14.019
X95.903 Y-14.815
X96.253 Y-15.658
X96.525 Y-16.528
X96.735 Y-17.415
X96.897 Y-18.313
X97.02 Y-19.216
X97.114 Y-20.123
X97.186 Y-21.032
X97.241 Y-21.942
X97.282 Y-22.853
X97.313 Y-23.764
X97.337 Y-24.676
X97.355 Y-25.587
X97.368 Y-26.499
X97.324 Y-27.41
X97.02 Y-28.269
X96.502 Y-29.02
X95.836 Y-29.642
X95.075 Y-30.145
X94.255 Y-30.543
X93.398 Y-30.855
X92.518 Y-31.096
X91.626 Y-31.283
X90.725 Y-31.426
X89.82 Y-31.535
X88.912 Y-31.618
X88.002 Y-31.681
X87.092 Y-31.729
X86.181 Y-31.765
X85.269 Y-31.793
X84.358 Y-31.814
X83.446 Y-31.829
X82.534 Y-31.841
X81.623 Y-31.85
X80.711 Y-31.857
X79.799 Y-31.862
X77.975 Y-31.868
X75.24 Y-31.873
X70.681 Y-31.876
X64.298 Y-31.877
X19.619
X18.721 Y-31.721
X17.903 Y-31.319
X17.205 Y-30.732
X16.632 Y-30.023
X16.173 Y-29.235
X15.811 Y-28.398
X15.528 Y-27.531
X15.31 Y-26.646
X15.142 Y-25.75
X15.013 Y-24.847
X14.914 Y-23.941
X14.839 Y-23.032
X14.782 Y-22.122
X14.739 Y-21.211
X14.706 Y-20.3
X14.686 Y-19.388
X14.904 Y-18.503
X15.358 Y-17.712
X15.982 Y-17.047
X16.716 Y-16.506
X17.519 Y-16.074
X18.365 Y-15.734
X19.238 Y-15.469
X20.126 Y-15.265
X21.024 Y-15.107
X21.928 Y-14.987
X22.835 Y-14.895
X23.744 Y-14.825
X24.655 Y-14.771
X25.565 Y-14.731
X26.477 Y-14.7
X27.388 Y-14.677
X28.3 Y-14.659
X29.212 Y-14.646
X30.123 Y-14.636
X31.035 Y-14.628
X31.947 Y-14.623
X32.859 Y-14.618
X34.682 Y-14.613
X37.418 Y-14.608
X41.977 Y-14.606
X53.83 Y-14.605
X89.391
X90.302 Y-14.646
X91.167 Y-14.934
X91.926 Y-15.439
X92.561 Y-16.094
X93.074 Y-16.847
X93.483 Y-17.662
X93.804 Y-18.516
X94.053 Y-19.393
X94.246 Y-20.284
X94.394 Y-21.184
X94.508 Y-22.089
X94.595 Y-22.996
X94.661 Y-23.906
X94.654 Y-24.817
X94.372 Y-25.685
X93.864 Y-26.442
X93.205 Y-27.072
X92.449 Y-27.581
X91.631 Y-27.984
X90.775 Y-28.3
X89.897 Y-28.544
X89.005 Y-28.733
X88.105 Y-28.878
X87.2 Y-28.988
X86.292 Y-29.072
X85.382 Y-29.137
X84.472 Y-29.185
X83.561 Y-29.222
X82.649 Y-29.25
X81.738 Y-29.272
X80.826 Y-29.288
X79.914 Y-29.3
X79.002 Y-29.309
X78.091 Y-29.316
X77.179 Y-29.321
X75.355 Y-29.328
X73.532 Y-29.332
X69.884 Y-29.335
X60.766 Y-29.337
X44.354
X22.47
X21.562 Y-29.257
X20.713 Y-28.925
X19.974 Y-28.39
X19.362 Y-27.715
X18.867 Y-26.949
X18.474 Y-26.126
X18.166 Y-25.267
X17.927 Y-24.388
X17.742 Y-23.495
X17.6 Y-22.594
X17.554 Y-21.683
X17.813 Y-20.809
X18.309 Y-20.044
X18.964 Y-19.41
X19.719 Y-18.899
X20.537 Y-18.496
X21.392 Y-18.18
X22.271 Y-17.935
X23.163 Y-17.747
X24.063 Y-17.603
X24.968 Y-17.493
X25.876 Y-17.409
X26.786 Y-17.345
X27.696 Y-17.296
X28.607 Y-17.259
X29.519 Y-17.231
X30.43 Y-17.21
X31.342 Y-17.194
X32.254 Y-17.182
X33.166 Y-17.173
X34.077 Y-17.166
X34.989 Y-17.161
X36.813 Y-17.154
X38.636 Y-17.15
X42.284 Y-17.147
X50.49 Y-17.145
X84.227
X86.962
X87.871 Y-17.218
X88.724 Y-17.54
X89.466 Y-18.07
X90.084 Y-18.741
X90.584 Y-19.503
X90.981 Y-20.324
X91.292 Y-21.181
X91.404 Y-21.623
X91.43 Y-22.078
X91.366 Y-22.53
X91.078 Y-23.395
X90.543 Y-24.134
X89.859 Y-24.736
X89.083 Y-25.215
X88.251 Y-25.589
X87.386 Y-25.878
X86.502 Y-26.099
X85.606 Y-26.269
X84.703 Y-26.397
X83.797 Y-26.495
X82.888 Y-26.569
X81.978 Y-26.625
X81.067 Y-26.667
X80.156 Y-26.699
X79.244 Y-26.723
X78.333 Y-26.742
X77.421 Y-26.755
X76.509 Y-26.766
X75.597 Y-26.773
X74.686 Y-26.779
X73.774 Y-26.784
X71.95 Y-26.789
X69.215 Y-26.794
X64.656 Y-26.796
X52.802 Y-26.797
X51.89
X51.663 Y-26.78
X51.325 Y-26.757
X50.946 Y-26.735
X50.514 Y-26.712
X50.012 Y-26.689
X49.412 Y-26.666
X48.669 Y-26.643
X47.758 Y-26.621
X46.846 Y-26.606
X45.934 Y-26.595
X45.022 Y-26.587
X44.111 Y-26.582
X43.199 Y-26.578
X41.375 Y-26.573
X38.64 Y-26.57
X32.257 Y-26.569
X24.963 Y-26.568
X24.058 Y-26.455
X23.229 Y-26.076
X22.523 Y-25.499
X21.946 Y-24.792
X21.869 Y-24.578
X21.825 Y-24.354
X21.816 Y-24.127
X21.868 Y-23.674
X22.221 Y-22.833
X22.823 Y-22.148
X23.56 Y-21.611
X24.372 Y-21.197
X25.228 Y-20.881
X26.108 Y-20.642
X27.001 Y-20.461
X27.903 Y-20.325
X28.809 Y-20.222
X29.717 Y-20.145
X30.627 Y-20.087
X31.538 Y-20.044
X32.449 Y-20.011
X33.361 Y-19.987
X34.272 Y-19.969
X35.184 Y-19.955
X36.096 Y-19.945
X37.008 Y-19.937
X37.92 Y-19.931
X38.831 Y-19.927
X40.655 Y-19.921
X43.39 Y-19.917
X47.949 Y-19.914
X78.039
X84.422
X84.649 Y-19.937
X84.761 Y-19.956
X84.873 Y-19.979
X85.316 Y-20.086
X85.527 Y-20.172
X85.732 Y-20.272
X85.919 Y-20.402
X86.084 Y-20.559
X86.223 Y-20.74
X86.333 Y-20.939
X86.411 Y-21.154
X86.455 Y-21.377
X86.464 Y-21.605
X86.438 Y-21.832
X86.377 Y-22.052
X86.284 Y-22.259
X86.16 Y-22.451
X86.008 Y-22.62
X85.831 Y-22.765
X85.046 Y-23.228
X84.152 Y-23.408
X83.251 Y-23.549
X82.346 Y-23.659
X81.438 Y-23.744
X80.529 Y-23.81
X79.618 Y-23.861
X78.707 Y-23.901
X77.796 Y-23.931
X76.885 Y-23.954
X75.973 Y-23.972
X75.061 Y-23.985
X74.149 Y-23.995
X73.238 Y-24.003
X72.326 Y-24.009
X71.414 Y-24.014
X69.59 Y-24.02
X66.855 Y-24.025
X62.296 Y-24.028
X55.001
X54.09 Y-24.025
X53.178 Y-24.007
X52.267 Y-23.981
X50.444 Y-23.927
X49.532 Y-23.903
X48.621 Y-23.883
X47.709 Y-23.865
X46.797 Y-23.851
X45.886 Y-23.839
X44.974 Y-23.83
X44.062 Y-23.823
X43.15 Y-23.818
X42.238 Y-23.813
X40.415 Y-23.807
X37.679 Y-23.803
X34.944 Y-23.801
X34.032
X33.123 Y-23.867
X32.212 Y-23.914
X32.098 Y-23.918
G3 X31.53 Y-24.387 R0.635 F2526.
G1 X31.505 Y-24.483 Z-2.992
X31.479 Y-24.576 Z-2.969
X31.456 Y-24.665 Z-2.931
X31.434 Y-24.747 Z-2.879
X31.414 Y-24.821 Z-2.814
X31.397 Y-24.883 Z-2.738
X31.384 Y-24.933 Z-2.653
X31.374 Y-24.97 Z-2.561
X31.368 Y-24.993 Z-2.464
X31.366 Y-25. Z-2.365
G0 Z15.

G53 G0 Z0.
M30
