(1002)
(MACHINE)
(  VENDOR: BANTAM TOOLS)
(  MODEL: EXPLORER CNC MILLING MACHINE)
(  DESCRIPTION: BANTAM TOOLS EXPLORER CNC MILLING MACHINE)
(T2 D=0.25 CR=0. - ZMIN=-0.25 - FLAT END MILL)
G0 G90 G94 G17
G20
G53 G0 Z0.

(FACE2)
T2
M3 S12000
G90 G94 G17
G55
G0 X3.3121 Y0.0427
Z0.6
G0 Z0.2
G1 Z0.025 F7.3
X3.3118 Z0.0211 F22.
X3.3109 Z0.0173
X3.3094 Z0.0137
X3.3073 Z0.0103
X3.3048 Z0.0073
X3.3018 Z0.0048
X3.2985 Z0.0027
X3.2948 Z0.0012
X3.291 Z0.0003
X3.2871 Z0.
X3.275
X-0.1254
G2 X-0.2084 Y0.1257 R0.083
X-0.1254 Y0.2086 R0.083
G1 X3.275
G3 X3.358 Y0.2916 R0.083
X3.275 Y0.3746 R0.083
G1 X-0.1254
G2 X-0.2084 Y0.4575 R0.083
X-0.1254 Y0.5405 R0.083
G1 X3.275
G3 X3.358 Y0.6235 R0.083
X3.275 Y0.7064 R0.083
G1 X-0.1254
G2 X-0.2084 Y0.7894 R0.083
X-0.1254 Y0.8724 R0.083
G1 X3.275
G3 X3.358 Y0.9553 R0.083
X3.275 Y1.0383 R0.083
G1 X-0.1254
G2 X-0.2084 Y1.1213 R0.083
X-0.1254 Y1.2042 R0.083
G1 X3.275
G3 X3.358 Y1.2872 R0.083
X3.275 Y1.3702 R0.083
G1 X-0.1254
G2 X-0.2084 Y1.4531 R0.083
X-0.1254 Y1.5361 R0.083
G1 X3.275
G3 X3.358 Y1.6191 R0.083
X3.275 Y1.702 R0.083
G1 X-0.1254
G2 X-0.2084 Y1.785 R0.083
X-0.1254 Y1.868 R0.083
G1 X3.275
G3 X3.358 Y1.9509 R0.083
X3.275 Y2.0339 R0.083
G1 X-0.1254
G2 X-0.2084 Y2.1169 R0.083
X-0.1254 Y2.1998 R0.083
G1 X3.275
G3 X3.358 Y2.2828 R0.083
X3.275 Y2.3658 R0.083
G1 X-0.1254
G2 X-0.2084 Y2.4487 R0.083
X-0.1254 Y2.5317 R0.083
G1 X3.275
G3 X3.358 Y2.6147 R0.083
X3.275 Y2.6976 R0.083
G1 X-0.1254
G2 X-0.2084 Y2.7806 R0.083
X-0.1254 Y2.8636 R0.083
G1 X3.275
G3 X3.358 Y2.9465 R0.083
X3.275 Y3.0295 R0.083
G1 X-0.1254
X-0.1293 Z0.0003
X-0.1331 Z0.0012
X-0.1367 Z0.0027
X-0.1401 Z0.0048
X-0.1431 Z0.0073
X-0.1456 Z0.0103
X-0.1477 Z0.0137
X-0.1492 Z0.0173
X-0.1501 Z0.0211
X-0.1504 Z0.025
G0 Z0.6

G53 G0 Z0.
M30
