(FACE.15)
(MACHINE)
(  VENDOR: BANTAM TOOLS)
(  MODEL: EXPLORER CNC MILLING MACHINE)
(  DESCRIPTION: BANTAM TOOLS EXPLORER CNC MILLING MACHINE)
(T2 D=0.25 CR=0. - ZMIN=0. - FLAT END MILL)
G0 G90 G94 G17
G20
G53 G0 Z0.

(FACE_.15STEP)
T2
M3 S12000
G90 G94 G17
G55
G0 X3.5725 Y0.0249
Z0.5906
G0 Z0.1969
G1 Z0.025 F13.3
X3.5722 Z0.0211 F40.
X3.5713 Z0.0173
X3.5698 Z0.0137
X3.5677 Z0.0103
X3.5652 Z0.0073
X3.5622 Z0.0048
X3.5588 Z0.0027
X3.5552 Z0.0012
X3.5514 Z0.0003
X3.5475 Z0.
X3.5354
X-0.1254
G2 X-0.1996 Y0.0991 R0.0742
X-0.1254 Y0.1733 R0.0742
G1 X3.5354
G3 X3.6096 Y0.2475 R0.0742
X3.5354 Y0.3217 R0.0742
G1 X-0.1254
G2 X-0.1996 Y0.3959 R0.0742
X-0.1254 Y0.4701 R0.0742
G1 X3.5354
G3 X3.6096 Y0.5443 R0.0742
X3.5354 Y0.6185 R0.0742
G1 X-0.1254
G2 X-0.1996 Y0.6927 R0.0742
X-0.1254 Y0.7669 R0.0742
G1 X3.5354
G3 X3.6096 Y0.8411 R0.0742
X3.5354 Y0.9153 R0.0742
G1 X-0.1254
G2 X-0.1996 Y0.9895 R0.0742
X-0.1254 Y1.0637 R0.0742
G1 X3.5354
G3 X3.6096 Y1.1379 R0.0742
X3.5354 Y1.2121 R0.0742
G1 X-0.1254
G2 X-0.1996 Y1.2863 R0.0742
X-0.1254 Y1.3605 R0.0742
G1 X3.5354
G3 X3.6096 Y1.4347 R0.0742
X3.5354 Y1.5089 R0.0742
G1 X-0.1254
G2 X-0.1996 Y1.5831 R0.0742
X-0.1254 Y1.6573 R0.0742
G1 X3.5354
G3 X3.6096 Y1.7315 R0.0742
X3.5354 Y1.8057 R0.0742
G1 X-0.1254
G2 X-0.1996 Y1.8799 R0.0742
X-0.1254 Y1.9541 R0.0742
G1 X3.5354
G3 X3.6096 Y2.0283 R0.0742
X3.5354 Y2.1025 R0.0742
G1 X-0.1254
G2 X-0.1996 Y2.1767 R0.0742
X-0.1254 Y2.2509 R0.0742
G1 X3.5354
G3 X3.6096 Y2.3251 R0.0742
X3.5354 Y2.3993 R0.0742
G1 X-0.1254
G2 X-0.1996 Y2.4735 R0.0742
X-0.1254 Y2.5477 R0.0742
G1 X3.5354
G3 X3.6096 Y2.6219 R0.0742
X3.5354 Y2.6961 R0.0742
G1 X-0.1254
G2 X-0.1996 Y2.7703 R0.0742
X-0.1254 Y2.8445 R0.0742
G1 X3.5354
G3 X3.6096 Y2.9187 R0.0742
X3.5354 Y2.9929 R0.0742
G1 X-0.1254
G2 X-0.1996 Y3.0671 R0.0742
X-0.1254 Y3.1413 R0.0742
G1 X3.5354
G3 X3.6096 Y3.2155 R0.0742
X3.5354 Y3.2897 R0.0742
G1 X-0.1254
X-0.1293 Z0.0003
X-0.1331 Z0.0012
X-0.1367 Z0.0027
X-0.1401 Z0.0048
X-0.1431 Z0.0073
X-0.1456 Z0.0103
X-0.1477 Z0.0137
X-0.1492 Z0.0173
X-0.1501 Z0.0211
X-0.1504 Z0.025
G0 Z0.5906

G53 G0 Z0.
M30
