(FACE.75)
(MACHINE)
(  VENDOR: BANTAM TOOLS)
(  MODEL: EXPLORER CNC MILLING MACHINE)
(  DESCRIPTION: BANTAM TOOLS EXPLORER CNC MILLING MACHINE)
(T2 D=0.25 CR=0. - ZMIN=0. - FLAT END MILL)
G0 G90 G94 G17
G20
G53 G0 Z0.

(FACE_.75STEP 2)
T2
M3 S12000
G90 G94 G17
G55
G0 X3.5629 Y-0.05
Z0.5906
G0 Z0.1969
G1 Z0.025 F13.3
X3.5626 Z0.0211 F40.
X3.5617 Z0.0173
X3.5602 Z0.0137
X3.5581 Z0.0103
X3.5556 Z0.0073
X3.5526 Z0.0048
X3.5492 Z0.0027
X3.5456 Z0.0012
X3.5418 Z0.0003
X3.5379 Z0.
X3.5354
X-0.1254
G2 X-0.1625 Y-0.0129 R0.0371
X-0.1254 Y0.0242 R0.0371
G1 X3.5354
G3 X3.5725 Y0.0613 R0.0371
X3.5354 Y0.0985 R0.0371
G1 X-0.1254
G2 X-0.1625 Y0.1356 R0.0371
X-0.1254 Y0.1727 R0.0371
G1 X3.5354
G3 X3.5725 Y0.2098 R0.0371
X3.5354 Y0.2469 R0.0371
G1 X-0.1254
G2 X-0.1625 Y0.284 R0.0371
X-0.1254 Y0.3212 R0.0371
G1 X3.5354
G3 X3.5725 Y0.3583 R0.0371
X3.5354 Y0.3954 R0.0371
G1 X-0.1254
G2 X-0.1625 Y0.4325 R0.0371
X-0.1254 Y0.4696 R0.0371
G1 X3.5354
G3 X3.5725 Y0.5067 R0.0371
X3.5354 Y0.5439 R0.0371
G1 X-0.1254
G2 X-0.1625 Y0.581 R0.0371
X-0.1254 Y0.6181 R0.0371
G1 X3.5354
G3 X3.5725 Y0.6552 R0.0371
X3.5354 Y0.6923 R0.0371
G1 X-0.1254
G2 X-0.1625 Y0.7294 R0.0371
X-0.1254 Y0.7666 R0.0371
G1 X3.5354
G3 X3.5725 Y0.8037 R0.0371
X3.5354 Y0.8408 R0.0371
G1 X-0.1254
G2 X-0.1625 Y0.8779 R0.0371
X-0.1254 Y0.915 R0.0371
G1 X3.5354
G3 X3.5725 Y0.9521 R0.0371
X3.5354 Y0.9893 R0.0371
G1 X-0.1254
G2 X-0.1625 Y1.0264 R0.0371
X-0.1254 Y1.0635 R0.0371
G1 X3.5354
G3 X3.5725 Y1.1006 R0.0371
X3.5354 Y1.1377 R0.0371
G1 X-0.1254
G2 X-0.1625 Y1.1748 R0.0371
X-0.1254 Y1.212 R0.0371
G1 X3.5354
G3 X3.5725 Y1.2491 R0.0371
X3.5354 Y1.2862 R0.0371
G1 X-0.1254
G2 X-0.1625 Y1.3233 R0.0371
X-0.1254 Y1.3604 R0.0371
G1 X3.5354
G3 X3.5725 Y1.3975 R0.0371
X3.5354 Y1.4347 R0.0371
G1 X-0.1254
G2 X-0.1625 Y1.4718 R0.0371
X-0.1254 Y1.5089 R0.0371
G1 X3.5354
G3 X3.5725 Y1.546 R0.0371
X3.5354 Y1.5831 R0.0371
G1 X-0.1254
G2 X-0.1625 Y1.6202 R0.0371
X-0.1254 Y1.6574 R0.0371
G1 X3.5354
G3 X3.5725 Y1.6945 R0.0371
X3.5354 Y1.7316 R0.0371
G1 X-0.1254
G2 X-0.1625 Y1.7687 R0.0371
X-0.1254 Y1.8058 R0.0371
G1 X3.5354
G3 X3.5725 Y1.8429 R0.0371
X3.5354 Y1.8801 R0.0371
G1 X-0.1254
G2 X-0.1625 Y1.9172 R0.0371
X-0.1254 Y1.9543 R0.0371
G1 X3.5354
G3 X3.5725 Y1.9914 R0.0371
X3.5354 Y2.0285 R0.0371
G1 X-0.1254
G2 X-0.1625 Y2.0656 R0.0371
X-0.1254 Y2.1028 R0.0371
G1 X3.5354
G3 X3.5725 Y2.1399 R0.0371
X3.5354 Y2.177 R0.0371
G1 X-0.1254
G2 X-0.1625 Y2.2141 R0.0371
X-0.1254 Y2.2512 R0.0371
G1 X3.5354
G3 X3.5725 Y2.2883 R0.0371
X3.5354 Y2.3255 R0.0371
G1 X-0.1254
G2 X-0.1625 Y2.3626 R0.0371
X-0.1254 Y2.3997 R0.0371
G1 X3.5354
G3 X3.5725 Y2.4368 R0.0371
X3.5354 Y2.4739 R0.0371
G1 X-0.1254
G2 X-0.1625 Y2.511 R0.0371
X-0.1254 Y2.5482 R0.0371
G1 X3.5354
G3 X3.5725 Y2.5853 R0.0371
X3.5354 Y2.6224 R0.0371
G1 X-0.1254
G2 X-0.1625 Y2.6595 R0.0371
X-0.1254 Y2.6966 R0.0371
G1 X3.5354
G3 X3.5725 Y2.7337 R0.0371
X3.5354 Y2.7709 R0.0371
G1 X-0.1254
G2 X-0.1625 Y2.808 R0.0371
X-0.1254 Y2.8451 R0.0371
G1 X3.5354
G3 X3.5725 Y2.8822 R0.0371
X3.5354 Y2.9193 R0.0371
G1 X-0.1254
G2 X-0.1625 Y2.9564 R0.0371
X-0.1254 Y2.9936 R0.0371
G1 X3.5354
G3 X3.5725 Y3.0307 R0.0371
X3.5354 Y3.0678 R0.0371
G1 X-0.1254
G2 X-0.1625 Y3.1049 R0.0371
X-0.1254 Y3.142 R0.0371
G1 X3.5354
G3 X3.5725 Y3.1791 R0.0371
X3.5354 Y3.2163 R0.0371
G1 X-0.1254
G2 X-0.1625 Y3.2534 R0.0371
X-0.1254 Y3.2905 R0.0371
G1 X3.5354
X3.5393 Z0.0003
X3.5431 Z0.0012
X3.5467 Z0.0027
X3.5501 Z0.0048
X3.5531 Z0.0073
X3.5556 Z0.0103
X3.5577 Z0.0137
X3.5592 Z0.0173
X3.5601 Z0.0211
X3.5604 Z0.025
G0 Z0.5906

G53 G0 Z0.
M30
