(TIVAR_HOLE_POCKET)
(MACHINE)
(  VENDOR: BANTAM TOOLS)
(  MODEL: EXPLORER CNC MILLING MACHINE)
(  DESCRIPTION: BANTAM TOOLS EXPLORER CNC MILLING MACHINE)
(T2 D=0.25 CR=0. - ZMIN=-0.125 - FLAT END MILL)
G0 G90 G94 G17
G20
G53 G0 Z0.

(2D POCKET2)
T2
M3 S12000
G90 G94 G17
G55
G0 X1.4724 Y1.6783
Z0.6
G0 Z0.2
G1 Z0.125 F7.3
X1.4715 Y1.6777 Z0.1178
X1.4689 Y1.6762 Z0.1113
X1.4648 Y1.6736 Z0.1058
X1.4598 Y1.67 Z0.102
X1.4563 Y1.6673 Z0.1006
X1.4528 Y1.6643 Z0.1
X1.4465 Y1.6584 Z0.0997
X1.4406 Y1.652 Z0.0994
X1.4353 Y1.6452 Z0.0991
X1.4304 Y1.6381 Z0.0988
X1.4261 Y1.6306 Z0.0985
X1.4223 Y1.6228 Z0.0982
X1.4192 Y1.6147 Z0.0979
X1.4166 Y1.6065 Z0.0976
X1.4146 Y1.5981 Z0.0973
X1.4132 Y1.5895 Z0.097
X1.4125 Y1.5809 Z0.0967
X1.4123 Y1.5723 Z0.0964
X1.4128 Y1.5637 Z0.0961
X1.414 Y1.5551 Z0.0958
X1.4157 Y1.5466 Z0.0955
X1.4181 Y1.5383 Z0.0952
X1.4211 Y1.5302 Z0.0949
X1.4246 Y1.5223 Z0.0946
X1.4288 Y1.5147 Z0.0943
X1.4334 Y1.5074 Z0.094
X1.4386 Y1.5005 Z0.0937
X1.4443 Y1.494 Z0.0934
X1.4504 Y1.4879 Z0.0931
X1.4569 Y1.4822 Z0.0928
X1.4639 Y1.4771 Z0.0924
X1.4712 Y1.4724 Z0.0921
X1.4788 Y1.4684 Z0.0918
X1.4867 Y1.4648 Z0.0915
X1.4948 Y1.4619 Z0.0912
X1.5032 Y1.4596 Z0.0909
X1.5116 Y1.4578 Z0.0906
X1.5202 Y1.4567 Z0.0903
X1.5289 Y1.4563 Z0.09
X1.5375 Y1.4564 Z0.0897
X1.5461 Y1.4572 Z0.0894
X1.5546 Y1.4586 Z0.0891
X1.563 Y1.4606 Z0.0888
X1.5713 Y1.4633 Z0.0885
X1.5793 Y1.4665 Z0.0882
X1.5871 Y1.4703 Z0.0879
X1.5945 Y1.4747 Z0.0876
X1.6017 Y1.4795 Z0.0873
X1.6084 Y1.4849 Z0.087
X1.6148 Y1.4908 Z0.0867
X1.6207 Y1.4971 Z0.0864
X1.6261 Y1.5038 Z0.0861
X1.631 Y1.511 Z0.0858
X1.6354 Y1.5184 Z0.0855
X1.6393 Y1.5261 Z0.0852
X1.6426 Y1.5341 Z0.0849
X1.6452 Y1.5424 Z0.0846
X1.6473 Y1.5508 Z0.0843
X1.6488 Y1.5593 Z0.084
X1.6496 Y1.5679 Z0.0837
X1.6498 Y1.5765 Z0.0834
X1.6494 Y1.5852 Z0.0831
X1.6483 Y1.5938 Z0.0828
X1.6466 Y1.6022 Z0.0825
X1.6443 Y1.6106 Z0.0822
X1.6415 Y1.6187 Z0.0819
X1.638 Y1.6266 Z0.0816
X1.6339 Y1.6343 Z0.0813
X1.6294 Y1.6416 Z0.081
X1.6242 Y1.6486 Z0.0807
X1.6186 Y1.6552 Z0.0804
X1.6126 Y1.6613 Z0.0801
X1.6061 Y1.667 Z0.0798
X1.5992 Y1.6723 Z0.0795
X1.5919 Y1.677 Z0.0792
X1.5843 Y1.6811 Z0.0789
X1.5765 Y1.6847 Z0.0786
X1.5684 Y1.6877 Z0.0783
X1.5601 Y1.6901 Z0.078
X1.5516 Y1.692 Z0.0777
X1.5431 Y1.6931 Z0.0773
X1.5344 Y1.6937 Z0.077
X1.5258 Y1.6936 Z0.0767
X1.5172 Y1.6929 Z0.0764
X1.5086 Y1.6916 Z0.0761
X1.5002 Y1.6897 Z0.0758
X1.4919 Y1.6871 Z0.0755
X1.4839 Y1.684 Z0.0752
X1.4761 Y1.6803 Z0.0749
X1.4686 Y1.676 Z0.0746
X1.4614 Y1.6712 Z0.0743
X1.4546 Y1.6658 Z0.074
X1.4482 Y1.66 Z0.0737
X1.4422 Y1.6538 Z0.0734
X1.4367 Y1.6471 Z0.0731
X1.4317 Y1.64 Z0.0728
X1.4272 Y1.6326 Z0.0725
X1.4233 Y1.6249 Z0.0722
X1.42 Y1.617 Z0.0719
X1.4172 Y1.6088 Z0.0716
X1.415 Y1.6004 Z0.0713
X1.4135 Y1.5919 Z0.071
X1.4126 Y1.5833 Z0.0707
X1.4123 Y1.5746 Z0.0704
X1.4126 Y1.566 Z0.0701
X1.4136 Y1.5574 Z0.0698
X1.4152 Y1.5489 Z0.0695
X1.4174 Y1.5405 Z0.0692
X1.4202 Y1.5324 Z0.0689
X1.4236 Y1.5244 Z0.0686
X1.4276 Y1.5167 Z0.0683
X1.4321 Y1.5094 Z0.068
X1.4371 Y1.5023 Z0.0677
X1.4427 Y1.4957 Z0.0674
X1.4487 Y1.4895 Z0.0671
X1.4551 Y1.4837 Z0.0668
X1.462 Y1.4784 Z0.0665
X1.4692 Y1.4736 Z0.0662
X1.4767 Y1.4694 Z0.0659
X1.4845 Y1.4657 Z0.0656
X1.4926 Y1.4626 Z0.0653
X1.5009 Y1.4601 Z0.065
X1.5093 Y1.4583 Z0.0647
X1.5179 Y1.457 Z0.0644
X1.5265 Y1.4563 Z0.0641
X1.5351 Z0.0638
X1.5438 Y1.4569 Z0.0635
X1.5523 Y1.4582 Z0.0632
X1.5608 Y1.46 Z0.0629
X1.5691 Y1.4625 Z0.0626
X1.5771 Y1.4656 Z0.0622
X1.585 Y1.4692 Z0.0619
X1.5925 Y1.4734 Z0.0616
X1.5998 Y1.4782 Z0.0613
X1.6066 Y1.4834 Z0.061
X1.6131 Y1.4892 Z0.0607
X1.6191 Y1.4954 Z0.0604
X1.6247 Y1.502 Z0.0601
X1.6298 Y1.509 Z0.0598
X1.6343 Y1.5163 Z0.0595
X1.6383 Y1.524 Z0.0592
X1.6417 Y1.5319 Z0.0589
X1.6446 Y1.5401 Z0.0586
X1.6468 Y1.5485 Z0.0583
X1.6484 Y1.557 Z0.058
X1.6494 Y1.5655 Z0.0577
X1.6498 Y1.5742 Z0.0574
X1.6495 Y1.5828 Z0.0571
X1.6487 Y1.5914 Z0.0568
X1.6472 Y1.5999 Z0.0565
X1.645 Y1.6083 Z0.0562
X1.6423 Y1.6165 Z0.0559
X1.639 Y1.6245 Z0.0556
X1.6351 Y1.6322 Z0.0553
X1.6307 Y1.6397 Z0.055
X1.6257 Y1.6467 Z0.0547
X1.6202 Y1.6534 Z0.0544
X1.6143 Y1.6597 Z0.0541
X1.6079 Y1.6655 Z0.0538
X1.6011 Y1.6709 Z0.0535
X1.5939 Y1.6757 Z0.0532
X1.5864 Y1.68 Z0.0529
X1.5786 Y1.6838 Z0.0526
X1.5706 Y1.687 Z0.0523
X1.5624 Y1.6896 Z0.052
X1.5539 Y1.6915 Z0.0517
X1.5454 Y1.6929 Z0.0514
X1.5368 Y1.6936 Z0.0511
X1.5281 Y1.6937 Z0.0508
X1.5195 Y1.6932 Z0.0505
X1.5109 Y1.692 Z0.0502
X1.5025 Y1.6903 Z0.0499
X1.4942 Y1.6879 Z0.0496
X1.486 Y1.6849 Z0.0493
X1.4782 Y1.6813 Z0.049
X1.4706 Y1.6772 Z0.0487
X1.4633 Y1.6725 Z0.0484
X1.4564 Y1.6673 Z0.0481
X1.4499 Y1.6617 Z0.0478
X1.4438 Y1.6555 Z0.0474
X1.4381 Y1.649 Z0.0471
X1.433 Y1.642 Z0.0468
X1.4284 Y1.6347 Z0.0465
X1.4243 Y1.6271 Z0.0462
X1.4208 Y1.6191 Z0.0459
X1.4179 Y1.611 Z0.0456
X1.4156 Y1.6027 Z0.0453
X1.4139 Y1.5942 Z0.045
X1.4128 Y1.5856 Z0.0447
X1.4123 Y1.577 Z0.0444
X1.4125 Y1.5683 Z0.0441
X1.4133 Y1.5597 Z0.0438
X1.4147 Y1.5512 Z0.0435
X1.4168 Y1.5428 Z0.0432
X1.4194 Y1.5346 Z0.0429
X1.4226 Y1.5266 Z0.0426
X1.4264 Y1.5188 Z0.0423
X1.4308 Y1.5113 Z0.042
X1.4357 Y1.5042 Z0.0417
X1.4411 Y1.4975 Z0.0414
X1.447 Y1.4911 Z0.0411
X1.4533 Y1.4852 Z0.0408
X1.4601 Y1.4798 Z0.0405
X1.4672 Y1.4749 Z0.0402
X1.4746 Y1.4705 Z0.0399
X1.4824 Y1.4667 Z0.0396
X1.4904 Y1.4634 Z0.0393
X1.4986 Y1.4608 Z0.039
X1.507 Y1.4587 Z0.0387
X1.5155 Y1.4573 Z0.0384
X1.5242 Y1.4565 Z0.0381
X1.5328 Y1.4563 Z0.0378
X1.5414 Y1.4567 Z0.0375
X1.55 Y1.4578 Z0.0372
X1.5585 Y1.4595 Z0.0369
X1.5668 Y1.4618 Z0.0366
X1.575 Y1.4647 Z0.0363
X1.5829 Y1.4682 Z0.036
X1.5905 Y1.4722 Z0.0357
X1.5978 Y1.4768 Z0.0354
X1.6048 Y1.4819 Z0.0351
X1.6114 Y1.4875 Z0.0348
X1.6175 Y1.4936 Z0.0345
X1.6232 Y1.5001 Z0.0342
X1.6284 Y1.507 Z0.0339
X1.6331 Y1.5143 Z0.0336
X1.6373 Y1.5219 Z0.0333
X1.6408 Y1.5298 Z0.033
X1.6438 Y1.5379 Z0.0327
X1.6463 Y1.5462 Z0.0323
X1.648 Y1.5546 Z0.032
X1.6492 Y1.5632 Z0.0317
X1.6498 Y1.5718 Z0.0314
X1.6497 Y1.5805 Z0.0311
X1.649 Y1.5891 Z0.0308
X1.6476 Y1.5976 Z0.0305
X1.6457 Y1.6061 Z0.0302
X1.6431 Y1.6143 Z0.0299
X1.6399 Y1.6224 Z0.0296
X1.6362 Y1.6302 Z0.0293
X1.6319 Y1.6377 Z0.029
X1.6271 Y1.6448 Z0.0287
X1.6218 Y1.6516 Z0.0284
X1.6159 Y1.658 Z0.0281
X1.6097 Y1.664 Z0.0278
X1.603 Y1.6695 Z0.0275
X1.5959 Y1.6745 Z0.0272
X1.5885 Y1.6789 Z0.0269
X1.5808 Y1.6828 Z0.0266
X1.5728 Y1.6862 Z0.0263
X1.5646 Y1.6889 Z0.026
X1.5562 Y1.691 Z0.0257
X1.5477 Y1.6926 Z0.0254
X1.5391 Y1.6935 Z0.0251
X1.5305 Y1.6937 Z0.0248
X1.5218 Y1.6934 Z0.0245
X1.5133 Y1.6924 Z0.0242
X1.5048 Y1.6908 Z0.0239
X1.4964 Y1.6886 Z0.0236
X1.4882 Y1.6858 Z0.0233
X1.4803 Y1.6824 Z0.023
X1.4726 Y1.6784 Z0.0227
X1.4652 Y1.6738 Z0.0224
X1.4582 Y1.6688 Z0.0221
X1.4516 Y1.6632 Z0.0218
X1.4454 Y1.6572 Z0.0215
X1.4396 Y1.6508 Z0.0212
X1.4344 Y1.6439 Z0.0209
X1.4296 Y1.6367 Z0.0206
X1.4254 Y1.6292 Z0.0203
X1.4217 Y1.6213 Z0.02
X1.4186 Y1.6132 Z0.0197
X1.4161 Y1.605 Z0.0194
X1.4143 Y1.5965 Z0.0191
X1.413 Y1.588 Z0.0188
X1.4124 Y1.5793 Z0.0185
Y1.5707 Z0.0182
X1.413 Y1.5621 Z0.0179
X1.4143 Y1.5535 Z0.0176
X1.4161 Y1.5451 Z0.0172
X1.4186 Y1.5368 Z0.0169
X1.4217 Y1.5287 Z0.0166
X1.4254 Y1.5209 Z0.0163
X1.4296 Y1.5133 Z0.016
X1.4343 Y1.5061 Z0.0157
X1.4396 Y1.4993 Z0.0154
X1.4453 Y1.4928 Z0.0151
X1.4516 Y1.4868 Z0.0148
X1.4582 Y1.4812 Z0.0145
X1.4652 Y1.4762 Z0.0142
X1.4726 Y1.4717 Z0.0139
X1.4802 Y1.4677 Z0.0136
X1.4882 Y1.4643 Z0.0133
X1.4964 Y1.4614 Z0.013
X1.5047 Y1.4592 Z0.0127
X1.5132 Y1.4576 Z0.0124
X1.5218 Y1.4566 Z0.0121
X1.5304 Y1.4563 Z0.0118
X1.5391 Y1.4565 Z0.0115
X1.5477 Y1.4574 Z0.0112
X1.5562 Y1.4589 Z0.0109
X1.5646 Y1.4611 Z0.0106
X1.5728 Y1.4638 Z0.0103
X1.5808 Y1.4672 Z0.01
X1.5885 Y1.4711 Z0.0097
X1.5959 Y1.4755 Z0.0094
X1.6029 Y1.4805 Z0.0091
X1.6096 Y1.486 Z0.0088
X1.6159 Y1.4919 Z0.0085
X1.6217 Y1.4983 Z0.0082
X1.6271 Y1.5051 Z0.0079
X1.6319 Y1.5123 Z0.0076
X1.6362 Y1.5198 Z0.0073
X1.6399 Y1.5276 Z0.007
X1.6431 Y1.5356 Z0.0067
X1.6457 Y1.5439 Z0.0064
X1.6476 Y1.5523 Z0.0061
X1.649 Y1.5609 Z0.0058
X1.6497 Y1.5695 Z0.0055
X1.6498 Y1.5781 Z0.0052
X1.6492 Y1.5868 Z0.0049
X1.6481 Y1.5953 Z0.0046
X1.6463 Y1.6038 Z0.0043
X1.6439 Y1.6121 Z0.004
X1.6409 Y1.6202 Z0.0037
X1.6373 Y1.6281 Z0.0034
X1.6331 Y1.6357 Z0.0031
X1.6285 Y1.6429 Z0.0028
X1.6233 Y1.6498 Z0.0024
X1.6176 Y1.6563 Z0.0021
X1.6114 Y1.6624 Z0.0018
X1.6048 Y1.668 Z0.0015
X1.5979 Y1.6732 Z0.0012
X1.5906 Y1.6778 Z0.0009
X1.5829 Y1.6818 Z0.0006
X1.575 Y1.6853 Z0.0003
X1.5669 Y1.6882 Z0.
X1.5585 Y1.6905 Z-0.0003
X1.5501 Y1.6922 Z-0.0006
X1.5415 Y1.6933 Z-0.0009
X1.5328 Y1.6937 Z-0.0012
X1.5242 Y1.6936 Z-0.0015
X1.5156 Y1.6927 Z-0.0018
X1.5071 Y1.6913 Z-0.0021
X1.4987 Y1.6892 Z-0.0024
X1.4904 Y1.6866 Z-0.0027
X1.4824 Y1.6833 Z-0.003
X1.4747 Y1.6795 Z-0.0033
X1.4672 Y1.6751 Z-0.0036
X1.4601 Y1.6702 Z-0.0039
X1.4534 Y1.6648 Z-0.0042
X1.447 Y1.6589 Z-0.0045
X1.4411 Y1.6526 Z-0.0048
X1.4357 Y1.6458 Z-0.0051
X1.4308 Y1.6387 Z-0.0054
X1.4265 Y1.6312 Z-0.0057
X1.4227 Y1.6235 Z-0.006
X1.4194 Y1.6155 Z-0.0063
X1.4168 Y1.6072 Z-0.0066
X1.4147 Y1.5988 Z-0.0069
X1.4133 Y1.5903 Z-0.0072
X1.4125 Y1.5817 Z-0.0075
X1.4123 Y1.5731 Z-0.0078
X1.4128 Y1.5644 Z-0.0081
X1.4139 Y1.5558 Z-0.0084
X1.4156 Y1.5474 Z-0.0087
X1.4179 Y1.539 Z-0.009
X1.4208 Y1.5309 Z-0.0093
X1.4243 Y1.523 Z-0.0096
X1.4284 Y1.5154 Z-0.0099
X1.433 Y1.508 Z-0.0102
X1.4381 Y1.5011 Z-0.0105
X1.4437 Y1.4945 Z-0.0108
X1.4498 Y1.4884 Z-0.0111
X1.4563 Y1.4827 Z-0.0114
X1.4633 Y1.4775 Z-0.0117
X1.4705 Y1.4728 Z-0.012
X1.4781 Y1.4687 Z-0.0123
X1.486 Y1.4651 Z-0.0127
X1.4941 Y1.4621 Z-0.013
X1.5024 Y1.4598 Z-0.0133
X1.5109 Y1.458 Z-0.0136
X1.5195 Y1.4568 Z-0.0139
X1.5281 Y1.4563 Z-0.0142
X1.5367 Y1.4564 Z-0.0145
X1.5453 Y1.4571 Z-0.0148
X1.5539 Y1.4585 Z-0.0151
X1.5623 Y1.4604 Z-0.0154
X1.5706 Y1.463 Z-0.0157
X1.5786 Y1.4662 Z-0.016
X1.5864 Y1.4699 Z-0.0163
X1.5939 Y1.4742 Z-0.0166
X1.6011 Y1.4791 Z-0.0169
X1.6079 Y1.4844 Z-0.0172
X1.6142 Y1.4903 Z-0.0175
X1.6202 Y1.4965 Z-0.0178
X1.6257 Y1.5032 Z-0.0181
X1.6306 Y1.5103 Z-0.0184
X1.6351 Y1.5177 Z-0.0187
X1.639 Y1.5254 Z-0.019
X1.6423 Y1.5334 Z-0.0193
X1.645 Y1.5416 Z-0.0196
X1.6471 Y1.55 Z-0.0199
X1.6487 Y1.5585 Z-0.0202
X1.6495 Y1.5671 Z-0.0205
X1.6498 Y1.5758 Z-0.0208
X1.6494 Y1.5844 Z-0.0211
X1.6484 Y1.593 Z-0.0214
X1.6468 Y1.6015 Z-0.0217
X1.6446 Y1.6098 Z-0.022
X1.6417 Y1.618 Z-0.0223
X1.6383 Y1.626 Z-0.0226
X1.6343 Y1.6336 Z-0.0229
X1.6298 Y1.641 Z-0.0232
X1.6247 Y1.648 Z-0.0235
X1.6192 Y1.6546 Z-0.0238
X1.6131 Y1.6608 Z-0.0241
X1.6067 Y1.6666 Z-0.0244
X1.5998 Y1.6718 Z-0.0247
X1.5926 Y1.6766 Z-0.025
X1.585 Y1.6808 Z-0.0253
X1.5772 Y1.6844 Z-0.0256
X1.5691 Y1.6875 Z-0.0259
X1.5608 Y1.69 Z-0.0262
X1.5524 Y1.6918 Z-0.0265
X1.5438 Y1.6931 Z-0.0268
X1.5352 Y1.6937 Z-0.0271
X1.5265 Z-0.0274
X1.5179 Y1.693 Z-0.0278
X1.5094 Y1.6918 Z-0.0281
X1.5009 Y1.6899 Z-0.0284
X1.4927 Y1.6874 Z-0.0287
X1.4846 Y1.6843 Z-0.029
X1.4768 Y1.6806 Z-0.0293
X1.4692 Y1.6764 Z-0.0296
X1.462 Y1.6716 Z-0.0299
X1.4552 Y1.6663 Z-0.0302
X1.4487 Y1.6606 Z-0.0305
X1.4427 Y1.6543 Z-0.0308
X1.4372 Y1.6477 Z-0.0311
X1.4321 Y1.6407 Z-0.0314
X1.4276 Y1.6333 Z-0.0317
X1.4236 Y1.6256 Z-0.032
X1.4202 Y1.6177 Z-0.0323
X1.4174 Y1.6095 Z-0.0326
X1.4152 Y1.6011 Z-0.0329
X1.4136 Y1.5926 Z-0.0332
X1.4126 Y1.584 Z-0.0335
X1.4123 Y1.5754 Z-0.0338
X1.4126 Y1.5668 Z-0.0341
X1.4135 Y1.5582 Z-0.0344
X1.415 Y1.5497 Z-0.0347
X1.4172 Y1.5413 Z-0.035
X1.4199 Y1.5331 Z-0.0353
X1.4233 Y1.5251 Z-0.0356
X1.4272 Y1.5174 Z-0.0359
X1.4317 Y1.51 Z-0.0362
X1.4367 Y1.5029 Z-0.0365
X1.4422 Y1.4963 Z-0.0368
X1.4481 Y1.49 Z-0.0371
X1.4545 Y1.4842 Z-0.0374
X1.4613 Y1.4789 Z-0.0377
X1.4685 Y1.4741 Z-0.038
X1.476 Y1.4698 Z-0.0383
X1.4838 Y1.466 Z-0.0386
X1.4919 Y1.4629 Z-0.0389
X1.5001 Y1.4603 Z-0.0392
X1.5086 Y1.4584 Z-0.0395
X1.5171 Y1.4571 Z-0.0398
X1.5257 Y1.4564 Z-0.0401
X1.5344 Y1.4563 Z-0.0404
X1.543 Y1.4569 Z-0.0407
X1.5516 Y1.458 Z-0.041
X1.56 Y1.4598 Z-0.0413
X1.5683 Y1.4623 Z-0.0416
X1.5764 Y1.4653 Z-0.0419
X1.5843 Y1.4689 Z-0.0422
X1.5919 Y1.473 Z-0.0426
X1.5991 Y1.4777 Z-0.0429
X1.606 Y1.4829 Z-0.0432
X1.6125 Y1.4886 Z-0.0435
X1.6186 Y1.4948 Z-0.0438
X1.6242 Y1.5014 Z-0.0441
X1.6293 Y1.5083 Z-0.0444
X1.6339 Y1.5157 Z-0.0447
X1.638 Y1.5233 Z-0.045
X1.6414 Y1.5312 Z-0.0453
X1.6443 Y1.5394 Z-0.0456
X1.6466 Y1.5477 Z-0.0459
X1.6483 Y1.5562 Z-0.0462
X1.6494 Y1.5648 Z-0.0465
X1.6498 Y1.5734 Z-0.0468
X1.6496 Y1.5821 Z-0.0471
X1.6488 Y1.5907 Z-0.0474
X1.6473 Y1.5992 Z-0.0477
X1.6452 Y1.6076 Z-0.048
X1.6426 Y1.6158 Z-0.0483
X1.6393 Y1.6238 Z-0.0486
X1.6355 Y1.6316 Z-0.0489
X1.6311 Y1.639 Z-0.0492
X1.6262 Y1.6461 Z-0.0495
X1.6207 Y1.6528 Z-0.0498
X1.6148 Y1.6592 Z-0.0501
X1.6085 Y1.665 Z-0.0504
X1.6017 Y1.6704 Z-0.0507
X1.5946 Y1.6753 Z-0.051
X1.5871 Y1.6797 Z-0.0513
X1.5794 Y1.6835 Z-0.0516
X1.5713 Y1.6867 Z-0.0519
X1.5631 Y1.6893 Z-0.0522
X1.5547 Y1.6914 Z-0.0525
X1.5462 Y1.6928 Z-0.0528
X1.5375 Y1.6936 Z-0.0531
X1.5289 Y1.6937 Z-0.0534
X1.5203 Y1.6933 Z-0.0537
X1.5117 Y1.6922 Z-0.054
X1.5032 Y1.6904 Z-0.0543
X1.4949 Y1.6881 Z-0.0546
X1.4868 Y1.6852 Z-0.0549
X1.4789 Y1.6817 Z-0.0552
X1.4712 Y1.6776 Z-0.0555
X1.4639 Y1.673 Z-0.0558
X1.457 Y1.6678 Z-0.0561
X1.4504 Y1.6622 Z-0.0564
X1.4443 Y1.6561 Z-0.0567
X1.4386 Y1.6496 Z-0.057
X1.4334 Y1.6426 Z-0.0573
X1.4288 Y1.6353 Z-0.0577
X1.4247 Y1.6277 Z-0.058
X1.4211 Y1.6199 Z-0.0583
X1.4181 Y1.6117 Z-0.0586
X1.4158 Y1.6034 Z-0.0589
X1.414 Y1.595 Z-0.0592
X1.4129 Y1.5864 Z-0.0595
X1.4123 Y1.5778 Z-0.0598
X1.4124 Y1.5691 Z-0.0601
X1.4132 Y1.5605 Z-0.0604
X1.4146 Y1.552 Z-0.0607
X1.4165 Y1.5435 Z-0.061
X1.4191 Y1.5353 Z-0.0613
X1.4223 Y1.5273 Z-0.0616
X1.4261 Y1.5195 Z-0.0619
X1.4304 Y1.512 Z-0.0622
X1.4353 Y1.5048 Z-0.0625
X1.4406 Y1.498 Z-0.0628
X1.4465 Y1.4917 Z-0.0631
X1.4527 Y1.4857 Z-0.0634
X1.4594 Y1.4803 Z-0.0637
X1.4665 Y1.4753 Z-0.064
X1.474 Y1.4709 Z-0.0643
X1.4817 Y1.467 Z-0.0646
X1.4897 Y1.4637 Z-0.0649
X1.4979 Y1.461 Z-0.0652
X1.5063 Y1.4589 Z-0.0655
X1.5148 Y1.4574 Z-0.0658
X1.5234 Y1.4565 Z-0.0661
X1.532 Y1.4563 Z-0.0664
X1.5407 Y1.4566 Z-0.0667
X1.5493 Y1.4577 Z-0.067
X1.5577 Y1.4593 Z-0.0673
X1.5661 Y1.4615 Z-0.0676
X1.5743 Y1.4644 Z-0.0679
X1.5822 Y1.4678 Z-0.0682
X1.5899 Y1.4718 Z-0.0685
X1.5972 Y1.4764 Z-0.0688
X1.6042 Y1.4815 Z-0.0691
X1.6108 Y1.487 Z-0.0694
X1.617 Y1.4931 Z-0.0697
X1.6227 Y1.4995 Z-0.07
X1.628 Y1.5064 Z-0.0703
X1.6327 Y1.5136 Z-0.0706
X1.6369 Y1.5212 Z-0.0709
X1.6406 Y1.529 Z-0.0712
X1.6436 Y1.5371 Z-0.0715
X1.6461 Y1.5454 Z-0.0718
X1.6479 Y1.5539 Z-0.0721
X1.6491 Y1.5624 Z-0.0724
X1.6497 Y1.5711 Z-0.0728
Y1.5797 Z-0.0731
X1.6491 Y1.5883 Z-0.0734
X1.6478 Y1.5969 Z-0.0737
X1.6459 Y1.6053 Z-0.074
X1.6434 Y1.6136 Z-0.0743
X1.6403 Y1.6217 Z-0.0746
X1.6366 Y1.6295 Z-0.0749
X1.6323 Y1.637 Z-0.0752
X1.6275 Y1.6442 Z-0.0755
X1.6223 Y1.6511 Z-0.0758
X1.6165 Y1.6575 Z-0.0761
X1.6102 Y1.6635 Z-0.0764
X1.6036 Y1.669 Z-0.0767
X1.5966 Y1.674 Z-0.077
X1.5892 Y1.6785 Z-0.0773
X1.5815 Y1.6825 Z-0.0776
X1.5735 Y1.6859 Z-0.0779
X1.5654 Y1.6887 Z-0.0782
X1.557 Y1.6909 Z-0.0785
X1.5485 Y1.6925 Z-0.0788
X1.5399 Y1.6934 Z-0.0791
X1.5313 Y1.6937 Z-0.0794
X1.5226 Y1.6934 Z-0.0797
X1.514 Y1.6925 Z-0.08
X1.5055 Y1.691 Z-0.0803
X1.4971 Y1.6888 Z-0.0806
X1.489 Y1.686 Z-0.0809
X1.481 Y1.6827 Z-0.0812
X1.4733 Y1.6787 Z-0.0815
X1.4659 Y1.6743 Z-0.0818
X1.4588 Y1.6693 Z-0.0821
X1.4522 Y1.6638 Z-0.0824
X1.4459 Y1.6578 Z-0.0827
X1.4401 Y1.6514 Z-0.083
X1.4348 Y1.6446 Z-0.0833
X1.43 Y1.6374 Z-0.0836
X1.4257 Y1.6298 Z-0.0839
X1.422 Y1.622 Z-0.0842
X1.4189 Y1.614 Z-0.0845
X1.4163 Y1.6057 Z-0.0848
X1.4144 Y1.5973 Z-0.0851
X1.4131 Y1.5887 Z-0.0854
X1.4124 Y1.5801 Z-0.0857
Y1.5715 Z-0.086
X1.4129 Y1.5628 Z-0.0863
X1.4141 Y1.5543 Z-0.0866
X1.4159 Y1.5458 Z-0.0869
X1.4184 Y1.5375 Z-0.0872
X1.4214 Y1.5294 Z-0.0876
X1.425 Y1.5216 Z-0.0879
X1.4292 Y1.514 Z-0.0882
X1.4339 Y1.5067 Z-0.0885
X1.4391 Y1.4999 Z-0.0888
X1.4448 Y1.4934 Z-0.0891
X1.451 Y1.4873 Z-0.0894
X1.4576 Y1.4817 Z-0.0897
X1.4646 Y1.4766 Z-0.09
X1.4719 Y1.472 Z-0.0903
X1.4795 Y1.468 Z-0.0906
X1.4875 Y1.4645 Z-0.0909
X1.4956 Y1.4617 Z-0.0912
X1.504 Y1.4594 Z-0.0915
X1.5125 Y1.4577 Z-0.0918
X1.521 Y1.4567 Z-0.0921
X1.5297 Y1.4563 Z-0.0924
X1.5383 Y1.4565 Z-0.0927
X1.5469 Y1.4573 Z-0.093
X1.5554 Y1.4588 Z-0.0933
X1.5638 Y1.4609 Z-0.0936
X1.5721 Y1.4636 Z-0.0939
X1.5801 Y1.4668 Z-0.0942
X1.5878 Y1.4707 Z-0.0945
X1.5952 Y1.4751 Z-0.0948
X1.6023 Y1.48 Z-0.0951
X1.6091 Y1.4855 Z-0.0954
X1.6154 Y1.4914 Z-0.0957
X1.6212 Y1.4977 Z-0.096
X1.6266 Y1.5045 Z-0.0963
X1.6315 Y1.5116 Z-0.0966
X1.6358 Y1.5191 Z-0.0969
X1.6396 Y1.5269 Z-0.0972
X1.6428 Y1.5349 Z-0.0975
X1.6455 Y1.5432 Z-0.0978
X1.6475 Y1.5516 Z-0.0981
X1.6489 Y1.5601 Z-0.0984
X1.6496 Y1.5687 Z-0.0987
X1.6498 Y1.5774 Z-0.099
X1.6493 Y1.586 Z-0.0993
X1.6482 Y1.5946 Z-0.0996
X1.6464 Y1.603 Z-0.0999
X1.6441 Y1.6114 Z-0.1002
X1.6412 Y1.6195 Z-0.1005
X1.6376 Y1.6274 Z-0.1008
X1.6335 Y1.635 Z-0.1011
X1.6289 Y1.6423 Z-0.1014
X1.6237 Y1.6492 Z-0.1017
X1.6181 Y1.6558 Z-0.102
X1.612 Y1.6619 Z-0.1023
X1.6054 Y1.6676 Z-0.1027
X1.5985 Y1.6727 Z-0.103
X1.5912 Y1.6774 Z-0.1033
X1.5836 Y1.6815 Z-0.1036
X1.5757 Y1.685 Z-0.1039
X1.5676 Y1.688 Z-0.1042
X1.5593 Y1.6903 Z-0.1045
X1.5508 Y1.6921 Z-0.1048
X1.5422 Y1.6932 Z-0.1051
X1.5336 Y1.6937 Z-0.1054
X1.525 Y1.6936 Z-0.1057
X1.5164 Y1.6928 Z-0.106
X1.5078 Y1.6915 Z-0.1063
X1.4994 Y1.6895 Z-0.1066
X1.4912 Y1.6868 Z-0.1069
X1.4831 Y1.6836 Z-0.1072
X1.4753 Y1.6799 Z-0.1075
X1.4679 Y1.6755 Z-0.1078
X1.4607 Y1.6707 Z-0.1081
X1.4539 Y1.6653 Z-0.1084
X1.4476 Y1.6595 Z-0.1087
X1.4416 Y1.6532 Z-0.109
X1.4362 Y1.6464 Z-0.1093
X1.4313 Y1.6394 Z-0.1096
X1.4268 Y1.6319 Z-0.1099
X1.423 Y1.6242 Z-0.1102
X1.4197 Y1.6162 Z-0.1105
X1.417 Y1.608 Z-0.1108
X1.4149 Y1.5996 Z-0.1111
X1.4134 Y1.5911 Z-0.1114
X1.4125 Y1.5825 Z-0.1117
X1.4123 Y1.5738 Z-0.112
X1.4127 Y1.5652 Z-0.1123
X1.4137 Y1.5566 Z-0.1126
X1.4154 Y1.5481 Z-0.1129
X1.4177 Y1.5398 Z-0.1132
X1.4205 Y1.5316 Z-0.1135
X1.424 Y1.5237 Z-0.1138
X1.428 Y1.516 Z-0.1141
X1.4325 Y1.5087 Z-0.1144
X1.4376 Y1.5017 Z-0.1147
X1.4432 Y1.4951 Z-0.115
X1.4493 Y1.4889 Z-0.1153
X1.4557 Y1.4832 Z-0.1156
X1.4626 Y1.4779 Z-0.1159
X1.4699 Y1.4732 Z-0.1162
X1.4774 Y1.469 Z-0.1165
X1.4853 Y1.4654 Z-0.1168
X1.4934 Y1.4624 Z-0.1171
X1.5017 Y1.4599 Z-0.1174
X1.5101 Y1.4581 Z-0.1178
X1.5187 Y1.4569 Z-0.1181
X1.5273 Y1.4563 Z-0.1184
X1.536 Y1.4564 Z-0.1187
X1.5446 Y1.457 Z-0.119
X1.5531 Y1.4583 Z-0.1193
X1.5616 Y1.4602 Z-0.1196
X1.5698 Y1.4628 Z-0.1199
X1.5779 Y1.4659 Z-0.1202
X1.5857 Y1.4696 Z-0.1205
X1.5932 Y1.4738 Z-0.1208
X1.6004 Y1.4786 Z-0.1211
X1.6073 Y1.4839 Z-0.1214
X1.6137 Y1.4897 Z-0.1217
X1.6197 Y1.496 Z-0.122
X1.6252 Y1.5026 Z-0.1223
X1.6302 Y1.5097 Z-0.1226
X1.6347 Y1.517 Z-0.1229
X1.6386 Y1.5247 Z-0.1232
X1.642 Y1.5327 Z-0.1235
X1.6448 Y1.5409 Z-0.1238
X1.647 Y1.5493 Z-0.1241
X1.6485 Y1.5578 Z-0.1244
X1.6495 Y1.5664 Z-0.1247
X1.6498 Y1.575 Z-0.125
G3 X1.5748 Y1.65 R0.075 F22.
X1.4998 Y1.575 R0.075
X1.6498 Y1.425 R0.15
X1.7998 Y1.575 R0.15
X1.5748 Y1.8 R0.225
X1.3498 Y1.575 R0.225
X1.6498 Y1.275 R0.3
X1.9498 Y1.575 R0.3
X1.5748 Y1.95 R0.375
X1.1998 Y1.575 R0.375
X1.5748 Y1.2 R0.375
X1.9498 Y1.575 R0.375
G1 X1.9494 Y1.5788 Z-0.1244
X1.9484 Y1.5826 Z-0.1238
X1.947 Y1.5858 Z-0.122
X1.9452 Y1.5887 Z-0.1202
X1.9434 Y1.5908 Z-0.1175
X1.9414 Y1.5928 Z-0.1147
X1.9386 Y1.5949 Z-0.1077
X1.9375 Y1.5955 Z-0.1
G0 Z0.6

G53 G0 Z0.
M30
