(POCKET0.075)
(MACHINE)
(  VENDOR: BANTAM TOOLS)
(  MODEL: EXPLORER CNC MILLING MACHINE)
(  DESCRIPTION: BANTAM TOOLS EXPLORER CNC MILLING MACHINE)
(T2 D=0.25 CR=0. - ZMIN=0. - FLAT END MILL)
G0 G90 G94 G17
G20
G53 G0 Z0.

(2D POCKET_.075STEP 2)
T2
M3 S12000
G90 G94 G17
G55
G0 X1.5662 Y3.5442
Z0.6
G0 Z0.2
G1 Z0.0394 F13.3
Z0.025 F40.
X1.5665 Y3.544 Z0.0211
X1.5672 Y3.5436 Z0.0173
X1.5685 Y3.5428 Z0.0137
X1.5703 Y3.5417 Z0.0103
X1.5724 Y3.5404 Z0.0073
X1.575 Y3.5388 Z0.0048
X1.5778 Y3.5371 Z0.0027
X1.5809 Y3.5352 Z0.0012
X1.5842 Y3.5332 Z0.0003
X1.5875 Y3.5311 Z0.
G3 X1.705 Y3.498 R0.2249
G1 X3.41
G2 X3.498 Y3.41 R0.088
G1 Y0.
G2 X3.41 Y-0.088 R0.088
G1 X0.
G2 X-0.088 Y0. R0.088
G1 Y3.41
G2 X0. Y3.498 R0.088
G1 X1.705
G2 X1.7582 Y3.4625 R0.0577
G3 X1.8115 Y3.427 R0.0577
G1 X3.41
G2 X3.427 Y3.41 R0.017
G1 Y0.
G2 X3.41 Y-0.017 R0.017
G1 X0.
G2 X-0.017 Y0. R0.017
G1 Y3.41
G2 X0. Y3.427 R0.017
G1 X1.8115
G2 X1.8634 Y3.3924 R0.0562
G3 X1.9153 Y3.3578 R0.0562
G1 X3.345
G2 X3.3578 Y3.345 R0.0128
G1 Y0.065
G2 X3.345 Y0.0522 R0.0128
G1 X0.065
G2 X0.0522 Y0.065 R0.0128
G1 Y3.345
G2 X0.065 Y3.3578 R0.0128
G1 X1.9153
G2 X1.9686 Y3.3223 R0.0577
G3 X2.0218 Y3.2868 R0.0577
G1 X3.274
G2 X3.2868 Y3.274 R0.0128
G1 Y0.136
G2 X3.274 Y0.1232 R0.0128
G1 X0.136
G2 X0.1232 Y0.136 R0.0128
G1 Y3.274
G2 X0.136 Y3.2868 R0.0128
G1 X2.0218
G2 X2.075 Y3.2513 R0.0577
G3 X2.1283 Y3.2158 R0.0577
G1 X3.203
G2 X3.2158 Y3.203 R0.0128
G1 Y0.207
G2 X3.203 Y0.1942 R0.0128
G1 X0.207
G2 X0.1942 Y0.207 R0.0128
G1 Y3.203
G2 X0.207 Y3.2158 R0.0128
G1 X2.1283
G2 X2.1815 Y3.1803 R0.0577
G3 X2.2348 Y3.1448 R0.0577
G1 X3.132
G2 X3.1448 Y3.132 R0.0128
G1 Y0.278
G2 X3.132 Y0.2652 R0.0128
G1 X0.278
G2 X0.2652 Y0.278 R0.0128
G1 Y3.132
G2 X0.278 Y3.1448 R0.0128
G1 X2.2348
G2 X2.2881 Y3.1093 R0.0577
G3 X2.3413 Y3.0738 R0.0577
G1 X3.061
G2 X3.0738 Y3.061 R0.0128
G1 Y0.349
G2 X3.061 Y0.3362 R0.0128
G1 X0.349
G2 X0.3362 Y0.349 R0.0128
G1 Y3.061
G2 X0.349 Y3.0738 R0.0128
G1 X2.3413
G2 X2.3946 Y3.0383 R0.0577
G3 X2.4478 Y3.0028 R0.0577
G1 X2.99
G2 X3.0028 Y2.99 R0.0128
G1 Y0.42
G2 X2.99 Y0.4072 R0.0128
G1 X0.42
G2 X0.4072 Y0.42 R0.0128
G1 Y2.99
G2 X0.42 Y3.0028 R0.0128
G1 X2.4478
G2 X2.501 Y2.9673 R0.0577
G3 X2.5543 Y2.9318 R0.0577
G1 X2.919
G2 X2.9318 Y2.919 R0.0128
G1 Y0.491
G2 X2.919 Y0.4782 R0.0128
G1 X0.491
G2 X0.4782 Y0.491 R0.0128
G1 Y2.919
G2 X0.491 Y2.9318 R0.0128
G1 X2.5543
G2 X2.6076 Y2.8963 R0.0577
G3 X2.6608 Y2.8608 R0.0577
G1 X2.848
G2 X2.8608 Y2.848 R0.0128
G1 Y0.562
G2 X2.848 Y0.5492 R0.0128
G1 X0.562
G2 X0.5492 Y0.562 R0.0128
G1 Y2.848
G2 X0.562 Y2.8608 R0.0128
G1 X2.6608
G2 X2.714 Y2.8253 R0.0577
G3 X2.7673 Y2.7898 R0.0577
G1 X2.777
G2 X2.7898 Y2.777 R0.0128
G1 Y0.633
G2 X2.777 Y0.6202 R0.0128
G1 X0.633
G2 X0.6202 Y0.633 R0.0128
G1 Y2.777
G2 X0.633 Y2.7898 R0.0128
G1 X2.7673
G2 X2.826 Y2.7311 R0.0587
X2.7862 Y2.6756 R0.0587
G3 X2.7188 Y2.5815 R0.0994
G1 Y0.704
G2 X2.706 Y0.6912 R0.0128
G1 X0.704
G2 X0.6912 Y0.704 R0.0128
G1 Y2.706
G2 X0.704 Y2.7188 R0.0128
G1 X2.706
G2 X2.7188 Y2.706 R0.0128
G1 Y2.5815
G2 X2.6833 Y2.5282 R0.0577
G3 X2.6478 Y2.475 R0.0577
G1 Y0.775
G2 X2.635 Y0.7622 R0.0128
G1 X0.775
G2 X0.7622 Y0.775 R0.0128
G1 Y2.635
G2 X0.775 Y2.6478 R0.0128
G1 X2.635
G2 X2.6478 Y2.635 R0.0128
G1 Y2.475
G2 X2.6123 Y2.4217 R0.0577
G3 X2.5768 Y2.3685 R0.0577
G1 Y0.846
G2 X2.564 Y0.8332 R0.0128
G1 X0.846
G2 X0.8332 Y0.846 R0.0128
G1 Y2.564
G2 X0.846 Y2.5768 R0.0128
G1 X2.564
G2 X2.5768 Y2.564 R0.0128
G1 Y2.3685
G2 X2.5413 Y2.3152 R0.0577
G3 X2.5058 Y2.262 R0.0577
G1 Y0.917
G2 X2.493 Y0.9042 R0.0128
G1 X0.917
G2 X0.9042 Y0.917 R0.0128
G1 Y2.493
G2 X0.917 Y2.5058 R0.0128
G1 X2.493
G2 X2.5058 Y2.493 R0.0128
G1 Y2.262
G2 X2.4703 Y2.2087 R0.0577
G3 X2.4348 Y2.1555 R0.0577
G1 Y0.988
G2 X2.422 Y0.9752 R0.0128
G1 X0.988
G2 X0.9752 Y0.988 R0.0128
G1 Y2.422
G2 X0.988 Y2.4348 R0.0128
G1 X2.422
G2 X2.4348 Y2.422 R0.0128
G1 Y2.1555
G2 X2.3993 Y2.1022 R0.0577
G3 X2.3638 Y2.049 R0.0577
G1 Y1.059
G2 X2.351 Y1.0462 R0.0128
G1 X1.059
G2 X1.0462 Y1.059 R0.0128
G1 Y2.351
G2 X1.059 Y2.3638 R0.0128
G1 X2.351
G2 X2.3638 Y2.351 R0.0128
G1 Y2.049
G2 X2.3283 Y1.9957 R0.0577
G3 X2.2928 Y1.9425 R0.0577
G1 Y1.13
G2 X2.28 Y1.1172 R0.0128
G1 X1.13
G2 X1.1172 Y1.13 R0.0128
G1 Y2.28
G2 X1.13 Y2.2928 R0.0128
G1 X2.28
G2 X2.2928 Y2.28 R0.0128
G1 Y1.9425
G2 X2.2573 Y1.8892 R0.0577
G3 X2.2218 Y1.836 R0.0577
G1 Y1.201
G2 X2.209 Y1.1882 R0.0128
G1 X1.201
G2 X1.1882 Y1.201 R0.0128
G1 Y2.209
G2 X1.201 Y2.2218 R0.0128
G1 X2.209
G2 X2.2218 Y2.209 R0.0128
G1 Y1.836
G2 X2.1863 Y1.7827 R0.0577
G3 X2.1508 Y1.7295 R0.0577
G1 Y1.272
G2 X2.138 Y1.2592 R0.0128
G1 X1.272
G2 X1.2592 Y1.272 R0.0128
G1 Y2.138
G2 X1.272 Y2.1508 R0.0128
G1 X2.138
G2 X2.1508 Y2.138 R0.0128
G1 Y1.7295
G2 X2.1153 Y1.6762 R0.0577
G3 X2.0798 Y1.623 R0.0577
G1 Y1.343
G2 X2.067 Y1.3302 R0.0128
G1 X1.343
G2 X1.3302 Y1.343 R0.0128
G1 Y2.067
G2 X1.343 Y2.0798 R0.0128
G1 X2.067
G2 X2.0798 Y2.067 R0.0128
G1 Y1.623
G2 X2.0443 Y1.5697 R0.0577
G3 X2.0088 Y1.5165 R0.0577
G1 Y1.414
G2 X1.996 Y1.4012 R0.0128
G1 X1.414
G2 X1.4012 Y1.414 R0.0128
G1 Y1.996
G2 X1.414 Y2.0088 R0.0128
G1 X1.996
G2 X2.0088 Y1.996 R0.0128
G1 Y1.5165
G2 X1.9572 Y1.4649 R0.0516
X1.9486 Y1.4656 R0.0516
G3 X1.8701 Y1.4722 R0.4722
G1 X1.485
G2 X1.4722 Y1.485 R0.0128
G1 Y1.925
G2 X1.485 Y1.9378 R0.0128
G1 X1.925
G2 X1.9378 Y1.925 R0.0128
G1 Y1.485
G2 X1.925 Y1.4722 R0.0128
G1 X1.8701
G2 X1.8436 Y1.4987 R0.0265
X1.8452 Y1.5077 R0.0265
G3 X1.8292 Y1.5416 R0.0265
X1.8202 Y1.5432 R0.0265
G1 X1.556
G2 X1.5432 Y1.556 R0.0128
G1 Y1.854
G2 X1.556 Y1.8668 R0.0128
G1 X1.854
G2 X1.8668 Y1.854 R0.0128
G1 Y1.556
G2 X1.854 Y1.5432 R0.0128
G1 X1.8202
G2 X1.7846 Y1.5787 R0.0356
G3 X1.7489 Y1.6142 R0.0356
G1 X1.627
G2 X1.6142 Y1.627 R0.0128
G1 Y1.783
G2 X1.627 Y1.7958 R0.0128
G1 X1.783
G2 X1.7958 Y1.783 R0.0128
G1 Y1.627
G2 X1.783 Y1.6142 R0.0128
G1 X1.7489
G2 X1.6998 Y1.6429 R0.0565
X1.6852 Y1.6979 R0.1125
G1 Y1.698
Y1.712
G2 X1.698 Y1.7248 R0.0128
G1 X1.712
G2 X1.7248 Y1.712 R0.0128
G1 Y1.698
G2 X1.712 Y1.6852 R0.0128
G1 X1.698
G2 X1.6852 Y1.6979 R0.0128
G1 X1.6854 Y1.6999 Z0.0003
X1.6859 Y1.7018 Z0.0006
X1.6866 Y1.7034 Z0.0015
X1.6876 Y1.7049 Z0.0024
X1.6885 Y1.706 Z0.0038
X1.6895 Y1.707 Z0.0053
X1.6909 Y1.7081 Z0.0088
X1.6914 Y1.7084 Z0.0127
G0 Z0.6

G53 G0 Z0.
M30
