(POCKET0.15)
(MACHINE)
(  VENDOR: BANTAM TOOLS)
(  MODEL: EXPLORER CNC MILLING MACHINE)
(  DESCRIPTION: BANTAM TOOLS EXPLORER CNC MILLING MACHINE)
(T2 D=0.25 CR=0. - ZMIN=0. - FLAT END MILL)
G0 G90 G94 G17
G20
G53 G0 Z0.

(2D POCKET_.15STEP)
T2
M3 S12000
G90 G94 G17
G55
G0 X1.8603 Y-0.1375
Z0.6
G0 Z0.2
G1 Z0.0394 F13.3
Z0.025 F40.
X1.8601 Y-0.1373 Z0.0211
X1.8594 Y-0.1367 Z0.0173
X1.8583 Y-0.1358 Z0.0137
X1.8567 Y-0.1344 Z0.0103
X1.8548 Y-0.1328 Z0.0073
X1.8525 Y-0.1308 Z0.0048
X1.85 Y-0.1287 Z0.0027
X1.8472 Y-0.1263 Z0.0012
X1.8443 Y-0.1238 Z0.0003
X1.8413 Y-0.1213 Z0.
G3 X1.705 Y-0.071 R0.2099
G1 X0.
G2 X-0.071 Y0. R0.071
G1 Y3.41
G2 X0. Y3.481 R0.071
G1 X3.41
G2 X3.481 Y3.41 R0.071
G1 Y0.
G2 X3.41 Y-0.071 R0.071
G1 X1.705
G2 X1.5968 Y0.0011 R0.1172
G3 X1.4887 Y0.0732 R0.1172
G1 X0.086
G2 X0.0732 Y0.086 R0.0128
G1 Y3.324
G2 X0.086 Y3.3368 R0.0128
G1 X3.324
G2 X3.3368 Y3.324 R0.0128
G1 Y0.086
G2 X3.324 Y0.0732 R0.0128
G1 X1.4887
G2 X1.3792 Y0.1462 R0.1186
G3 X1.2697 Y0.2192 R0.1186
G1 X0.232
G2 X0.2192 Y0.232 R0.0128
G1 Y3.178
G2 X0.232 Y3.1908 R0.0128
G1 X3.178
G2 X3.1908 Y3.178 R0.0128
G1 Y0.232
G2 X3.178 Y0.2192 R0.0128
G1 X1.2697
G2 X1.1602 Y0.2922 R0.1186
G3 X1.0507 Y0.3652 R0.1186
G1 X0.378
G2 X0.3652 Y0.378 R0.0128
G1 Y3.032
G2 X0.378 Y3.0448 R0.0128
G1 X3.032
G2 X3.0448 Y3.032 R0.0128
G1 Y0.378
G2 X3.032 Y0.3652 R0.0128
G1 X1.0507
G2 X0.9412 Y0.4382 R0.1186
G3 X0.8317 Y0.5112 R0.1186
G1 X0.524
G2 X0.5112 Y0.524 R0.0128
G1 Y2.886
G2 X0.524 Y2.8988 R0.0128
G1 X2.886
G2 X2.8988 Y2.886 R0.0128
G1 Y0.524
G2 X2.886 Y0.5112 R0.0128
G1 X0.8317
G2 X0.7007 Y0.5673 R0.181
X0.6509 Y0.7008 R0.181
G3 X0.6572 Y0.9627 R5.4852
G1 Y2.74
G2 X0.67 Y2.7528 R0.0128
G1 X2.74
G2 X2.7528 Y2.74 R0.0128
G1 Y0.67
G2 X2.74 Y0.6572 R0.0128
G1 X0.67
G2 X0.6572 Y0.67 R0.0128
G1 Y0.9627
G2 X0.7302 Y1.0722 R0.1186
G3 X0.8032 Y1.1817 R0.1186
G1 Y2.594
G2 X0.816 Y2.6068 R0.0128
G1 X2.594
G2 X2.6068 Y2.594 R0.0128
G1 Y0.816
G2 X2.594 Y0.8032 R0.0128
G1 X0.816
G2 X0.8032 Y0.816 R0.0128
G1 Y1.1817
G2 X0.8762 Y1.2912 R0.1186
G3 X0.9492 Y1.4007 R0.1186
G1 Y2.448
G2 X0.962 Y2.4608 R0.0128
G1 X2.448
G2 X2.4608 Y2.448 R0.0128
G1 Y0.962
G2 X2.448 Y0.9492 R0.0128
G1 X0.962
G2 X0.9492 Y0.962 R0.0128
G1 Y1.4007
G2 X1.0222 Y1.5102 R0.1186
G3 X1.0952 Y1.6197 R0.1186
G1 Y2.302
G2 X1.108 Y2.3148 R0.0128
G1 X2.302
G2 X2.3148 Y2.302 R0.0128
G1 Y1.108
G2 X2.302 Y1.0952 R0.0128
G1 X1.108
G2 X1.0952 Y1.108 R0.0128
G1 Y1.6197
G2 X1.1682 Y1.7292 R0.1186
G3 X1.2412 Y1.8387 R0.1186
G1 Y2.156
G2 X1.254 Y2.1688 R0.0128
G1 X2.156
G2 X2.1688 Y2.156 R0.0128
G1 Y1.254
G2 X2.156 Y1.2412 R0.0128
G1 X1.254
G2 X1.2412 Y1.254 R0.0128
G1 Y1.8387
G2 X1.3007 Y1.9774 R0.1914
X1.4423 Y2.0298 R0.1914
G3 X1.7196 Y2.0228 R5.4856
G1 X2.01
G2 X2.0228 Y2.01 R0.0128
G1 Y1.4
G2 X2.01 Y1.3872 R0.0128
G1 X1.4
G2 X1.3872 Y1.4 R0.0128
G1 Y2.01
G2 X1.4 Y2.0228 R0.0128
G1 X1.7196
G2 X1.8348 Y1.9741 R0.1606
X1.8801 Y1.8575 R0.1606
G3 X1.8768 Y1.6271 R7.9398
G1 Y1.546
G2 X1.864 Y1.5332 R0.0128
G1 X1.546
G2 X1.5332 Y1.546 R0.0128
G1 Y1.864
G2 X1.546 Y1.8768 R0.0128
G1 X1.864
G2 X1.8768 Y1.864 R0.0128
G1 Y1.6271
G2 X1.8093 Y1.5596 R0.0675
X1.7577 Y1.5836 R0.0675
X1.6814 Y1.6849 R1.167
G1 X1.6802 Y1.6871
X1.6794 Y1.6895
X1.6792 Y1.692
Y1.718
G2 X1.692 Y1.7308 R0.0128
G1 X1.718
G2 X1.7308 Y1.718 R0.0128
G1 Y1.692
G2 X1.718 Y1.6792 R0.0128
G1 X1.692
G2 X1.6814 Y1.6849 R0.0128
G1 X1.6802 Y1.6871 Z0.0004
X1.6794 Y1.6895 Z0.0008
X1.6792 Y1.692 Z0.0012
Y1.6956 Z0.0027
Y1.699 Z0.0047
Y1.702 Z0.0072
Y1.7046 Z0.0102
Y1.7067 Z0.0136
Y1.7082 Z0.0172
Y1.7091 Z0.0211
Y1.7094 Z0.025
G0 Z0.6

G53 G0 Z0.
M30
