(SINGLE-PRYAMID-GCODE)
(MACHINE)
(  VENDOR: BANTAM TOOLS)
(  MODEL: EXPLORER CNC MILLING MACHINE)
(  DESCRIPTION: BANTAM TOOLS EXPLORER CNC MILLING MACHINE)
(T2 D=0.33 CR=0.165 - ZMIN=-0.723 - BALL END MILL)
G0 G90 G94 G17
G21
M5
G53 G0 Z0.

(SCALLOP1 2)
T2
M3 S18000
G90 G94 G17
G55
G0 X2.005 Y-2.053
Z15.
G0 Z2.
G1 Z0.033 F25.
X2.008 Y-2.05 Z0.017
X2.018 Y-2.044 Z0.005
X2.031 Y-2.035 Z0.
X2.042 Y-2.028 Z-0.001
X2.031 Y-2.021 Z0.
X2.026 Y-2.022
X2.021 Y-2.028
X2.026 Y-2.035
X2.031
X2.034 Y-2.028
X2.027 Y-2.015 Z-0.001
X2.014 Y-2.003 Z-0.002
X2.009 Y-2.002 Z-0.003
X2.008 Y-2.004
X2.001 Y-2.028 Z-0.002
X2.008 Y-2.053 Z-0.003
X2.033 Y-2.055 Z-0.002
X2.058 Y-2.047 Z-0.004
X2.062 Y-2.028 Z-0.003
X2.058 Y-2.009 Z-0.004
X2.033 Y-2.001 Z-0.002
X2.008 Y-2.004 Z-0.003
X1.997 Y-2.025
X1.987 Y-2.046 Z-0.006
X1.988 Y-2.058 Z-0.008
X1.989 Y-2.06
X1.993 Y-2.068 Z-0.009
X2.008 Y-2.073 Z-0.008
X2.033 Y-2.075 Z-0.007
X2.058 Y-2.07 Z-0.008
X2.075 Y-2.06 Z-0.01
X2.079 Y-2.049 Z-0.009
X2.081 Y-2.028
X2.079 Y-2.007
X2.075 Y-1.996 Z-0.01
X2.058 Y-1.986 Z-0.008
X2.033 Y-1.981 Z-0.007
X2.008 Y-1.983 Z-0.008
X1.993 Y-1.988 Z-0.009
X1.984 Y-2.006 Z-0.008
X1.981 Y-2.028 Z-0.007
X1.984 Y-2.05 Z-0.008
X1.989 Y-2.06
X1.997 Y-2.073 Z-0.009
X2.012 Y-2.086 Z-0.011
X2.03 Y-2.093 Z-0.013
X2.038 Z-0.014
X2.058 Y-2.09 Z-0.015
X2.087 Y-2.079 Z-0.019
X2.097 Y-2.054 Z-0.017
X2.1 Y-2.028 Z-0.016
X2.097 Y-2.002 Z-0.017
X2.087 Y-1.977 Z-0.019
X2.058 Y-1.966 Z-0.015
X2.033 Y-1.962 Z-0.014
X2.008 Y-1.964
X1.991 Y-1.968 Z-0.016
X1.974 Y-1.977 Z-0.018
X1.964 Y-2.006 Z-0.014
X1.962 Y-2.028
X1.964 Y-2.05
X1.974 Y-2.079 Z-0.018
X1.991 Y-2.088 Z-0.016
X2.008 Y-2.092 Z-0.014
X2.038 Y-2.093
X2.053 Y-2.094 Z-0.016
X2.083 Y-2.098 Z-0.026
X2.094 Y-2.095 Z-0.029
X2.096 Y-2.094 Z-0.03
X2.103 Y-2.088 Z-0.031
X2.109 Y-2.074 Z-0.029
X2.115 Y-2.054 Z-0.027
X2.117 Y-2.028 Z-0.026
X2.115 Y-2.002 Z-0.027
X2.108 Y-1.977 Z-0.03
X2.103 Y-1.968 Z-0.031
X2.095 Y-1.962 Z-0.03
X2.083 Y-1.956 Z-0.027
X2.058 Y-1.948 Z-0.024
X2.033 Y-1.944 Z-0.023
X2.008 Y-1.946
X1.982 Y-1.952 Z-0.026
X1.969 Y-1.958 Z-0.028
X1.961 Y-1.963 Z-0.029
X1.955 Y-1.977 Z-0.026
X1.947 Y-2.002 Z-0.024
X1.944 Y-2.028 Z-0.023
X1.947 Y-2.054 Z-0.024
X1.957 Y-2.084 Z-0.027
X1.961 Y-2.093 Z-0.029
X1.969 Y-2.098 Z-0.028
X1.982 Y-2.104 Z-0.026
X2.008 Y-2.11 Z-0.023
X2.033 Y-2.112
X2.058 Y-2.108 Z-0.024
X2.083 Y-2.1 Z-0.027
X2.096 Y-2.094 Z-0.03
X2.112 Y-2.078 Z-0.032
X2.123 Y-2.059 Z-0.034
X2.131 Y-2.039 Z-0.036
X2.132 Y-2.017 Z-0.038
X2.131 Y-2.002 Z-0.039
X2.124 Y-1.977 Z-0.041
X2.118 Y-1.962 Z-0.044
X2.109 Y-1.952 Z-0.043
X2.092 Y-1.942 Z-0.04
X2.058 Y-1.931 Z-0.035
X2.033 Y-1.928 Z-0.034
X2.008 Y-1.929 Z-0.035
X1.987 Y-1.933 Z-0.036
X1.972 Y-1.939 Z-0.038
X1.957 Y-1.946 Z-0.041
X1.948 Y-1.954
X1.937 Y-1.977 Z-0.037
X1.93 Y-2.002 Z-0.035
X1.928 Y-2.028 Z-0.034
X1.93 Y-2.054 Z-0.035
X1.937 Y-2.079 Z-0.037
X1.948 Y-2.102 Z-0.041
X1.957 Y-2.11
X1.972 Y-2.117 Z-0.038
X1.987 Y-2.123 Z-0.036
X2.008 Y-2.127 Z-0.035
X2.033 Y-2.128 Z-0.034
X2.068 Y-2.123 Z-0.036
X2.092 Y-2.114 Z-0.04
X2.109 Y-2.104 Z-0.043
X2.118 Y-2.094 Z-0.044
X2.124 Y-2.079 Z-0.041
X2.131 Y-2.054 Z-0.039
X2.133 Y-2.028 Z-0.038
X2.132 Y-2.017
X2.133 Y-2.002 Z-0.04
X2.136 Y-1.974 Z-0.052
X2.134 Y-1.962 Z-0.057
X2.133 Y-1.96 Z-0.058
X2.131 Y-1.956
X2.12 Y-1.942
X2.109 Y-1.934 Z-0.056
X2.092 Y-1.926 Z-0.052
X2.058 Y-1.915 Z-0.048
X2.033 Y-1.913 Z-0.047
X2.008 Y-1.914 Z-0.048
X1.987 Y-1.918 Z-0.049
X1.957 Y-1.929 Z-0.054
X1.941 Y-1.94 Z-0.056
X1.931 Y-1.953 Z-0.054
X1.921 Y-1.977 Z-0.05
X1.915 Y-2. Z-0.048
X1.913 Y-2.028 Z-0.047
X1.915 Y-2.056 Z-0.048
X1.921 Y-2.079 Z-0.05
X1.931 Y-2.103 Z-0.054
X1.941 Y-2.116 Z-0.056
X1.964 Y-2.13 Z-0.053
X1.987 Y-2.138 Z-0.049
X2.008 Y-2.142 Z-0.048
X2.033 Y-2.144 Z-0.047
X2.068 Y-2.138 Z-0.049
X2.092 Y-2.13 Z-0.053
X2.109 Y-2.122 Z-0.056
X2.12 Y-2.114 Z-0.058
X2.131 Y-2.1
X2.14 Y-2.079 Z-0.055
X2.146 Y-2.054 Z-0.052
X2.148 Y-2.028
X2.146 Y-2.002
X2.14 Y-1.977 Z-0.055
X2.133 Y-1.96 Z-0.058
X2.119 Y-1.933 Z-0.065
X2.105 Y-1.918 Z-0.069
X2.097 Y-1.914 Z-0.068
X2.084 Y-1.909 Z-0.066
X2.058 Y-1.902 Z-0.063
X2.033 Y-1.899 Z-0.062
X2.008 Y-1.9 Z-0.063
X1.982 Y-1.905 Z-0.064
X1.957 Y-1.915 Z-0.068
X1.938 Y-1.926 Z-0.072
X1.925 Y-1.938
X1.918 Y-1.951 Z-0.069
X1.906 Y-1.982 Z-0.064
X1.902 Y-2. Z-0.063
X1.899 Y-2.028 Z-0.062
X1.902 Y-2.056 Z-0.063
X1.907 Y-2.079 Z-0.065
X1.918 Y-2.105 Z-0.069
X1.925 Y-2.118 Z-0.072
X1.938 Y-2.13
X1.957 Y-2.141 Z-0.068
X1.982 Y-2.151 Z-0.065
X2.008 Y-2.156 Z-0.063
X2.033 Y-2.157 Z-0.062
X2.058 Y-2.154 Z-0.063
X2.084 Y-2.147 Z-0.066
X2.109 Y-2.136 Z-0.071
X2.12 Y-2.13 Z-0.073
X2.134 Y-2.117 Z-0.075
X2.143 Y-2.105 Z-0.074
X2.153 Y-2.079 Z-0.07
X2.159 Y-2.054 Z-0.068
X2.16 Y-2.019 Z-0.067
X2.159 Y-2.002 Z-0.068
X2.153 Y-1.977 Z-0.07
X2.143 Y-1.951 Z-0.074
X2.134 Y-1.939 Z-0.075
X2.12 Y-1.926 Z-0.073
X2.097 Y-1.914 Z-0.068
X2.084 Y-1.906 Z-0.069
X2.058 Y-1.892 Z-0.077
X2.044 Y-1.889 Z-0.079
X2.033 Y-1.888 Z-0.078
X2.008 Y-1.889 Z-0.079
X1.982 Y-1.894 Z-0.081
X1.957 Y-1.903 Z-0.084
X1.939 Y-1.912 Z-0.088
X1.922 Y-1.926 Z-0.091
X1.906 Y-1.951 Z-0.085
X1.895 Y-1.977 Z-0.081
X1.89 Y-2.002 Z-0.079
X1.888 Y-2.028 Z-0.078
X1.89 Y-2.054 Z-0.079
X1.895 Y-2.079 Z-0.081
X1.91 Y-2.114 Z-0.087
X1.922 Y-2.13 Z-0.091
X1.939 Y-2.144 Z-0.088
X1.957 Y-2.153 Z-0.085
X1.982 Y-2.162 Z-0.081
X2.008 Y-2.167 Z-0.079
X2.033 Y-2.168 Z-0.078
X2.058 Y-2.166 Z-0.079
X2.084 Y-2.159 Z-0.082
X2.109 Y-2.148 Z-0.087
X2.124 Y-2.139 Z-0.091
X2.136 Y-2.13 Z-0.093
X2.15 Y-2.111 Z-0.092
X2.164 Y-2.079 Z-0.087
X2.17 Y-2.052 Z-0.084
X2.172 Y-2.028
X2.17 Y-2.004
X2.16 Y-1.966 Z-0.088
X2.15 Y-1.945 Z-0.092
X2.136 Y-1.926 Z-0.093
X2.124 Y-1.917 Z-0.09
X2.098 Y-1.903 Z-0.085
X2.084 Y-1.897 Z-0.082
X2.058 Y-1.89 Z-0.079
X2.044 Y-1.889
X2.029 Y-1.886 Z-0.081
X1.998 Y-1.881 Z-0.095
X1.987 Y-1.883 Z-0.098
X1.957 Y-1.893 Z-0.102
X1.925 Y-1.91 Z-0.109
X1.91 Y-1.926
X1.892 Y-1.959 Z-0.101
X1.886 Y-1.977 Z-0.099
X1.88 Y-2.002 Z-0.096
X1.878 Y-2.028
X1.88 Y-2.054
X1.886 Y-2.079 Z-0.099
X1.892 Y-2.097 Z-0.101
X1.91 Y-2.13 Z-0.109
X1.925 Y-2.146
X1.957 Y-2.163 Z-0.102
X1.987 Y-2.173 Z-0.098
X2.008 Y-2.177 Z-0.097
X2.033 Y-2.178 Z-0.096
X2.058 Y-2.175 Z-0.097
X2.084 Y-2.169 Z-0.1
X2.109 Y-2.159 Z-0.104
X2.132 Y-2.145 Z-0.11
X2.149 Y-2.13 Z-0.113
X2.16 Y-2.111 Z-0.11
X2.173 Y-2.079 Z-0.105
X2.179 Y-2.054 Z-0.102
X2.18 Y-2.028
X2.179 Y-2.002
X2.169 Y-1.965 Z-0.106
X2.16 Y-1.945 Z-0.11
X2.149 Y-1.926 Z-0.113
X2.132 Y-1.911 Z-0.11
X2.109 Y-1.898 Z-0.104
X2.084 Y-1.887 Z-0.1
X2.058 Y-1.881 Z-0.097
X2.033 Y-1.878 Z-0.096
X2.008 Y-1.879
X1.987 Y-1.883 Z-0.098
X1.973 Y-1.885 Z-0.102
X1.944 Y-1.89 Z-0.12
X1.935 Y-1.894 Z-0.124
X1.914 Y-1.907 Z-0.129
X1.899 Y-1.926 Z-0.126
X1.886 Y-1.951 Z-0.12
X1.877 Y-1.977 Z-0.117
X1.872 Y-2.002 Z-0.115
X1.871 Y-2.028 Z-0.114
X1.872 Y-2.054 Z-0.115
X1.877 Y-2.079 Z-0.117
X1.886 Y-2.105 Z-0.12
X1.899 Y-2.13 Z-0.126
X1.914 Y-2.149 Z-0.129
X1.931 Y-2.16 Z-0.125
X1.967 Y-2.176 Z-0.118
X1.987 Y-2.181 Z-0.116
X2.008 Y-2.184 Z-0.115
X2.033 Y-2.185
X2.069 Y-2.181 Z-0.116
X2.084 Y-2.177 Z-0.118
X2.109 Y-2.168 Z-0.122
X2.127 Y-2.159 Z-0.126
X2.145 Y-2.147 Z-0.13
X2.16 Y-2.13 Z-0.131
X2.174 Y-2.102 Z-0.126
X2.181 Y-2.079 Z-0.123
X2.186 Y-2.054 Z-0.121
X2.187 Y-2.028 Z-0.12
X2.186 Y-2.002 Z-0.121
X2.181 Y-1.977 Z-0.123
X2.168 Y-1.94 Z-0.128
X2.16 Y-1.926 Z-0.131
X2.145 Y-1.91 Z-0.13
X2.127 Y-1.897 Z-0.126
X2.109 Y-1.888 Z-0.122
X2.084 Y-1.879 Z-0.118
X2.058 Y-1.873 Z-0.115
X2.033 Y-1.871
X2.008 Y-1.872
X1.987 Y-1.875 Z-0.116
X1.957 Y-1.884 Z-0.12
X1.935 Y-1.894 Z-0.124
X1.907 Y-1.911 Z-0.132
X1.888 Y-1.93 Z-0.137
X1.878 Y-1.949 Z-0.138
X1.876 Y-1.954
X1.869 Y-1.977 Z-0.135
X1.865 Y-2.002 Z-0.134
Y-2.054
X1.869 Y-2.079 Z-0.135
X1.877 Y-2.105 Z-0.138
X1.888 Y-2.13 Z-0.143
X1.906 Y-2.153 Z-0.147
X1.919 Y-2.164 Z-0.145
X1.933 Y-2.172 Z-0.142
X1.957 Y-2.181 Z-0.138
X1.992 Y-2.19 Z-0.134
X2.033 Y-2.192
X2.058 Y-2.191
X2.081 Y-2.187 Z-0.136
X2.109 Y-2.178 Z-0.139
X2.142 Y-2.161 Z-0.147
X2.16 Y-2.145 Z-0.15
X2.171 Y-2.13 Z-0.149
X2.182 Y-2.105 Z-0.144
X2.189 Y-2.079 Z-0.141
X2.193 Y-2.054 Z-0.14
Y-2.002
X2.189 Y-1.977 Z-0.141
X2.182 Y-1.951 Z-0.144
X2.171 Y-1.926 Z-0.149
X2.16 Y-1.911 Z-0.15
X2.142 Y-1.895 Z-0.146
X2.109 Y-1.878 Z-0.139
X2.081 Y-1.869 Z-0.135
X2.058 Y-1.866 Z-0.134
X2.008 Y-1.865
X1.982 Y-1.868 Z-0.135
X1.957 Y-1.875 Z-0.138
X1.933 Y-1.884 Z-0.142
X1.919 Y-1.892 Z-0.145
X1.906 Y-1.903 Z-0.147
X1.888 Y-1.926 Z-0.143
X1.876 Y-1.954 Z-0.138
X1.868 Y-1.975 Z-0.139
X1.86 Y-2.006 Z-0.147
X1.858 Y-2.033 Z-0.152
Y-2.039
Y-2.054
X1.861 Y-2.079 Z-0.153
X1.868 Y-2.105 Z-0.156
X1.878 Y-2.13 Z-0.161
X1.89 Y-2.15 Z-0.165
X1.906 Y-2.166 Z-0.166
X1.933 Y-2.181 Z-0.159
X1.957 Y-2.19 Z-0.156
X1.992 Y-2.197 Z-0.153
X2.058 Y-2.198
X2.081 Y-2.195 Z-0.154
X2.109 Y-2.187 Z-0.157
X2.143 Y-2.171 Z-0.164
X2.16 Y-2.158 Z-0.168
X2.175 Y-2.141
X2.181 Y-2.13 Z-0.166
X2.191 Y-2.105 Z-0.162
X2.197 Y-2.079 Z-0.159
X2.2 Y-2.054 Z-0.158
Y-2.002
X2.197 Y-1.977 Z-0.159
X2.191 Y-1.951 Z-0.162
X2.181 Y-1.926 Z-0.166
X2.175 Y-1.915 Z-0.168
X2.16 Y-1.898
X2.142 Y-1.885 Z-0.164
X2.109 Y-1.869 Z-0.157
X2.081 Y-1.861 Z-0.154
X2.058 Y-1.858 Z-0.153
X1.992 Y-1.859
X1.957 Y-1.866 Z-0.156
X1.921 Y-1.881 Z-0.162
X1.906 Y-1.89 Z-0.166
X1.89 Y-1.906 Z-0.165
X1.878 Y-1.926 Z-0.161
X1.867 Y-1.953 Z-0.156
X1.861 Y-1.977 Z-0.153
X1.858 Y-2.002 Z-0.152
Y-2.039
X1.857 Y-2.061 Z-0.156
X1.86 Y-2.103 Z-0.171
X1.866 Y-2.123 Z-0.177
X1.877 Y-2.146 Z-0.182
X1.888 Y-2.162 Z-0.185
X1.906 Y-2.177 Z-0.183
X1.934 Y-2.191 Z-0.177
X1.957 Y-2.198 Z-0.174
X1.982 Y-2.203 Z-0.172
X2.008 Y-2.205 Z-0.171
X2.058
X2.084 Y-2.202 Z-0.172
X2.109 Y-2.195 Z-0.175
X2.143 Y-2.181 Z-0.181
X2.16 Y-2.17 Z-0.186
X2.177 Y-2.154 Z-0.188
X2.19 Y-2.13 Z-0.184
X2.199 Y-2.105 Z-0.18
X2.205 Y-2.079 Z-0.178
X2.207 Y-2.028 Z-0.177
X2.205 Y-1.977 Z-0.178
X2.199 Y-1.951 Z-0.18
X2.19 Y-1.926 Z-0.184
X2.177 Y-1.902 Z-0.188
X2.16 Y-1.886 Z-0.186
X2.129 Y-1.868 Z-0.178
X2.109 Y-1.861 Z-0.175
X2.084 Y-1.854 Z-0.172
X2.058 Y-1.851 Z-0.171
X2.008
X1.982 Y-1.853 Z-0.172
X1.957 Y-1.858 Z-0.174
X1.934 Y-1.865 Z-0.177
X1.906 Y-1.879 Z-0.183
X1.888 Y-1.894 Z-0.185
X1.877 Y-1.91 Z-0.182
X1.862 Y-1.942 Z-0.175
X1.853 Y-1.977 Z-0.172
X1.852 Y-2.039 Z-0.171
X1.855 Y-2.085 Z-0.172
X1.859 Y-2.105 Z-0.174
X1.866 Y-2.123 Z-0.177
X1.87 Y-2.137 Z-0.182
X1.879 Y-2.164 Z-0.201
X1.886 Y-2.173 Z-0.204
X1.906 Y-2.187 Z-0.2
X1.939 Y-2.202 Z-0.194
X1.957 Y-2.207 Z-0.192
X1.982 Y-2.211 Z-0.19
X2.058 Y-2.212
X2.084 Y-2.209 Z-0.191
X2.109 Y-2.204 Z-0.193
X2.134 Y-2.195 Z-0.197
X2.16 Y-2.181 Z-0.203
X2.178 Y-2.167 Z-0.207
X2.191 Y-2.148 Z-0.205
X2.2 Y-2.13 Z-0.201
X2.208 Y-2.105 Z-0.198
X2.212 Y-2.079 Z-0.196
X2.214 Y-2.028
X2.211 Y-1.969 Z-0.197
X2.208 Y-1.951 Z-0.198
X2.2 Y-1.926 Z-0.201
X2.191 Y-1.908 Z-0.205
X2.178 Y-1.889 Z-0.207
X2.16 Y-1.875 Z-0.203
X2.134 Y-1.861 Z-0.197
X2.109 Y-1.852 Z-0.193
X2.084 Y-1.847 Z-0.191
X2.058 Y-1.844 Z-0.19
X1.982 Y-1.845
X1.957 Y-1.849 Z-0.192
X1.921 Y-1.861 Z-0.197
X1.896 Y-1.875 Z-0.203
X1.886 Y-1.883 Z-0.204
X1.872 Y-1.9 Z-0.201
X1.859 Y-1.926 Z-0.196
X1.849 Y-1.961 Z-0.191
X1.846 Y-1.977 Z-0.19
X1.845 Y-2.028
X1.846 Y-2.079
X1.855 Y-2.117 Z-0.194
X1.859 Y-2.13 Z-0.196
X1.872 Y-2.156 Z-0.201
X1.886 Y-2.173 Z-0.204
X1.901 Y-2.189 Z-0.207
X1.92 Y-2.201 Z-0.209
X1.94 Y-2.21 Z-0.21
X1.962 Y-2.215
X1.982 Y-2.218 Z-0.209
X2.058
X2.084 Y-2.217 Z-0.21
X2.109 Y-2.212 Z-0.211
X2.135 Y-2.204 Z-0.215
X2.16 Y-2.192 Z-0.22
X2.176 Y-2.181 Z-0.224
X2.193 Y-2.164 Z-0.226
X2.209 Y-2.13 Z-0.219
X2.216 Y-2.105 Z-0.216
X2.22 Y-2.079 Z-0.215
Y-1.977
X2.216 Y-1.951 Z-0.216
X2.209 Y-1.926 Z-0.219
X2.193 Y-1.892 Z-0.226
X2.176 Y-1.875 Z-0.224
X2.16 Y-1.864 Z-0.22
X2.135 Y-1.852 Z-0.215
X2.109 Y-1.844 Z-0.211
X2.084 Y-1.839 Z-0.209
X2.008 Y-1.838
X1.982
X1.957 Y-1.842 Z-0.21
X1.931 Y-1.848 Z-0.213
X1.906 Y-1.859 Z-0.218
X1.881 Y-1.875 Z-0.223
X1.865 Y-1.895 Z-0.22
X1.85 Y-1.926 Z-0.214
X1.841 Y-1.961 Z-0.21
X1.839 Y-1.977 Z-0.209
Y-2.079
X1.845 Y-2.112 Z-0.211
X1.855 Y-2.141 Z-0.215
X1.865 Y-2.161 Z-0.22
X1.881 Y-2.181 Z-0.223
X1.906 Y-2.197 Z-0.218
X1.931 Y-2.208 Z-0.213
X1.962 Y-2.215 Z-0.21
X1.984 Y-2.219 Z-0.212
X2.037 Y-2.224 Z-0.227
X2.048 Y-2.225 Z-0.228
X2.084 Y-2.224
X2.109 Y-2.22 Z-0.23
X2.135 Y-2.213 Z-0.232
X2.172 Y-2.195 Z-0.24
X2.19 Y-2.181 Z-0.245
X2.201 Y-2.167 Z-0.244
X2.211 Y-2.147 Z-0.24
X2.222 Y-2.111 Z-0.235
X2.227 Y-2.079 Z-0.234
X2.226 Y-1.964
X2.217 Y-1.926 Z-0.237
X2.211 Y-1.909 Z-0.24
X2.201 Y-1.889 Z-0.244
X2.19 Y-1.875 Z-0.245
X2.172 Y-1.861 Z-0.24
X2.16 Y-1.854 Z-0.237
X2.135 Y-1.843 Z-0.232
X2.109 Y-1.836 Z-0.229
X2.084 Y-1.832 Z-0.228
X1.982 Y-1.831
X1.957 Y-1.834 Z-0.229
X1.931 Y-1.84 Z-0.231
X1.906 Y-1.849 Z-0.235
X1.885 Y-1.86 Z-0.24
X1.868 Y-1.875 Z-0.242
X1.855 Y-1.895 Z-0.237
X1.841 Y-1.926 Z-0.231
X1.835 Y-1.951 Z-0.229
X1.832 Y-1.977 Z-0.228
Y-2.079
X1.835 Y-2.105 Z-0.229
X1.845 Y-2.142 Z-0.233
X1.855 Y-2.161 Z-0.237
X1.868 Y-2.181 Z-0.242
X1.885 Y-2.196 Z-0.24
X1.906 Y-2.207 Z-0.235
X1.931 Y-2.216 Z-0.231
X1.962 Y-2.223 Z-0.229
X1.982 Y-2.225 Z-0.228
X2.048
X2.07 Y-2.226 Z-0.231
X2.113 Z-0.245
X2.134 Y-2.222 Z-0.25
X2.16 Y-2.212 Z-0.255
X2.186 Y-2.197 Z-0.261
X2.203 Y-2.181 Z-0.264
X2.219 Y-2.151 Z-0.258
X2.226 Y-2.13 Z-0.255
X2.231 Y-2.105 Z-0.253
X2.233 Y-2.079
Y-1.977
X2.231 Y-1.951
X2.226 Y-1.926 Z-0.255
X2.219 Y-1.905 Z-0.258
X2.203 Y-1.875 Z-0.264
X2.187 Y-1.859 Z-0.261
X2.16 Y-1.844 Z-0.255
X2.128 Y-1.832 Z-0.25
X2.109 Y-1.828 Z-0.248
X2.084 Y-1.825 Z-0.247
X1.957 Y-1.826
X1.93 Y-1.831 Z-0.249
X1.906 Y-1.84 Z-0.253
X1.888 Y-1.848 Z-0.256
X1.871 Y-1.859 Z-0.26
X1.855 Y-1.877 Z-0.259
X1.841 Y-1.903 Z-0.253
X1.833 Y-1.926 Z-0.249
X1.827 Y-1.951 Z-0.247
X1.825 Y-1.977
Y-2.079
X1.827 Y-2.105
X1.833 Y-2.13 Z-0.25
X1.841 Y-2.153 Z-0.253
X1.856 Y-2.181 Z-0.26
X1.871 Y-2.197
X1.888 Y-2.208 Z-0.256
X1.906 Y-2.216 Z-0.253
X1.93 Y-2.225 Z-0.249
X1.957 Y-2.23 Z-0.247
X2.084 Y-2.231
X2.109 Y-2.228 Z-0.248
X2.134 Y-2.222 Z-0.25
X2.151 Y-2.218 Z-0.257
X2.176 Y-2.213 Z-0.274
X2.185 Y-2.208 Z-0.278
X2.199 Y-2.199 Z-0.282
X2.214 Y-2.181
X2.225 Y-2.158 Z-0.277
X2.234 Y-2.13 Z-0.273
X2.239 Y-2.105 Z-0.272
X2.24 Y-1.977 Z-0.271
X2.239 Y-1.951 Z-0.272
X2.234 Y-1.926 Z-0.273
X2.225 Y-1.898 Z-0.277
X2.211 Y-1.871 Z-0.282
X2.199 Y-1.857
X2.186 Y-1.848 Z-0.278
X2.15 Y-1.83 Z-0.27
X2.128 Y-1.824 Z-0.268
X2.109 Y-1.82 Z-0.266
X2.008 Y-1.818
X1.957 Y-1.819
X1.928 Y-1.824 Z-0.268
X1.906 Y-1.831 Z-0.27
X1.88 Y-1.842 Z-0.275
X1.867 Y-1.85 Z-0.278
X1.855 Y-1.861 Z-0.28
X1.845 Y-1.875 Z-0.277
X1.833 Y-1.9 Z-0.271
X1.824 Y-1.926 Z-0.268
X1.82 Y-1.951 Z-0.266
X1.818 Y-2.028 Z-0.265
X1.82 Y-2.105 Z-0.266
X1.824 Y-2.13 Z-0.268
X1.833 Y-2.156 Z-0.271
X1.845 Y-2.181 Z-0.277
X1.855 Y-2.195 Z-0.28
X1.867 Y-2.206 Z-0.278
X1.88 Y-2.214 Z-0.276
X1.906 Y-2.225 Z-0.271
X1.928 Y-2.232 Z-0.268
X1.957 Y-2.237 Z-0.266
X2.058 Y-2.238
X2.109 Y-2.236
X2.134 Y-2.23 Z-0.268
X2.16 Y-2.221 Z-0.272
X2.185 Y-2.208 Z-0.278
X2.203 Y-2.196 Z-0.283
X2.218 Y-2.182 Z-0.289
X2.233 Y-2.16 Z-0.294
X2.238 Y-2.144 Z-0.293
X2.242 Y-2.13 Z-0.292
X2.246 Y-2.105 Z-0.29
Y-1.951
X2.242 Y-1.926 Z-0.292
X2.235 Y-1.9 Z-0.295
X2.224 Y-1.875 Z-0.299
X2.211 Y-1.856 Z-0.302
X2.195 Y-1.843 Z-0.298
X2.179 Y-1.834 Z-0.293
X2.156 Y-1.824 Z-0.289
X2.135 Y-1.817 Z-0.287
X2.109 Y-1.813 Z-0.285
X1.957 Y-1.812
X1.927 Y-1.816 Z-0.286
X1.9 Y-1.824 Z-0.289
X1.877 Y-1.834 Z-0.293
X1.855 Y-1.849 Z-0.298
X1.845 Y-1.859
X1.835 Y-1.875 Z-0.294
X1.824 Y-1.9 Z-0.289
X1.816 Y-1.926 Z-0.286
X1.812 Y-1.951 Z-0.285
Y-2.105
X1.816 Y-2.13 Z-0.286
X1.824 Y-2.156 Z-0.289
X1.835 Y-2.181 Z-0.294
X1.845 Y-2.197 Z-0.298
X1.855 Y-2.207
X1.877 Y-2.222 Z-0.293
X1.906 Y-2.234 Z-0.288
X1.937 Y-2.242 Z-0.285
X1.957 Y-2.244
X2.109 Y-2.243
X2.135 Y-2.239 Z-0.287
X2.16 Y-2.231 Z-0.29
X2.186 Y-2.218 Z-0.295
X2.195 Y-2.213 Z-0.298
X2.211 Y-2.2 Z-0.302
X2.224 Y-2.181 Z-0.299
X2.235 Y-2.156 Z-0.295
X2.238 Y-2.144 Z-0.293
X2.245 Y-2.123 Z-0.295
X2.252 Y-2.081 Z-0.306
X2.253 Y-2.059 Z-0.309
Y-1.951
X2.25 Y-1.926 Z-0.31
X2.244 Y-1.9 Z-0.313
X2.234 Y-1.875 Z-0.317
X2.226 Y-1.86 Z-0.32
X2.211 Y-1.844 Z-0.319
X2.198 Y-1.834 Z-0.316
X2.179 Y-1.824 Z-0.311
X2.16 Y-1.816 Z-0.308
X2.139 Y-1.81 Z-0.305
X2.109 Y-1.806 Z-0.304
X1.957 Y-1.805 Z-0.303
X1.931 Y-1.807 Z-0.304
X1.906 Y-1.813 Z-0.306
X1.877 Y-1.824 Z-0.311
X1.855 Y-1.837 Z-0.316
X1.839 Y-1.852
X1.825 Y-1.875 Z-0.311
X1.812 Y-1.91 Z-0.306
X1.808 Y-1.926 Z-0.304
X1.805 Y-1.951 Z-0.303
Y-2.105
X1.808 Y-2.13 Z-0.304
X1.817 Y-2.163 Z-0.308
X1.825 Y-2.181 Z-0.311
X1.839 Y-2.204 Z-0.316
X1.855 Y-2.219
X1.887 Y-2.236 Z-0.309
X1.906 Y-2.243 Z-0.307
X1.931 Y-2.249 Z-0.304
X1.957 Y-2.251 Z-0.303
X2.109 Y-2.25 Z-0.304
X2.139 Y-2.246 Z-0.305
X2.16 Y-2.24 Z-0.308
X2.178 Y-2.232 Z-0.311
X2.198 Y-2.222 Z-0.315
X2.211 Y-2.212 Z-0.319
X2.226 Y-2.196 Z-0.32
X2.234 Y-2.181 Z-0.317
X2.244 Y-2.156 Z-0.313
X2.25 Y-2.13 Z-0.31
X2.253 Y-2.105 Z-0.309
Y-2.059
X2.254 Y-2.037 Z-0.312
X2.259 Y-1.984 Z-0.327
Y-1.973 Z-0.328
X2.258 Y-1.926 Z-0.329
X2.25 Y-1.891 Z-0.332
X2.237 Y-1.861 Z-0.337
X2.228 Y-1.847 Z-0.34
X2.211 Y-1.832 Z-0.337
X2.18 Y-1.815 Z-0.329
X2.16 Y-1.808 Z-0.326
X2.135 Y-1.801 Z-0.323
X2.109 Y-1.799 Z-0.322
X1.957 Y-1.798
X1.931 Y-1.8 Z-0.323
X1.906 Y-1.805 Z-0.324
X1.879 Y-1.814 Z-0.328
X1.855 Y-1.826 Z-0.334
X1.837 Y-1.84 Z-0.336
X1.824 Y-1.857 Z-0.333
X1.811 Y-1.887 Z-0.327
X1.804 Y-1.91 Z-0.324
X1.801 Y-1.926 Z-0.323
X1.799 Y-1.977 Z-0.322
Y-2.079
X1.801 Y-2.13 Z-0.323
X1.804 Y-2.146 Z-0.324
X1.815 Y-2.181 Z-0.329
X1.824 Y-2.199 Z-0.333
X1.837 Y-2.216 Z-0.336
X1.858 Y-2.232 Z-0.333
X1.879 Y-2.242 Z-0.328
X1.906 Y-2.251 Z-0.325
X1.931 Y-2.256 Z-0.323
X2.008 Y-2.258 Z-0.322
X2.109 Y-2.257
X2.135 Y-2.255 Z-0.323
X2.16 Y-2.248 Z-0.326
X2.18 Y-2.241 Z-0.329
X2.211 Y-2.224 Z-0.336
X2.228 Y-2.209 Z-0.34
X2.243 Y-2.181 Z-0.334
X2.254 Y-2.148 Z-0.33
X2.258 Y-2.13 Z-0.329
X2.26 Y-2.028 Z-0.328
X2.259 Y-1.973
X2.261 Y-1.951 Z-0.331
Y-1.908 Z-0.346
X2.257 Y-1.887 Z-0.35
X2.253 Y-1.875 Z-0.352
X2.241 Y-1.849 Z-0.357
X2.23 Y-1.836 Z-0.358
X2.211 Y-1.821 Z-0.353
X2.19 Y-1.81 Z-0.348
X2.16 Y-1.799 Z-0.344
X2.135 Y-1.794 Z-0.342
X2.109 Y-1.792 Z-0.341
X1.931 Y-1.793
X1.906 Y-1.797 Z-0.343
X1.88 Y-1.804 Z-0.346
X1.855 Y-1.816 Z-0.351
X1.841 Y-1.824 Z-0.354
X1.824 Y-1.841
X1.806 Y-1.875 Z-0.346
X1.798 Y-1.9 Z-0.343
X1.793 Y-1.926 Z-0.341
X1.792 Y-2.079
X1.793 Y-2.13
X1.798 Y-2.157 Z-0.343
X1.806 Y-2.181 Z-0.346
X1.824 Y-2.215 Z-0.354
X1.841 Y-2.232 Z-0.355
X1.855 Y-2.24 Z-0.351
X1.88 Y-2.252 Z-0.346
X1.906 Y-2.259 Z-0.343
X1.931 Y-2.263 Z-0.341
X2.109 Y-2.264
X2.135 Y-2.262 Z-0.342
X2.16 Y-2.257 Z-0.344
X2.19 Y-2.246 Z-0.348
X2.215 Y-2.232 Z-0.354
X2.23 Y-2.22 Z-0.358
X2.241 Y-2.207 Z-0.357
X2.257 Y-2.17 Z-0.35
X2.262 Y-2.148 Z-0.348
X2.265 Y-2.13 Z-0.347
X2.266 Y-1.973
X2.265 Y-1.926
X2.262 Y-1.908 Z-0.348
X2.257 Y-1.887 Z-0.35
X2.254 Y-1.872 Z-0.356
X2.25 Y-1.848 Z-0.373
X2.244 Y-1.837 Z-0.377
X2.242 Y-1.836
X2.231 Y-1.824 Z-0.376
X2.211 Y-1.811 Z-0.371
X2.186 Y-1.799 Z-0.365
X2.16 Y-1.791 Z-0.362
X2.135 Y-1.786 Z-0.36
X1.931
X1.906 Y-1.789 Z-0.361
X1.88 Y-1.795 Z-0.364
X1.855 Y-1.806 Z-0.368
X1.838 Y-1.814 Z-0.372
X1.826 Y-1.824 Z-0.374
X1.814 Y-1.839 Z-0.372
X1.804 Y-1.859 Z-0.367
X1.797 Y-1.875 Z-0.364
X1.79 Y-1.899 Z-0.361
X1.786 Y-1.926 Z-0.36
Y-2.13
X1.79 Y-2.157 Z-0.361
X1.797 Y-2.181 Z-0.364
X1.804 Y-2.197 Z-0.367
X1.814 Y-2.217 Z-0.372
X1.826 Y-2.232 Z-0.374
X1.838 Y-2.242 Z-0.372
X1.855 Y-2.25 Z-0.368
X1.88 Y-2.261 Z-0.364
X1.906 Y-2.267 Z-0.361
X1.931 Y-2.27 Z-0.36
X2.135
X2.16 Y-2.265 Z-0.362
X2.186 Y-2.257 Z-0.365
X2.211 Y-2.245 Z-0.37
X2.231 Y-2.232 Z-0.376
X2.245 Y-2.218 Z-0.377
X2.253 Y-2.203 Z-0.374
X2.262 Y-2.179 Z-0.37
X2.268 Y-2.158 Z-0.367
X2.272 Y-2.13 Z-0.366
Y-1.926
X2.269 Y-1.9 Z-0.367
X2.262 Y-1.875 Z-0.37
X2.253 Y-1.853 Z-0.374
X2.245 Y-1.838 Z-0.377
X2.242 Y-1.836
X2.219 Y-1.812 Z-0.378
X2.192 Y-1.793 Z-0.382
X2.171 Y-1.786 Z-0.381
X2.16 Y-1.783 Z-0.38
X2.135 Y-1.779 Z-0.379
X1.957
X1.906 Y-1.781 Z-0.38
X1.88 Y-1.787 Z-0.382
X1.855 Y-1.796 Z-0.386
X1.83 Y-1.809 Z-0.391
X1.814 Y-1.824 Z-0.393
X1.804 Y-1.839 Z-0.389
X1.788 Y-1.875 Z-0.382
X1.782 Y-1.9 Z-0.38
X1.779 Y-1.926 Z-0.379
Y-2.13
X1.782 Y-2.156 Z-0.38
X1.788 Y-2.181 Z-0.382
X1.804 Y-2.217 Z-0.389
X1.814 Y-2.232 Z-0.393
X1.83 Y-2.247 Z-0.392
X1.855 Y-2.26 Z-0.386
X1.88 Y-2.269 Z-0.382
X1.906 Y-2.275 Z-0.38
X1.957 Y-2.277 Z-0.379
X2.135
X2.16 Y-2.273 Z-0.38
X2.186 Y-2.266 Z-0.383
X2.211 Y-2.255 Z-0.388
X2.227 Y-2.246 Z-0.392
X2.245 Y-2.232 Z-0.396
X2.252 Y-2.223
X2.262 Y-2.203 Z-0.391
X2.27 Y-2.181 Z-0.388
X2.276 Y-2.158 Z-0.386
X2.279 Y-2.13 Z-0.385
Y-1.926
X2.276 Y-1.898 Z-0.386
X2.27 Y-1.875 Z-0.388
X2.262 Y-1.853 Z-0.391
X2.25 Y-1.831 Z-0.396
X2.245 Y-1.824
X2.227 Y-1.81 Z-0.392
X2.211 Y-1.801 Z-0.388
X2.186 Y-1.79 Z-0.383
X2.171 Y-1.786 Z-0.381
X2.15 Y-1.78 Z-0.383
X2.107 Y-1.773 Z-0.395
X2.085 Y-1.772 Z-0.398
X1.906 Y-1.774
X1.88 Y-1.778 Z-0.4
X1.855 Y-1.787 Z-0.403
X1.836 Y-1.795 Z-0.407
X1.817 Y-1.807 Z-0.412
X1.802 Y-1.824 Z-0.41
X1.79 Y-1.847 Z-0.405
X1.78 Y-1.875 Z-0.4
X1.774 Y-1.9 Z-0.398
X1.772 Y-1.926
Y-2.13
X1.774 Y-2.156
X1.78 Y-2.181 Z-0.4
X1.79 Y-2.209 Z-0.405
X1.804 Y-2.234 Z-0.411
X1.817 Y-2.249 Z-0.412
X1.836 Y-2.261 Z-0.407
X1.855 Y-2.269 Z-0.403
X1.881 Y-2.278 Z-0.4
X1.914 Y-2.283 Z-0.398
X2.142
X2.16 Y-2.281 Z-0.399
X2.186 Y-2.275 Z-0.401
X2.211 Y-2.265 Z-0.405
X2.241 Y-2.248 Z-0.413
X2.257 Y-2.232 Z-0.415
X2.272 Y-2.202 Z-0.409
X2.279 Y-2.181 Z-0.406
X2.284 Y-2.156 Z-0.404
X2.286 Y-2.13
Y-1.926
X2.284 Y-1.9
X2.279 Y-1.875 Z-0.406
X2.272 Y-1.854 Z-0.409
X2.257 Y-1.824 Z-0.415
X2.241 Y-1.808 Z-0.413
X2.211 Y-1.791 Z-0.405
X2.187 Y-1.781 Z-0.401
X2.16 Y-1.775 Z-0.399
X2.142 Y-1.773 Z-0.398
X2.085 Y-1.772
X2.064 Y-1.771 Z-0.401
X2.011 Y-1.766 Z-0.416
X2. Z-0.417
X1.906
X1.87 Y-1.773 Z-0.419
X1.855 Y-1.777 Z-0.421
X1.829 Y-1.789 Z-0.426
X1.816 Y-1.796 Z-0.429
X1.804 Y-1.807 Z-0.431
X1.792 Y-1.824 Z-0.427
X1.78 Y-1.849 Z-0.422
X1.771 Y-1.875 Z-0.418
X1.767 Y-1.9 Z-0.417
X1.766 Y-2.028 Z-0.416
X1.767 Y-2.156 Z-0.417
X1.771 Y-2.181 Z-0.418
X1.78 Y-2.207 Z-0.422
X1.792 Y-2.232 Z-0.427
X1.804 Y-2.249 Z-0.431
X1.816 Y-2.26 Z-0.43
X1.829 Y-2.267 Z-0.426
X1.855 Y-2.279 Z-0.421
X1.881 Y-2.286 Z-0.418
X1.906 Y-2.29 Z-0.417
X2.109
X2.16 Y-2.289
X2.186 Y-2.283 Z-0.419
X2.211 Y-2.275 Z-0.423
X2.237 Y-2.262 Z-0.429
X2.252 Y-2.251 Z-0.434
X2.267 Y-2.232 Z-0.433
X2.283 Y-2.198 Z-0.426
X2.287 Y-2.181 Z-0.424
X2.291 Y-2.156 Z-0.423
Y-1.9
X2.287 Y-1.875 Z-0.424
X2.276 Y-1.841 Z-0.429
X2.262 Y-1.816 Z-0.434
X2.252 Y-1.805
X2.237 Y-1.794 Z-0.429
X2.211 Y-1.781 Z-0.423
X2.187 Y-1.773 Z-0.419
X2.16 Y-1.767 Z-0.417
X2.058 Y-1.766
X2.
X1.978 Y-1.765 Z-0.42
X1.924 Y-1.759 Z-0.435
X1.913
X1.881 Y-1.762 Z-0.436
X1.843 Y-1.773 Z-0.441
X1.822 Y-1.783 Z-0.445
X1.804 Y-1.794 Z-0.45
X1.789 Y-1.81 Z-0.448
X1.782 Y-1.824 Z-0.445
X1.77 Y-1.849 Z-0.44
X1.763 Y-1.875 Z-0.437
X1.759 Y-1.904 Z-0.435
Y-2.153
X1.763 Y-2.181 Z-0.437
X1.77 Y-2.207 Z-0.44
X1.782 Y-2.232 Z-0.445
X1.789 Y-2.246 Z-0.448
X1.804 Y-2.262 Z-0.45
X1.822 Y-2.273 Z-0.445
X1.855 Y-2.287 Z-0.439
X1.881 Y-2.294 Z-0.437
X1.906 Y-2.297 Z-0.436
X2.16 Y-2.296
X2.188 Y-2.291 Z-0.438
X2.213 Y-2.283 Z-0.441
X2.234 Y-2.273 Z-0.445
X2.262 Y-2.255 Z-0.454
X2.277 Y-2.232 Z-0.45
X2.288 Y-2.207 Z-0.445
X2.295 Y-2.181 Z-0.443
X2.299 Y-2.156 Z-0.441
Y-1.9
X2.295 Y-1.875 Z-0.443
X2.288 Y-1.849 Z-0.445
X2.278 Y-1.824 Z-0.45
X2.262 Y-1.801 Z-0.454
X2.235 Y-1.783 Z-0.446
X2.211 Y-1.772 Z-0.441
X2.189 Y-1.765 Z-0.438
X2.16 Y-1.76 Z-0.436
X1.913 Y-1.759 Z-0.435
X1.892 Z-0.439
X1.85 Y-1.763 Z-0.455
X1.83 Y-1.769 Z-0.461
X1.804 Y-1.783 Z-0.467
X1.787 Y-1.797 Z-0.47
X1.772 Y-1.824 Z-0.462
X1.761 Y-1.851 Z-0.457
X1.755 Y-1.875 Z-0.455
X1.753 Y-1.904 Z-0.454
Y-2.153
X1.755 Y-2.181 Z-0.455
X1.761 Y-2.205 Z-0.457
X1.772 Y-2.232 Z-0.462
X1.787 Y-2.259 Z-0.47
X1.804 Y-2.273 Z-0.467
X1.822 Y-2.283 Z-0.463
X1.855 Y-2.296 Z-0.457
X1.88 Y-2.301 Z-0.455
X1.906 Y-2.304 Z-0.454
X2.16 Y-2.303
X2.198 Y-2.297 Z-0.457
X2.234 Y-2.283 Z-0.463
X2.262 Y-2.267 Z-0.471
X2.277 Y-2.252 Z-0.473
X2.287 Y-2.232 Z-0.467
X2.297 Y-2.207 Z-0.463
X2.303 Y-2.181 Z-0.461
X2.305 Y-2.156 Z-0.46
Y-1.9
X2.303 Y-1.875 Z-0.461
X2.297 Y-1.849 Z-0.463
X2.287 Y-1.824 Z-0.468
X2.277 Y-1.804 Z-0.473
X2.262 Y-1.789 Z-0.471
X2.235 Y-1.773 Z-0.463
X2.198 Y-1.759 Z-0.457
X2.16 Y-1.753 Z-0.454
X1.906 Y-1.752
X1.88 Y-1.755 Z-0.455
X1.843 Y-1.764 Z-0.459
X1.83 Y-1.769 Z-0.461
X1.821 Y-1.771 Z-0.467
X1.807 Y-1.77 Z-0.483
X1.804 Y-1.772 Z-0.484
X1.783 Y-1.786 Z-0.49
X1.771 Y-1.805 Z-0.484
X1.762 Y-1.824 Z-0.48
X1.753 Y-1.851 Z-0.476
X1.748 Y-1.875 Z-0.474
X1.746 Y-1.977 Z-0.473
Y-2.13
X1.748 Y-2.181 Z-0.474
X1.753 Y-2.205 Z-0.476
X1.762 Y-2.232 Z-0.48
X1.771 Y-2.251 Z-0.484
X1.783 Y-2.27 Z-0.49
X1.804 Y-2.284 Z-0.484
X1.831 Y-2.297 Z-0.479
X1.855 Y-2.304 Z-0.475
X1.88 Y-2.309 Z-0.474
X2.008 Y-2.31 Z-0.473
X2.16
X2.186 Y-2.308 Z-0.474
X2.211 Y-2.301 Z-0.476
X2.235 Y-2.293 Z-0.48
X2.262 Y-2.278 Z-0.487
X2.28 Y-2.264 Z-0.494
X2.29 Y-2.248 Z-0.489
X2.297 Y-2.232 Z-0.485
X2.305 Y-2.208 Z-0.482
X2.311 Y-2.181 Z-0.48
X2.312 Y-2.079 Z-0.479
Y-1.926
X2.311 Y-1.875 Z-0.48
X2.305 Y-1.849 Z-0.482
X2.297 Y-1.824 Z-0.485
X2.28 Y-1.792 Z-0.494
X2.254 Y-1.773 Z-0.485
X2.235 Y-1.763 Z-0.48
X2.211 Y-1.754 Z-0.476
X2.186 Y-1.748 Z-0.474
X2.16 Y-1.746 Z-0.473
X1.906
X1.88 Y-1.747 Z-0.474
X1.855 Y-1.752 Z-0.475
X1.82 Y-1.764 Z-0.481
X1.804 Y-1.772 Z-0.484
X1.786 Y-1.784 Z-0.489
X1.77 Y-1.799 Z-0.494
X1.755 Y-1.821 Z-0.496
X1.749 Y-1.836
X1.746 Y-1.847 Z-0.494
X1.74 Y-1.875 Z-0.492
X1.739 Y-2.13
X1.74 Y-2.181
X1.746 Y-2.209 Z-0.494
X1.753 Y-2.232 Z-0.497
X1.763 Y-2.254 Z-0.502
X1.776 Y-2.276 Z-0.509
X1.785 Y-2.283 Z-0.507
X1.804 Y-2.294 Z-0.502
X1.829 Y-2.305 Z-0.497
X1.855 Y-2.312 Z-0.494
X1.88 Y-2.316 Z-0.492
X2.16 Y-2.317
X2.186 Y-2.315 Z-0.493
X2.211 Y-2.31 Z-0.495
X2.246 Y-2.297 Z-0.5
X2.271 Y-2.283 Z-0.508
X2.283 Y-2.275 Z-0.513
X2.295 Y-2.258 Z-0.51
X2.306 Y-2.232 Z-0.503
X2.313 Y-2.208 Z-0.5
X2.318 Y-2.181 Z-0.498
Y-1.875
X2.313 Y-1.848 Z-0.5
X2.306 Y-1.824 Z-0.503
X2.295 Y-1.798 Z-0.509
X2.283 Y-1.781 Z-0.513
X2.262 Y-1.767 Z-0.505
X2.229 Y-1.752 Z-0.497
X2.211 Y-1.746 Z-0.495
X2.186 Y-1.741 Z-0.493
X2.16 Y-1.739 Z-0.492
X1.88 Y-1.74
X1.855 Y-1.744 Z-0.494
X1.829 Y-1.751 Z-0.497
X1.803 Y-1.762 Z-0.502
X1.785 Y-1.773 Z-0.507
X1.776 Y-1.78 Z-0.509
X1.763 Y-1.802 Z-0.502
X1.753 Y-1.824 Z-0.497
X1.749 Y-1.836 Z-0.496
X1.742 Y-1.857
X1.735 Y-1.889 Z-0.505
X1.733 Y-1.916 Z-0.511
Y-1.922
Y-2.181
X1.739 Y-2.216 Z-0.513
X1.744 Y-2.232 Z-0.515
X1.758 Y-2.264 Z-0.522
X1.77 Y-2.283 Z-0.529
X1.789 Y-2.297 Z-0.523
X1.804 Y-2.304 Z-0.519
X1.829 Y-2.314 Z-0.515
X1.855 Y-2.32 Z-0.512
X1.88 Y-2.323 Z-0.511
X2.186 Y-2.322
X2.211 Y-2.318 Z-0.513
X2.237 Y-2.311 Z-0.516
X2.262 Y-2.299 Z-0.521
X2.288 Y-2.283 Z-0.532
X2.298 Y-2.272
X2.313 Y-2.237 Z-0.522
X2.323 Y-2.2 Z-0.518
X2.325 Y-2.181 Z-0.517
Y-1.875
X2.319 Y-1.837 Z-0.519
X2.313 Y-1.819 Z-0.522
X2.304 Y-1.796 Z-0.527
X2.295 Y-1.778 Z-0.534
X2.275 Y-1.764 Z-0.527
X2.262 Y-1.757 Z-0.522
X2.237 Y-1.745 Z-0.516
X2.211 Y-1.738 Z-0.513
X2.186 Y-1.734 Z-0.511
X1.88 Y-1.733
X1.855 Y-1.736 Z-0.512
X1.829 Y-1.742 Z-0.515
X1.804 Y-1.752 Z-0.519
X1.789 Y-1.759 Z-0.523
X1.77 Y-1.773 Z-0.529
X1.753 Y-1.803 Z-0.519
X1.74 Y-1.836 Z-0.514
X1.735 Y-1.857 Z-0.512
X1.733 Y-1.875 Z-0.511
Y-1.922
X1.732 Y-1.943 Z-0.514
X1.727 Y-1.997 Z-0.529
X1.726 Y-2.008 Z-0.53
Y-2.181
X1.729 Y-2.207 Z-0.531
X1.735 Y-2.232 Z-0.533
X1.743 Y-2.254 Z-0.537
X1.759 Y-2.283 Z-0.545
X1.764 Y-2.291 Z-0.548
X1.773 Y-2.298 Z-0.546
X1.804 Y-2.313 Z-0.537
X1.829 Y-2.323 Z-0.533
X1.855 Y-2.328 Z-0.531
X1.957 Y-2.33 Z-0.53
X2.186 Y-2.329
X2.211 Y-2.326 Z-0.531
X2.237 Y-2.319 Z-0.534
X2.262 Y-2.309 Z-0.539
X2.286 Y-2.297 Z-0.548
X2.302 Y-2.283 Z-0.553
X2.313 Y-2.261 Z-0.545
X2.324 Y-2.232 Z-0.539
X2.33 Y-2.2 Z-0.536
X2.332 Y-2.181
Y-1.875
X2.327 Y-1.837 Z-0.537
X2.324 Y-1.824 Z-0.539
X2.313 Y-1.796 Z-0.545
X2.302 Y-1.773 Z-0.553
X2.286 Y-1.759 Z-0.548
X2.262 Y-1.747 Z-0.539
X2.237 Y-1.736 Z-0.534
X2.211 Y-1.73 Z-0.531
X2.186 Y-1.727 Z-0.53
X1.906 Y-1.726
X1.855 Y-1.728
X1.829 Y-1.733 Z-0.533
X1.804 Y-1.743 Z-0.537
X1.773 Y-1.758 Z-0.546
X1.764 Y-1.765 Z-0.548
X1.753 Y-1.783 Z-0.542
X1.743 Y-1.802 Z-0.537
X1.735 Y-1.824 Z-0.533
X1.729 Y-1.849 Z-0.531
X1.726 Y-1.875 Z-0.53
Y-2.008
X1.725 Y-2.03 Z-0.533
X1.72 Y-2.083 Z-0.548
Y-2.094 Z-0.549
Y-2.181
X1.721 Y-2.207
X1.727 Y-2.232 Z-0.551
X1.739 Y-2.266 Z-0.557
X1.753 Y-2.291 Z-0.565
X1.762 Y-2.302 Z-0.568
X1.778 Y-2.311 Z-0.561
X1.804 Y-2.323 Z-0.554
X1.827 Y-2.33 Z-0.551
X1.855 Y-2.335 Z-0.549
X2.16 Y-2.336
X2.211 Y-2.334 Z-0.55
X2.239 Y-2.327 Z-0.552
X2.262 Y-2.319 Z-0.556
X2.281 Y-2.31 Z-0.562
X2.3 Y-2.299 Z-0.571
X2.309 Y-2.291 Z-0.574
X2.323 Y-2.259 Z-0.562
X2.332 Y-2.232 Z-0.557
X2.337 Y-2.207 Z-0.555
X2.338 Y-2.181
Y-1.875
X2.337 Y-1.849
X2.332 Y-1.824 Z-0.557
X2.323 Y-1.797 Z-0.562
X2.309 Y-1.765 Z-0.573
X2.3 Y-1.757 Z-0.571
X2.281 Y-1.746 Z-0.563
X2.262 Y-1.737 Z-0.556
X2.239 Y-1.729 Z-0.552
X2.208 Y-1.722 Z-0.549
X2.16 Y-1.72
X1.855 Y-1.721
X1.827 Y-1.726 Z-0.551
X1.804 Y-1.733 Z-0.554
X1.778 Y-1.745 Z-0.561
X1.762 Y-1.754 Z-0.568
X1.753 Y-1.765 Z-0.565
X1.739 Y-1.79 Z-0.557
X1.727 Y-1.824 Z-0.551
X1.721 Y-1.849 Z-0.549
X1.72 Y-1.875 Z-0.548
Y-2.094 Z-0.549
X1.719 Y-2.115 Z-0.551
X1.713 Y-2.169 Z-0.567
Y-2.18
X1.714 Y-2.207 Z-0.568
X1.718 Y-2.232 Z-0.569
X1.726 Y-2.258 Z-0.573
X1.738 Y-2.283 Z-0.579
X1.753 Y-2.308 Z-0.589
X1.786 Y-2.325 Z-0.576
X1.812 Y-2.334 Z-0.571
X1.827 Y-2.338 Z-0.569
X1.855 Y-2.342 Z-0.568
X2.16 Y-2.343
X2.211 Y-2.341
X2.244 Y-2.334 Z-0.571
X2.262 Y-2.328 Z-0.574
X2.288 Y-2.317 Z-0.582
X2.313 Y-2.302 Z-0.595
X2.323 Y-2.283 Z-0.587
X2.333 Y-2.258 Z-0.58
X2.34 Y-2.232 Z-0.575
X2.344 Y-2.207 Z-0.574
Y-1.849
X2.34 Y-1.824 Z-0.575
X2.333 Y-1.798 Z-0.579
X2.323 Y-1.773 Z-0.587
X2.313 Y-1.754 Z-0.595
X2.288 Y-1.739 Z-0.582
X2.262 Y-1.728 Z-0.574
X2.226 Y-1.717 Z-0.569
X2.211 Y-1.715 Z-0.568
X2.109 Y-1.713
X1.855 Y-1.714
X1.827 Y-1.718 Z-0.569
X1.804 Y-1.724 Z-0.572
X1.786 Y-1.731 Z-0.576
X1.753 Y-1.748 Z-0.589
X1.738 Y-1.773 Z-0.579
X1.726 Y-1.798 Z-0.573
X1.718 Y-1.824 Z-0.569
X1.714 Y-1.849 Z-0.568
X1.713 Y-2.18 Z-0.567
Y-2.202 Z-0.57
X1.712 Y-2.223 Z-0.578
X1.716 Y-2.254 Z-0.589
X1.72 Y-2.264 Z-0.592
X1.727 Y-2.283 Z-0.597
X1.743 Y-2.312 Z-0.61
X1.766 Y-2.326 Z-0.6
X1.786 Y-2.334 Z-0.594
X1.804 Y-2.341 Z-0.59
X1.823 Y-2.346 Z-0.588
X1.855 Y-2.349 Z-0.587
X2.211
X2.236 Y-2.345 Z-0.588
X2.27 Y-2.334 Z-0.593
X2.293 Y-2.324 Z-0.601
X2.313 Y-2.314 Z-0.612
X2.323 Y-2.306 Z-0.615
X2.333 Y-2.283 Z-0.605
X2.342 Y-2.258 Z-0.598
X2.348 Y-2.232 Z-0.593
X2.351 Y-2.207 Z-0.592
Y-1.849
X2.348 Y-1.824 Z-0.593
X2.342 Y-1.798 Z-0.597
X2.333 Y-1.773 Z-0.605
X2.323 Y-1.75 Z-0.615
X2.313 Y-1.742 Z-0.612
X2.294 Y-1.732 Z-0.601
X2.262 Y-1.719 Z-0.592
X2.237 Y-1.711 Z-0.588
X2.211 Y-1.707 Z-0.587
X1.842
X1.823 Y-1.71 Z-0.588
X1.804 Y-1.715 Z-0.59
X1.786 Y-1.722 Z-0.593
X1.753 Y-1.737 Z-0.605
X1.743 Y-1.744 Z-0.609
X1.728 Y-1.773 Z-0.596
X1.717 Y-1.798 Z-0.591
X1.71 Y-1.824 Z-0.588
X1.707 Y-1.849 Z-0.586
Y-2.207
X1.71 Y-2.232 Z-0.588
X1.72 Y-2.264 Z-0.592
X1.723 Y-2.28 Z-0.601
X1.728 Y-2.307 Z-0.624
X1.731 Y-2.312 Z-0.627
X1.733 Y-2.317 Z-0.63
X1.763 Y-2.334 Z-0.618
X1.787 Y-2.344 Z-0.611
X1.804 Y-2.349 Z-0.608
X1.829 Y-2.354 Z-0.606
X1.855 Y-2.356 Z-0.605
X2.211
X2.237 Y-2.353 Z-0.607
X2.262 Y-2.346 Z-0.61
X2.294 Y-2.334 Z-0.619
X2.313 Y-2.325 Z-0.628
X2.33 Y-2.313 Z-0.636
X2.343 Y-2.283 Z-0.622
X2.351 Y-2.258 Z-0.616
X2.356 Y-2.232 Z-0.612
X2.358 Y-2.181 Z-0.611
Y-1.875
X2.356 Y-1.824 Z-0.612
X2.351 Y-1.798 Z-0.615
X2.343 Y-1.773 Z-0.622
X2.33 Y-1.743 Z-0.635
X2.313 Y-1.731 Z-0.629
X2.294 Y-1.722 Z-0.619
X2.262 Y-1.71 Z-0.61
X2.237 Y-1.703 Z-0.607
X2.211 Y-1.7 Z-0.605
X1.855
X1.829 Y-1.702 Z-0.606
X1.804 Y-1.707 Z-0.608
X1.787 Y-1.712 Z-0.611
X1.753 Y-1.726 Z-0.622
X1.733 Y-1.739 Z-0.63
X1.718 Y-1.773 Z-0.614
X1.709 Y-1.797 Z-0.609
X1.702 Y-1.831 Z-0.606
X1.7 Y-1.926 Z-0.605
Y-2.181
X1.703 Y-2.232 Z-0.606
X1.711 Y-2.264 Z-0.61
X1.718 Y-2.283 Z-0.614
X1.731 Y-2.312 Z-0.627
X1.74 Y-2.325 Z-0.632
X1.757 Y-2.339 Z-0.633
X1.783 Y-2.352 Z-0.629
X1.805 Y-2.358 Z-0.626
X1.829 Y-2.362 Z-0.625
X2.211 Y-2.363 Z-0.624
X2.237 Y-2.36 Z-0.625
X2.262 Y-2.355 Z-0.628
X2.286 Y-2.347 Z-0.633
X2.317 Y-2.334 Z-0.647
X2.331 Y-2.328 Z-0.656
X2.337 Y-2.322 Z-0.657
X2.343 Y-2.309 Z-0.651
X2.352 Y-2.283 Z-0.64
X2.359 Y-2.26 Z-0.634
X2.363 Y-2.232 Z-0.63
X2.365 Y-2.13
X2.364 Y-1.836
X2.359 Y-1.798 Z-0.633
X2.352 Y-1.773 Z-0.64
X2.343 Y-1.747 Z-0.651
X2.336 Y-1.732 Z-0.658
X2.313 Y-1.72 Z-0.646
X2.286 Y-1.709 Z-0.633
X2.262 Y-1.701 Z-0.628
X2.237 Y-1.696 Z-0.625
X2.211 Y-1.693 Z-0.624
X1.829 Y-1.694 Z-0.625
X1.804 Y-1.699 Z-0.626
X1.771 Y-1.708 Z-0.633
X1.753 Y-1.716 Z-0.639
X1.727 Y-1.728 Z-0.653
X1.718 Y-1.747 Z-0.642
X1.708 Y-1.773 Z-0.632
X1.702 Y-1.792 Z-0.628
X1.695 Y-1.824 Z-0.625
X1.693 Y-1.926 Z-0.624
Y-2.181
X1.695 Y-2.232 Z-0.625
X1.702 Y-2.264 Z-0.628
X1.708 Y-2.283 Z-0.632
X1.718 Y-2.309 Z-0.642
X1.727 Y-2.328 Z-0.653
X1.753 Y-2.34 Z-0.639
X1.771 Y-2.347 Z-0.633
X1.805 Y-2.358 Z-0.626
X1.827 Y-2.363 Z-0.628
X1.88 Y-2.369 Z-0.642
X1.891 Z-0.643
X2.211
X2.237 Y-2.368 Z-0.644
X2.262 Y-2.363 Z-0.646
X2.288 Y-2.356 Z-0.651
X2.313 Y-2.347 Z-0.663
X2.34 Y-2.334 Z-0.68
X2.349 Y-2.32 Z-0.673
X2.361 Y-2.283 Z-0.658
X2.369 Y-2.245 Z-0.65
X2.371 Y-2.232 Z-0.649
Y-1.824
X2.367 Y-1.798 Z-0.651
X2.361 Y-1.773 Z-0.658
X2.349 Y-1.736 Z-0.673
X2.34 Y-1.722 Z-0.68
X2.313 Y-1.709 Z-0.663
X2.288 Y-1.7 Z-0.651
X2.262 Y-1.693 Z-0.646
X2.237 Y-1.688 Z-0.644
X2.16 Y-1.687 Z-0.643
X1.829
X1.804 Y-1.691 Z-0.645
X1.778 Y-1.697 Z-0.648
X1.753 Y-1.706 Z-0.657
X1.735 Y-1.713 Z-0.666
X1.72 Y-1.722 Z-0.674
X1.708 Y-1.747 Z-0.659
X1.699 Y-1.773 Z-0.649
X1.691 Y-1.801 Z-0.645
X1.688 Y-1.824 Z-0.643
Y-2.232
X1.691 Y-2.255 Z-0.645
X1.699 Y-2.283 Z-0.649
X1.708 Y-2.309 Z-0.66
X1.719 Y-2.334 Z-0.675
X1.734 Y-2.343 Z-0.667
X1.753 Y-2.35 Z-0.657
X1.778 Y-2.359 Z-0.649
X1.805 Y-2.366 Z-0.645
X1.829 Y-2.369 Z-0.643
X1.891
X1.913 Y-2.37 Z-0.646
X1.966 Y-2.376 Z-0.661
X1.977 Z-0.662
X2.237 Y-2.375
X2.262 Y-2.371 Z-0.664
X2.288 Y-2.365 Z-0.669
X2.313 Y-2.357 Z-0.68
X2.346 Y-2.343 Z-0.701
X2.351 Y-2.341 Z-0.705
X2.358 Y-2.322 Z-0.692
X2.364 Y-2.305 Z-0.684
X2.37 Y-2.283 Z-0.676
X2.375 Y-2.258 Z-0.67
X2.378 Y-2.232 Z-0.668
Y-1.824
X2.375 Y-1.798 Z-0.67
X2.37 Y-1.773 Z-0.676
X2.364 Y-1.751 Z-0.684
X2.358 Y-1.734 Z-0.692
X2.351 Y-1.715 Z-0.705
X2.334 Y-1.707 Z-0.692
X2.313 Y-1.699 Z-0.681
X2.288 Y-1.691 Z-0.669
X2.262 Y-1.685 Z-0.664
X2.237 Y-1.681 Z-0.662
X1.829 Y-1.68
X1.804 Y-1.683 Z-0.663
X1.778 Y-1.688 Z-0.666
X1.753 Y-1.696 Z-0.674
X1.719 Y-1.709 Z-0.694
X1.714 Y-1.711 Z-0.698
X1.711 Y-1.715 Z-0.696
X1.702 Y-1.737 Z-0.682
X1.69 Y-1.773 Z-0.667
X1.684 Y-1.798 Z-0.663
X1.681 Y-1.824 Z-0.662
Y-2.232
X1.684 Y-2.258 Z-0.663
X1.69 Y-2.283 Z-0.667
X1.696 Y-2.303 Z-0.674
X1.708 Y-2.334 Z-0.692
X1.711 Y-2.341 Z-0.696
X1.714 Y-2.346 Z-0.698
X1.73 Y-2.352 Z-0.686
X1.753 Y-2.36 Z-0.674
X1.778 Y-2.368 Z-0.667
X1.804 Y-2.373 Z-0.663
X1.829 Y-2.376 Z-0.662
X1.977
X1.999 Y-2.377 Z-0.665
X2.052 Y-2.382 Z-0.68
X2.063 Z-0.681
X2.237
X2.262 Y-2.379 Z-0.682
X2.288 Y-2.374 Z-0.687
X2.313 Y-2.367 Z-0.698
X2.339 Y-2.358 Z-0.713
X2.345 Y-2.357 Z-0.718
X2.364
X2.367 Y-2.331 Z-0.717
X2.369 Y-2.322 Z-0.71
X2.379 Y-2.283 Z-0.695
X2.383 Y-2.258 Z-0.688
X2.384 Y-2.232 Z-0.687
Y-1.824
X2.383 Y-1.798 Z-0.688
X2.379 Y-1.773 Z-0.695
X2.369 Y-1.734 Z-0.71
X2.367 Y-1.723 Z-0.718
X2.364 Y-1.699
X2.343 Z-0.717
X2.339 Y-1.698 Z-0.713
X2.313 Y-1.689 Z-0.698
X2.288 Y-1.682 Z-0.687
X2.262 Y-1.677 Z-0.682
X2.237 Y-1.674 Z-0.681
X1.855
X1.804 Y-1.675 Z-0.682
X1.785 Y-1.679 Z-0.683
X1.769 Y-1.682 Z-0.687
X1.753 Y-1.687 Z-0.692
X1.727 Y-1.695 Z-0.706
X1.711 Y-1.699 Z-0.718
X1.702
X1.699 Y-1.712 Z-0.717
X1.697 Y-1.722 Z-0.709
X1.688 Y-1.747 Z-0.695
X1.681 Y-1.773 Z-0.685
X1.676 Y-1.798 Z-0.682
X1.674 Y-1.824 Z-0.681
Y-2.232
X1.676 Y-2.258 Z-0.682
X1.681 Y-2.283 Z-0.685
X1.688 Y-2.309 Z-0.695
X1.697 Y-2.334 Z-0.709
X1.699 Y-2.345 Z-0.718
X1.702 Y-2.357
X1.713
X1.727 Y-2.361 Z-0.706
X1.753 Y-2.369 Z-0.692
X1.769 Y-2.374 Z-0.687
X1.804 Y-2.381 Z-0.682
X1.906 Y-2.382 Z-0.681
X2.063
X2.085 Y-2.383 Z-0.684
X2.138 Y-2.389 Z-0.699
X2.149 Z-0.7
X2.211
X2.262 Y-2.387 Z-0.701
X2.294 Y-2.381 Z-0.707
X2.317 Y-2.377 Z-0.718
X2.385
X2.387 Y-2.366
Y-2.291 Z-0.717
Y-2.283 Z-0.713
X2.39 Y-2.258 Z-0.707
X2.391 Y-2.232 Z-0.705
Y-1.824 Z-0.706
X2.39 Y-1.798 Z-0.707
X2.387 Y-1.773 Z-0.713
Y-1.763 Z-0.718
Y-1.684
X2.385 Y-1.679
X2.313 Z-0.717
X2.294 Y-1.675 Z-0.707
X2.262 Y-1.669 Z-0.701
X2.211 Y-1.667 Z-0.7
X1.804 Y-1.668
X1.785 Y-1.671 Z-0.702
X1.765 Y-1.675 Z-0.706
X1.746 Y-1.678 Z-0.714
X1.74 Y-1.679 Z-0.718
X1.681
X1.679 Y-1.69
Y-1.741
Y-1.747 Z-0.713
X1.673 Y-1.773 Z-0.703
X1.669 Y-1.798 Z-0.7
X1.667 Y-1.824 Z-0.699
Y-2.232 Z-0.7
X1.669 Y-2.258
X1.673 Y-2.283 Z-0.703
X1.679 Y-2.312 Z-0.715
Y-2.315 Z-0.718
Y-2.372
X1.681 Y-2.377
X1.742
X1.753 Y-2.379 Z-0.711
X1.765 Y-2.382 Z-0.706
X1.785 Y-2.386 Z-0.702
X1.804 Y-2.388 Z-0.7
X2.149 Y-2.389
X2.171 Y-2.39 Z-0.703
X2.224 Y-2.397 Z-0.717
X2.235 Z-0.718
X2.401
X2.407 Y-2.394
Y-1.662
X2.402 Y-1.659
X1.665
X1.659 Y-1.662
Y-2.394
X1.664 Y-2.397
X2.235
X2.257 Y-2.4
X2.31 Y-2.416
X2.321 Y-2.417
X2.421
X2.427 Y-2.413
Y-1.643
X2.421 Y-1.639
X1.645
X1.639 Y-1.643
Y-2.413
X1.645 Y-2.417
X2.321
X2.343 Y-2.42
X2.396 Y-2.436
X2.407 Y-2.437
X2.447
Y-1.619
X1.619
Y-2.437
X2.407
X2.425 Y-2.442
X2.456 Y-2.456
X2.463 Y-2.457
X2.466
Y-1.599
X1.6
Y-2.457
X2.463
X2.473 Y-2.453
X2.481 Y-2.442
X2.486 Y-2.426
X2.487 Y-2.373
Y-1.584
X2.484 Y-1.579
X1.584
X1.579 Y-1.581
Y-2.472
X1.582 Y-2.477
X2.482
X2.487 Y-2.475
Y-2.373
X2.49 Y-2.351
X2.506 Y-2.298
X2.507 Y-2.287
Y-1.563
X2.502 Y-1.559
X1.564
X1.559 Y-1.564
Y-2.493
X1.564 Y-2.497
X2.502
X2.507 Y-2.492
Y-2.287
X2.51 Y-2.265
X2.526 Y-2.212
X2.527 Y-2.201
Y-1.546
X2.522 Y-1.539
X1.544
X1.539 Y-1.546
Y-2.51
X1.544 Y-2.517
X2.522
X2.527 Y-2.51
Y-2.201
X2.53 Y-2.179
X2.546 Y-2.126
X2.547 Y-2.115
Y-1.522
X2.542 Y-1.519
X1.524
X1.519 Y-1.522
Y-2.534
X1.524 Y-2.537
X2.542
X2.546 Y-2.534
X2.547 Y-2.115
X2.55 Y-2.093
X2.566 Y-2.04
X2.567 Y-2.029
Y-1.503
X2.561 Y-1.499
X1.506
X1.499 Y-1.504
Y-2.553
X1.505 Y-2.557
X2.56
X2.567 Y-2.552
Y-2.029
X2.57 Y-2.007
X2.586 Y-1.954
X2.587 Y-1.943
Y-1.484
X2.578 Y-1.479
X1.489
X1.479 Y-1.484
Y-2.572
X1.488 Y-2.577
X2.577
X2.586 Y-2.572
X2.587 Y-1.943
X2.59 Y-1.921
X2.606 Y-1.868
X2.607 Y-1.857
Y-1.463
X2.602 Y-1.459
X1.464
X1.459 Y-1.466
Y-2.594
X1.464 Y-2.597
X2.602
X2.606 Y-2.59
X2.607 Y-1.857
X2.61 Y-1.835
X2.626 Y-1.782
X2.627 Y-1.771
Y-1.446
X2.623 Y-1.439
X1.443
X1.439 Y-1.446
Y-2.61
X1.443 Y-2.617
X2.623
X2.626 Y-2.61
X2.627 Y-1.771
X2.63 Y-1.749
X2.646 Y-1.696
X2.647 Y-1.685
Y-1.431
X2.643 Y-1.419
X1.423
X1.419 Y-1.431
Y-2.625
X1.423 Y-2.637
X2.642
X2.646 Y-2.625
X2.647 Y-1.685
X2.65 Y-1.663
X2.666 Y-1.61
X2.667 Y-1.599
Y-1.403
X2.661 Y-1.399
X1.405
X1.399 Y-1.403
Y-2.653
X1.405 Y-2.657
X2.661
X2.666 Y-2.653
X2.667 Y-1.599
X2.67 Y-1.578
X2.686 Y-1.525
X2.687 Y-1.514
Y-1.383
X2.679 Y-1.379
X1.388
X1.38 Y-1.384
X1.379 Y-2.673
X1.387 Y-2.677
X2.678
X2.686 Y-2.672
X2.687 Y-1.514
X2.69 Y-1.492
X2.706 Y-1.438
X2.707 Y-1.427
Y-1.364
X2.702 Y-1.359
X1.364
X1.36 Y-1.364
X1.359 Y-2.692
X1.364 Y-2.697
X2.702
X2.706 Y-2.692
X2.707 Y-1.427
X2.712 Y-1.409
X2.726 Y-1.379
X2.727 Y-1.372
Y-1.342
X2.721 Y-1.339
X1.345
X1.34 Y-1.342
X1.339 Y-2.714
X1.345 Y-2.717
X2.721
X2.726 Y-2.714
X2.727 Y-1.372
X2.723 Y-1.355
X2.711 Y-1.336
X2.693 Y-1.323
X2.676 Y-1.319
X1.323
X1.32 Y-1.325
X1.319 Y-2.731
X1.322 Y-2.737
X2.743
X2.746 Y-2.731
X2.747 Y-1.325
X2.744 Y-1.319
X2.676
X2.655 Y-1.316
X2.601 Y-1.3
X2.59 Y-1.299
X1.305
X1.3 Y-1.303
X1.299 Y-2.754
X1.305 Y-2.757
X2.761
X2.766 Y-2.753
X2.767 Y-1.302
X2.761 Y-1.299
X2.59
X2.568 Y-1.296
X2.515 Y-1.28
X2.504 Y-1.279
X1.287 Y-1.28
X1.28 Y-1.284
X1.279 Y-2.772
X1.287 Y-2.776
X2.779
X2.786 Y-2.772
X2.787 Y-1.284
X2.779 Y-1.28
X2.504 Y-1.279
X2.483 Y-1.276
X2.429 Y-1.26
X2.418 Y-1.259
X1.294
X1.26 Y-1.262
X1.259 Y-2.794
X1.294 Y-2.797
X2.772
X2.806 Y-2.794
X2.807 Y-1.262
X2.772 Y-1.259
X2.418
X2.396 Y-1.256
X2.343 Y-1.24
X2.332 Y-1.239
X1.243
X1.24 Y-1.262
X1.239 Y-2.794
X1.243 Y-2.817
X2.823
X2.826 Y-2.794
X2.827 Y-1.262
X2.823 Y-1.239
X2.332
X2.31 Y-1.236
X2.257 Y-1.22
X2.246 Y-1.219
X1.222
X1.22 Y-1.23
X1.219 Y-2.832
X1.221 Y-2.837
X2.844
X2.846 Y-2.826
X2.847 Y-1.224
X2.845 Y-1.219
X2.246
X2.225 Y-1.216
X2.171 Y-1.2
X2.16 Y-1.199
X1.205
X1.2 Y-1.202
X1.199 Y-2.854
X1.205 Y-2.857
X2.861
X2.866 Y-2.854
X2.867 Y-1.202
X2.861 Y-1.199
X2.16
X2.138 Y-1.196
X2.085 Y-1.18
X2.074 Y-1.179
X1.186 Y-1.18
X1.18 Y-1.183
X1.179 Y-2.873
X1.186 Y-2.877
X2.88
X2.886 Y-2.873
X2.887 Y-1.183
X2.88 Y-1.179
X2.074
X2.052 Y-1.176
X1.999 Y-1.16
X1.988 Y-1.159
X1.16 Y-1.16
X1.159 Y-2.896
X2.906
Y-1.16
X1.988 Y-1.159
X1.967 Y-1.156
X1.914 Y-1.14
X1.903 Y-1.139
X1.141 Y-1.14
X1.139 Y-2.896
X1.141 Y-2.917
X2.925
X2.926 Y-1.16
X2.925 Y-1.139
X1.903
X1.881 Y-1.136
X1.827 Y-1.12
X1.816 Y-1.119
X1.122 Y-1.12
X1.12 Y-1.125
X1.119 Y-2.932
X1.122 Y-2.937
X2.944
X2.946 Y-2.932
X2.947 Y-1.124
X2.944 Y-1.119
X1.816
X1.794 Y-1.116
X1.741 Y-1.1
X1.73 Y-1.099
X1.105 Y-1.1
X1.1 Y-1.104
X1.099 Y-2.952
X1.105 Y-2.957
X2.961
X2.966 Y-2.952
Y-1.104
X2.961 Y-1.099
X1.73
X1.709 Y-1.096
X1.656 Y-1.08
X1.645 Y-1.079
X1.085 Y-1.08
X1.08 Y-1.083
X1.079 Y-2.973
X1.085 Y-2.977
X2.981 Y-2.976
X2.986 Y-2.969
X2.987 Y-1.083
X2.981 Y-1.079
X1.645
X1.623 Y-1.076
X1.57 Y-1.06
X1.559 Y-1.059
X1.065 Y-1.06
X1.06 Y-1.063
Y-2.994
X1.065 Y-2.997
X3.001 Y-2.996
X3.006 Y-2.993
Y-1.062
X3.001 Y-1.059
X1.559
X1.537 Y-1.056
X1.484 Y-1.04
X1.473 Y-1.039
X1.046 Y-1.04
X1.04 Y-1.044
Y-3.012
X1.046 Y-3.017
X3.02 Y-3.016
X3.026 Y-3.012
Y-1.044
X3.02 Y-1.039
X1.473
X1.451 Y-1.036
X1.398 Y-1.02
X1.387 Y-1.019
X1.029 Y-1.02
X1.02 Y-1.024
Y-3.032
X1.029 Y-3.037
X3.037 Y-3.036
X3.046 Y-3.032
Y-1.024
X3.037 Y-1.019
X1.387
X1.365 Y-1.016
X1.312 Y-1.
X1.301 Y-0.999
X1.005 Y-1.
X1. Y-1.003
Y-3.053
X1.004 Y-3.057
X3.061 Y-3.056
X3.066 Y-3.053
Y-1.003
X3.062 Y-0.999
X1.301
X1.279 Y-0.996
X1.225 Y-0.98
X1.214 Y-0.979
X0.984 Y-0.98
X0.98 Y-0.986
Y-3.07
X0.984 Y-3.077
X3.082 Y-3.076
X3.086 Y-3.07
Y-0.986
X3.082 Y-0.979
X1.214
X1.193 Y-0.976
X1.14 Y-0.96
X1.129
X0.964
X0.96 Y-0.971
Y-3.085
X0.964 Y-3.097
X3.102 Y-3.096
X3.106 Y-3.085
Y-0.971
X3.102 Y-0.959
X1.129 Y-0.96
X1.107 Y-0.956
X1.054 Y-0.94
X1.043
X0.946
X0.94 Y-0.944
Y-3.113
X0.946 Y-3.117
X3.12 Y-3.116
X3.126 Y-3.112
Y-0.943
X3.12 Y-0.939
X1.043 Y-0.94
X1.021 Y-0.936
X0.967 Y-0.921
X0.956 Y-0.92
X0.928
X0.92 Y-0.924
Y-3.132
X0.928 Y-3.137
X3.138 Y-3.136
X3.146 Y-3.132
Y-0.924
X3.138 Y-0.919
X0.956 Y-0.92
X0.943 Y-0.915
X0.922 Y-0.901
X0.917 Y-0.9
X0.905
X0.9 Y-0.904
Y-3.152
X0.904 Y-3.157
X3.161 Y-3.156
X3.166 Y-3.152
Y-0.904
X3.162 Y-0.899
X0.917 Y-0.9
X0.905 Y-0.904
X0.893 Y-0.917
X0.884 Y-0.938
X0.88 Y-0.961
Y-0.973
Y-3.174
X0.886 Y-3.177
X3.18 Y-3.176
X3.186 Y-3.173
Y-0.883
X3.18 Y-0.879
X0.886 Y-0.88
X0.88 Y-0.883
Y-0.973
X0.877 Y-0.995
X0.861 Y-1.048
X0.86 Y-1.059
Y-3.185
X0.863 Y-3.197
X3.203 Y-3.196
X3.206 Y-3.191
Y-0.871
X3.203 Y-0.859
X0.863 Y-0.86
X0.86 Y-0.871
Y-1.059
X0.857 Y-1.081
X0.841 Y-1.135
X0.84 Y-1.146
Y-3.213
X0.845 Y-3.217
X3.22 Y-3.216
X3.226 Y-3.213
Y-0.843
X3.22 Y-0.84
X0.846
X0.84 Y-0.843
Y-1.146
X0.837 Y-1.167
X0.821 Y-1.22
X0.82 Y-1.231
Y-3.232
X0.827 Y-3.236
X3.238
X3.246 Y-3.232
Y-0.824
X3.239 Y-0.82
X0.835
X0.828
X0.82 Y-0.824
Y-1.231
X0.817 Y-1.253
X0.801 Y-1.306
X0.8 Y-1.317
Y-3.254
X0.835 Y-3.257
X3.231 Y-3.256
X3.265 Y-3.254
X3.266 Y-0.802
X3.231 Y-0.799
X0.835 Y-0.8
X0.8 Y-0.802
Y-1.317
X0.797 Y-1.339
X0.781 Y-1.392
X0.78 Y-1.403
Y-3.254
X0.784 Y-3.277
X3.282 Y-3.276
X3.286 Y-3.254
Y-0.802
X3.282 Y-0.779
X0.784 Y-0.78
X0.78 Y-0.802
Y-1.403
X0.777 Y-1.425
X0.761 Y-1.478
X0.76 Y-1.489
Y-3.291
X0.762 Y-3.297
X3.304 Y-3.296
X3.306 Y-3.291
Y-0.765
X3.304 Y-0.759
X0.762 Y-0.76
X0.76 Y-0.765
Y-1.489
X0.757 Y-1.511
X0.74 Y-1.564
Y-1.575
Y-3.314
X0.745 Y-3.317
X3.32 Y-3.316
X3.326 Y-3.314
Y-0.742
X3.321 Y-0.74
X0.746
X0.74 Y-0.743
Y-1.575
X0.736 Y-1.597
X0.72 Y-1.65
Y-1.661
Y-3.332
X0.726 Y-3.336
X3.339
X3.346 Y-3.332
Y-0.724
X3.34 Y-0.72
X0.727
X0.72 Y-0.724
Y-1.661
X0.716 Y-1.683
X0.7 Y-1.736
Y-1.747
Y-3.356
X3.366
Y-0.7
X0.7
Y-1.747
X0.696 Y-1.769
X0.68 Y-1.822
Y-1.833
Y-3.356
X0.682 Y-3.376
X3.384
X3.386 Y-3.356
Y-0.7
X3.384 Y-0.68
X0.682
X0.68 Y-0.7
Y-1.833
X0.676 Y-1.854
X0.66 Y-1.908
Y-1.919
Y-3.391
X0.661 Y-3.396
X3.403
X3.406 Y-3.391
Y-0.665
X3.403 Y-0.66
X0.663
X0.66 Y-0.665
Y-1.919
X0.656 Y-1.941
X0.64 Y-1.994
Y-2.005
Y-3.412
X0.645 Y-3.416
X3.42
X3.426 Y-3.411
Y-0.644
X3.421 Y-0.64
X0.645
X0.64 Y-0.645
Y-2.005
X0.636 Y-2.027
X0.62 Y-2.08
Y-2.091
Y-3.433
X0.625 Y-3.436
X3.44
X3.446 Y-3.432
Y-0.623
X3.44 Y-0.62
X0.626
X0.62 Y-0.624
Y-2.091
X0.616 Y-2.112
X0.6 Y-2.166
Y-2.177
Y-3.453
X0.606 Y-3.456
X3.46
X3.466 Y-3.453
Y-0.603
X3.46 Y-0.6
X0.606
X0.6 Y-0.603
Y-2.177
X0.596 Y-2.199
X0.58 Y-2.252
Y-2.263
Y-3.472
X0.586 Y-3.476
X3.479
X3.486 Y-3.472
Y-0.584
X3.479 Y-0.58
X0.587
X0.58 Y-0.584
Y-2.263
X0.576 Y-2.285
X0.56 Y-2.338
Y-2.349
Y-3.492
X0.565 Y-3.496
X3.501
X3.506 Y-3.491
Y-0.564
X3.501 Y-0.56
X0.565
X0.56 Y-0.565
Y-2.349
X0.556 Y-2.371
X0.54 Y-2.424
Y-2.435
Y-3.513
X0.545 Y-3.516
X3.521
X3.526 Y-3.513
Y-0.543
X3.521 Y-0.54
X0.545
X0.54 Y-0.543
Y-2.435
X0.536 Y-2.457
X0.52 Y-2.51
X0.519 Y-2.521
X0.52 Y-3.53
X0.525 Y-3.536
X3.541
X3.546 Y-3.529
Y-0.527
X3.541 Y-0.52
X0.525
X0.52 Y-0.527
X0.519 Y-2.521
X0.516 Y-2.543
X0.5 Y-2.596
X0.499 Y-2.607
X0.5 Y-3.544
X0.505 Y-3.556
X3.561
X3.566 Y-3.544
Y-0.512
X3.561 Y-0.5
X0.505
X0.5 Y-0.512
X0.499 Y-2.607
X0.496 Y-2.629
X0.48 Y-2.682
X0.479 Y-2.693
X0.48 Y-3.572
X0.486 Y-3.576
X3.58
X3.586 Y-3.572
Y-0.484
X3.58 Y-0.48
X0.486
X0.48 Y-0.484
X0.479 Y-2.693
X0.476 Y-2.715
X0.46 Y-2.768
X0.459 Y-2.779
X0.46 Y-3.592
X0.469 Y-3.596
X3.588
X3.601 Y-3.594
X3.606 Y-3.587
Y-0.464
X3.597 Y-0.46
X0.478
X0.465 Y-0.462
X0.46 Y-0.469
X0.459 Y-2.779
X0.456 Y-2.801
X0.44 Y-2.854
Y-2.865
Y-3.611
X0.445 Y-3.616
X3.588
X3.626 Y-3.611
Y-0.445
X3.621 Y-0.44
X0.478
X0.44 Y-0.445
Y-2.865
X0.436 Y-2.886
X0.421 Y-2.94
X0.42 Y-2.951
Y-3.63
X0.424 Y-3.636
X3.642
X3.646 Y-3.63
Y-0.426
X3.642 Y-0.42
X0.424
X0.42 Y-0.426
Y-2.951
X0.417 Y-2.972
X0.401 Y-3.026
X0.4 Y-3.037
Y-3.645
X0.404 Y-3.656
X3.662
X3.665 Y-3.645
X3.666 Y-0.411
X3.662 Y-0.4
X0.404
X0.4 Y-0.411
Y-3.037
X0.397 Y-3.059
X0.381 Y-3.112
X0.38 Y-3.123
Y-3.673
X0.386 Y-3.676
X3.68
X3.685 Y-3.672
X3.686 Y-0.394
X3.685 Y-0.383
X3.68 Y-0.38
X0.386
X0.38 Y-0.384
Y-3.123
X0.377 Y-3.144
X0.361 Y-3.197
X0.36 Y-3.208
X0.361 Y-3.692
X0.368 Y-3.695
X3.486 Y-3.696
X3.698 Y-3.695
X3.705 Y-3.691
X3.706 Y-0.496
X3.705 Y-0.365
X3.698 Y-0.361
X0.58 Y-0.36
X0.368 Y-0.361
X0.361 Y-0.365
X0.36 Y-3.208
X0.357 Y-3.23
X0.341 Y-3.284
X0.34 Y-3.295
X0.341 Y-3.713
X0.376 Y-3.716
X3.69
X3.725 Y-3.713
X3.726 Y-0.598
X3.725 Y-0.343
X3.69 Y-0.34
X0.376
X0.341 Y-0.343
X0.34 Y-3.295
X0.337 Y-3.316
X0.321 Y-3.37
X0.32 Y-3.38
Y-3.713
X0.325 Y-3.736
X3.741
X3.745 Y-3.713
X3.746 Y-0.343
X3.741 Y-0.32
X0.325
X0.32 Y-0.343
Y-3.38
X0.317 Y-3.402
X0.301 Y-3.455
X0.3 Y-3.466
Y-3.751
X0.303 Y-3.756
X3.763
X3.765 Y-3.75
Y-0.305
X3.763 Y-0.3
X0.303
X0.3 Y-0.305
Y-3.466
X0.297 Y-3.488
X0.281 Y-3.541
X0.28 Y-3.552
Y-3.773
X0.286 Y-3.776
X3.78
X3.785 Y-3.773
X3.786 Y-0.343
X3.785 Y-0.283
X3.78 Y-0.28
X0.286
X0.28 Y-0.283
Y-3.552
X0.277 Y-3.574
X0.261 Y-3.628
X0.26 Y-3.639
Y-3.792
X0.267 Y-3.796
X3.799
X3.805 Y-3.792
X3.806 Y-0.343
X3.805 Y-0.264
X3.799 Y-0.26
X0.267
X0.26 Y-0.264
Y-3.639
X0.257 Y-3.66
X0.241 Y-3.713
X0.24 Y-3.724
X0.241 Y-3.816
X3.69
X3.825
X3.826 Y-0.343
X3.825 Y-0.241
X0.274 Y-0.24
X0.241 Y-0.241
X0.24 Y-3.724
X0.237 Y-3.746
X0.221 Y-3.799
X0.22 Y-3.81
X0.223 Y-3.836
X3.843
X3.845 Y-3.816
X3.846 Y-0.343
X3.845 Y-0.241
X3.843 Y-0.22
X0.223
X0.22 Y-0.241
Y-3.81
X0.224 Y-3.824
X0.238 Y-3.84
X0.256 Y-3.85
X0.277 Y-3.856
X0.283
X3.864
X3.865 Y-3.846
Y-0.292
Y-0.205
X3.864 Y-0.2
X0.202
X0.2 Y-0.21
Y-3.851
X0.202 Y-3.856
X0.283
X0.304 Y-3.859
X0.358 Y-3.875
X0.369 Y-3.876
X3.88
X3.885 Y-3.871
Y-0.292
Y-0.185
X3.88 Y-0.18
X0.186
X0.18 Y-0.185
Y-3.871
X0.186 Y-3.876
X0.369
X0.391 Y-3.879
X0.444 Y-3.895
X0.455 Y-3.896
X3.9
X3.905 Y-3.892
Y-0.292
Y-0.164
X3.9 Y-0.16
X0.166
X0.16 Y-0.164
X0.161 Y-3.892
X0.166 Y-3.896
X0.455
X0.477 Y-3.899
X0.53 Y-3.915
X0.541 Y-3.916
X3.922
X3.925 Y-3.91
X3.926 Y-0.343
X3.925 Y-0.146
X3.922 Y-0.14
X0.144 Y-0.141
X0.14 Y-0.146
X0.141 Y-3.91
X0.144 Y-3.916
X0.541
X0.562 Y-3.919
X0.616 Y-3.935
X0.627 Y-3.936
X3.945
X3.946 Y-0.496
X3.945 Y-0.12
X0.121 Y-0.121
X0.12 Y-3.662
X0.121 Y-3.936
X0.627
X0.649 Y-3.939
X0.702 Y-3.955
X0.713 Y-3.956
X3.96 Y-3.955
X3.965 Y-3.951
Y-0.343
Y-0.105
X3.96 Y-0.1
X0.106 Y-0.101
X0.101 Y-0.105
Y-3.951
X0.106 Y-3.956
X0.713
X0.735 Y-3.959
X0.788 Y-3.975
X0.799 Y-3.976
X3.98 Y-3.975
X3.985 Y-3.972
Y-0.343
Y-0.084
X3.98 Y-0.08
X0.101 Y-0.081
X0.086
X0.081 Y-0.084
Y-3.918
Y-3.972
X0.086 Y-3.976
X0.799
X0.821 Y-3.979
X0.874 Y-3.995
X0.885 Y-3.996
X4.001 Y-3.995
X4.005 Y-3.989
Y-0.343
Y-0.067
X4.001 Y-0.061
X0.274 Y-0.06
X0.065 Y-0.061
X0.061 Y-0.067
Y-3.918
Y-3.989
X0.065 Y-3.995
X0.885 Y-3.996
X0.907 Y-3.999
X0.96 Y-4.015
X0.971 Y-4.016
X4.02 Y-4.015
X4.025 Y-4.012
Y-0.343
Y-0.044
X4.02 Y-0.041
X0.631 Y-0.04
X0.046 Y-0.041
X0.041 Y-0.044
Y-3.867
Y-4.012
X0.046 Y-4.015
X0.971 Y-4.016
X0.993 Y-4.019
X1.046 Y-4.035
X1.057 Y-4.036
X4.039 Y-4.035
X4.044 Y-4.031
X4.046 Y-0.649
X4.044 Y-0.025
X4.039 Y-0.021
X1.09 Y-0.02
X0.027 Y-0.021
X0.021 Y-0.025
X0.02 Y-3.458
X0.022 Y-4.031
X0.027 Y-4.035
X1.057 Y-4.036
X1.078 Y-4.039
X1.132 Y-4.055
X1.143 Y-4.056
X4.047 Y-4.055
X4.06 Y-4.053
X4.063 Y-4.046
X4.065 Y-4.02
Y-0.394
X4.064 Y-0.019
X4.063 Y-0.01
X4.06 Y-0.003
X4.047 Y-0.001
X1.192 Y0.
X0.019 Y-0.001
X0.006 Y-0.003
X0.002 Y-0.01
X0.001 Y-0.036
Y-3.816
X0.002 Y-4.037
X0.003 Y-4.046
X0.006 Y-4.053
X0.019 Y-4.055
X1.143 Y-4.056
X1.164 Y-4.059
X1.218 Y-4.075 Z-0.719
X1.229 Y-4.076
X4.047 Y-4.075
X4.075 Y-4.071
X4.083 Y-4.058
X4.085 Y-4.02
Y-0.394
Y-0.036
X4.083 Y0.002
X4.075 Y0.015
X4.047 Y0.019
X0.988 Y0.02
X0.019 Y0.019
X-0.009 Y0.015
X-0.017 Y0.002
X-0.019 Y-0.036
Y-3.867
Y-4.02
X-0.017 Y-4.058
X-0.01 Y-4.071
X0.019 Y-4.075
X1.229 Y-4.076
X1.251 Y-4.079 Z-0.72
X1.304 Y-4.095 Z-0.723
X1.315 Y-4.096
X4.073 Y-4.094
X4.084 Y-4.09 Z-0.722
X4.098 Y-4.076
X4.101 Y-4.071
X4.105 Y-4.02 Z-0.723
Y-0.394
Y-0.036
X4.101 Y0.015 Z-0.722
X4.098 Y0.02
X4.084 Y0.034
X4.073 Y0.038 Z-0.723
X1.243 Y0.04
X-0.007 Y0.038
X-0.019 Y0.033 Z-0.722
X-0.032 Y0.02
X-0.036 Y0.015
X-0.039 Y-0.036 Z-0.723
Y-3.867
Y-4.02
X-0.035 Y-4.071 Z-0.722
X-0.019 Y-4.089
X-0.007 Y-4.094 Z-0.723
X1.315 Y-4.096
X1.331 Z-0.718
X1.343 Z-0.706
X1.348 Z-0.69
G0 Z15.

G53 G0 Z0.
M30
